id,pin_code,place,latitude,longitude,created_at,updated_at
2186,700001,"Treasury Building, West Bengal",22.5882035,88.369913,2022-04-09 15:57:46 UTC,2022-04-09 15:57:46 UTC
2187,700064,"Bidhan Nagar, West Bengal",22.5947062,88.4072974098161,2022-04-09 15:57:46 UTC,2022-04-09 15:57:46 UTC
2188,700068,"Jodhpur Park, West Bengal",22.5056055,88.363674,2022-04-09 15:57:46 UTC,2022-04-09 15:57:46 UTC
2189,700073,"Kolkata University, West Bengal",22.574588,88.3623522,2022-04-09 15:57:46 UTC,2022-04-09 15:57:46 UTC
2190,700079,"Italgacha, West Bengal",22.6395655,88.4155329,2022-04-09 15:57:46 UTC,2022-04-09 15:57:46 UTC
2191,700083,"Nandannagar, West Bengal",29.998388,-90.222244,2022-04-09 15:57:46 UTC,2022-04-09 15:57:46 UTC
2192,700089,"Kalindi Housing Estate, West Bengal",22.6124242,88.4010293,2022-04-09 15:57:46 UTC,2022-04-09 15:57:46 UTC
2193,700094,"Panchasayar, West Bengal",22.4754951,88.3966022748144,2022-04-09 15:57:46 UTC,2022-04-09 15:57:46 UTC
2194,700100,"Vip Nagar, West Bengal",22.4829597,88.3496444,2022-04-09 15:57:46 UTC,2022-04-09 15:57:46 UTC
2195,700104,"Joka, West Bengal",22.44692515,88.2987531260208,2022-04-09 15:57:46 UTC,2022-04-09 15:57:46 UTC
2196,700108,"Indian Statistical Institute, West Bengal",22.44409665,88.3017146071834,2022-04-09 15:57:46 UTC,2022-04-09 15:57:46 UTC
2197,700115,"Sukchar, West Bengal",22.59225285,88.4752122308606,2022-04-09 15:57:46 UTC,2022-04-09 15:57:46 UTC
2198,700120,"Orderly Bazar, West Bengal",22.7632899,88.3643001,2022-04-09 15:57:46 UTC,2022-04-09 15:57:46 UTC
2199,700125,"Noapara, West Bengal",22.6398237,88.3941087,2022-04-09 15:57:46 UTC,2022-04-09 15:57:46 UTC
2200,700130,"Madhyagram Bazar, West Bengal",22.707635,88.448469,2022-04-09 15:57:46 UTC,2022-04-09 15:57:46 UTC
2201,700135,"Rajarhat, West Bengal",22.6236732,88.5013504,2022-04-09 15:57:46 UTC,2022-04-09 15:57:46 UTC
2202,700139,"Vivekananda Pally, West Bengal",22.70783915,88.4492149349747,2022-04-09 15:57:46 UTC,2022-04-09 15:57:46 UTC
2203,700144,"Baruipur Bazar, West Bengal",22.3663689,88.4280906152174,2022-04-09 15:57:46 UTC,2022-04-09 15:57:46 UTC
2204,700150,"Sonarpur, West Bengal",22.4382026,88.432045,2022-04-09 15:57:46 UTC,2022-04-09 15:57:46 UTC
2205,700155,"Abdalpur, West Bengal",22.59225285,88.4752122308606,2022-04-09 15:57:46 UTC,2022-04-09 15:57:46 UTC
2206,711101,"Pachal Bazar, West Bengal",22.5618579,88.3144166,2022-04-09 15:57:46 UTC,2022-04-09 15:57:46 UTC
2207,711105,"Dasnagar, West Bengal",22.58863565,88.3149776986413,2022-04-09 15:57:46 UTC,2022-04-09 15:57:46 UTC
2208,711109,"Danesh Sk Lane, West Bengal",22.5628886,88.2958858,2022-04-09 15:57:46 UTC,2022-04-09 15:57:46 UTC
2209,711226,"Udayanarayanpur, West Bengal",22.7213081,87.9824424,2022-04-09 15:57:46 UTC,2022-04-09 15:57:46 UTC
2210,711311,"Jagaeha, West Bengal",22.028205,88.0622883400941,2022-04-09 15:57:46 UTC,2022-04-09 15:57:46 UTC
2211,711325,"Panitras, West Bengal",23.36424245,87.9438922836952,2022-04-09 15:57:46 UTC,2022-04-09 15:57:46 UTC
2212,711403,"Bank, West Bengal",22.5981589,88.2740081,2022-04-09 15:57:46 UTC,2022-04-09 15:57:46 UTC
2213,711409,"Makardah, West Bengal",22.6286882,88.2366824,2022-04-09 15:57:46 UTC,2022-04-09 15:57:46 UTC
2214,712102,"Chinsura Rs, West Bengal",22.8992251,88.3921337,2022-04-09 15:57:46 UTC,2022-04-09 15:57:46 UTC
2215,712122,"Badenganj, West Bengal",22.6559437,88.3079715,2022-04-09 15:57:46 UTC,2022-04-09 15:57:46 UTC
2216,712137,"Gondalpara, West Bengal",22.8628937,88.3674543,2022-04-09 15:57:46 UTC,2022-04-09 15:57:46 UTC
2217,712153,"Ramnathpur, West Bengal",22.8628937,88.3674543,2022-04-09 15:57:46 UTC,2022-04-09 15:57:46 UTC
2218,712245,"Makhla, West Bengal",22.6708517,88.3386475,2022-04-09 15:57:46 UTC,2022-04-09 15:57:46 UTC
2219,712405,"Khamar Chandi, West Bengal",22.8813141,88.1759034,2022-04-09 15:57:46 UTC,2022-04-09 15:57:46 UTC
2220,712419,"Jangalpara, West Bengal",22.7320451,88.2051515,2022-04-09 15:57:46 UTC,2022-04-09 15:57:46 UTC
2221,712125,"Telinipara, West Bengal",23.36424245,87.9438922836952,2022-04-09 15:57:46 UTC,2022-04-09 15:57:46 UTC
2222,712201,"Serampore H O, West Bengal",22.7545791,88.3383079,2022-04-09 15:57:46 UTC,2022-04-09 15:57:46 UTC
2223,712302,"Dhaniakhali, West Bengal",22.9679671,88.0980927,2022-04-09 15:57:46 UTC,2022-04-09 15:57:46 UTC
2224,712502,"Shibpur Bansberia, West Bengal",22.9737049,88.4014678,2022-04-09 15:57:46 UTC,2022-04-09 15:57:46 UTC
2225,712612,"Kamarpukur, West Bengal",22.8954608,87.6601634,2022-04-09 15:57:46 UTC,2022-04-09 15:57:46 UTC
2226,713102,"Nutanganj, West Bengal",23.36424245,87.9438922836952,2022-04-09 15:57:46 UTC,2022-04-09 15:57:46 UTC
2227,713337,"Jaykaynagar, West Bengal",23.8469523,86.9035212,2022-04-09 15:57:46 UTC,2022-04-09 15:57:46 UTC
2228,713341,"Kanyapur, West Bengal",23.6705724,86.9666764,2022-04-09 15:57:46 UTC,2022-04-09 15:57:46 UTC
2229,713346,"Pandaveswar, West Bengal",23.7172113,87.2703982,2022-04-09 15:57:46 UTC,2022-04-09 15:57:46 UTC
2230,713363,"Ukhra, West Bengal",23.6474107,87.2446639,2022-04-09 15:57:46 UTC,2022-04-09 15:57:46 UTC
2231,713371,"Mithani, West Bengal",23.6705724,86.9666764,2022-04-09 15:57:46 UTC,2022-04-09 15:57:46 UTC
2232,713501,"Bagnapara, West Bengal",23.2421852,88.3289884,2022-04-09 15:57:46 UTC,2022-04-09 15:57:46 UTC
2233,713516,"Panuhat, West Bengal",22.6950342,88.4073585,2022-04-09 15:57:46 UTC,2022-04-09 15:57:46 UTC
2234,721137,"Machada, West Bengal",22.4475602,87.8922662,2022-04-09 15:57:46 UTC,2022-04-09 15:57:46 UTC
2235,721142,"Ramtarakhat, West Bengal",22.3497409,87.5555339,2022-04-09 15:57:46 UTC,2022-04-09 15:57:46 UTC
2236,721146,"Sekandari, West Bengal",22.9493156,88.6384756,2022-04-09 15:57:46 UTC,2022-04-09 15:57:46 UTC
2237,722158,"Saltora, West Bengal",23.5217886,86.935786,2022-04-09 15:57:46 UTC,2022-04-09 15:57:46 UTC
2238,722206,"Patrasayer, West Bengal",23.21639265,87.5133532481913,2022-04-09 15:57:46 UTC,2022-04-09 15:57:46 UTC
2239,712424,"Antpar, West Bengal",12.9992734,77.5493702,2022-04-09 15:57:46 UTC,2022-04-09 15:57:46 UTC
2240,713142,"Khandaghosh, West Bengal",23.1247122,87.7707683682183,2022-04-09 15:57:46 UTC,2022-04-09 15:57:46 UTC
2241,713147,"Nutanhat, West Bengal",23.4469677,87.4546869303269,2022-04-09 15:57:46 UTC,2022-04-09 15:57:46 UTC
2242,713154,"Amadpur, West Bengal",23.4469677,87.4546869303269,2022-04-09 15:57:46 UTC,2022-04-09 15:57:46 UTC
2243,713160,"Gonpur, West Bengal",23.2527176,87.8456167088229,2022-04-09 15:57:46 UTC,2022-04-09 15:57:46 UTC
2244,713167,"Orgram, West Bengal",23.435726,87.7635526,2022-04-09 15:57:46 UTC,2022-04-09 15:57:46 UTC
2245,713203,"Durgapur Steel Project St, West Bengal",23.53941955,87.254626889464,2022-04-09 15:57:46 UTC,2022-04-09 15:57:46 UTC
2246,713304,"Hill View, West Bengal",23.6847268,86.9546123,2022-04-09 15:57:46 UTC,2022-04-09 15:57:46 UTC
2247,713330,"Charanpur, West Bengal",23.6851336,86.9754567,2022-04-09 15:57:46 UTC,2022-04-09 15:57:46 UTC
2248,713380,"Kendra, West Bengal",23.6979744,87.6434671,2022-04-09 15:57:46 UTC,2022-04-09 15:57:46 UTC
2249,713387,"Nadiha, West Bengal",23.48454125,88.5567630747054,2022-04-09 15:57:46 UTC,2022-04-09 15:57:46 UTC
2250,713406,"Galsi, West Bengal",23.3388381,87.6907004,2022-04-09 15:57:46 UTC,2022-04-09 15:57:46 UTC
2251,713421,"Raina, West Bengal",23.0707856,87.9027448,2022-04-09 15:57:46 UTC,2022-04-09 15:57:46 UTC
2252,713427,"Uchalon, West Bengal",23.4469677,87.4546869303269,2022-04-09 15:57:46 UTC,2022-04-09 15:57:46 UTC
2253,721148,"Rohini, West Bengal",26.7646704,88.3364677,2022-04-09 15:57:46 UTC,2022-04-09 15:57:46 UTC
2254,721156,"Marhtala, West Bengal",23.9698127,88.040676351825,2022-04-09 15:57:46 UTC,2022-04-09 15:57:46 UTC
2255,722102,"Kenduadihi, West Bengal",23.23736625,87.0445233952588,2022-04-09 15:57:46 UTC,2022-04-09 15:57:46 UTC
2256,722137,"Jhanti Pahari, West Bengal",23.3536166,86.9046533,2022-04-09 15:57:46 UTC,2022-04-09 15:57:46 UTC
2257,713433,"Ura, West Bengal",12.9781814,77.5696607,2022-04-09 15:57:46 UTC,2022-04-09 15:57:46 UTC
2258,731101,"Pranabanandapalli, West Bengal",26.31957785,89.4414149287713,2022-04-09 15:57:46 UTC,2022-04-09 15:57:46 UTC
2259,731127,"Mohammad Bazar, West Bengal",24.03588205,87.5903003922919,2022-04-09 15:57:46 UTC,2022-04-09 15:57:46 UTC
2260,731130,"Rajnagar, West Bengal",23.9471353,87.3119756,2022-04-09 15:57:46 UTC,2022-04-09 15:57:46 UTC
2261,731137,"Nagari, West Bengal",22.9393029,88.6378742,2022-04-09 15:57:46 UTC,2022-04-09 15:57:46 UTC
2262,731216,"Mallarpur, West Bengal",24.0772645,87.7224826,2022-04-09 15:57:46 UTC,2022-04-09 15:57:46 UTC
2263,731253,"Bagdola, West Bengal",22.6316084,88.4050744,2022-04-09 15:57:46 UTC,2022-04-09 15:57:46 UTC
2264,734101,"Darjeeling Bazar, West Bengal",27.043746,88.2658591981908,2022-04-09 15:57:46 UTC,2022-04-09 15:57:46 UTC
2265,735101,"Jalpaiguri, West Bengal",26.5242688,88.7201082,2022-04-09 15:57:46 UTC,2022-04-09 15:57:46 UTC
2266,735121,"Danguajhar, West Bengal",26.686055,89.4131176,2022-04-09 15:57:46 UTC,2022-04-09 15:57:46 UTC
2267,735211,"Falakata, West Bengal",26.5179475,89.2012659,2022-04-09 15:57:46 UTC,2022-04-09 15:57:46 UTC
2268,735220,"Madarihat, West Bengal",26.6941144,89.2786204,2022-04-09 15:57:46 UTC,2022-04-09 15:57:46 UTC
2269,735224,"Maynaguri, West Bengal",26.5786085,88.8229099,2022-04-09 15:57:46 UTC,2022-04-09 15:57:46 UTC
2270,735301,"Changrabandha, West Bengal",26.4127385,88.9198861,2022-04-09 15:57:46 UTC,2022-04-09 15:57:46 UTC
2271,735303,"Jamaldah, West Bengal",26.43143,89.029002,2022-04-09 15:57:46 UTC,2022-04-09 15:57:46 UTC
2272,731218,"Mayureswar, West Bengal",23.9833282,87.7634034,2022-04-09 15:57:46 UTC,2022-04-09 15:57:46 UTC
2273,731233,"Chandipur Tarapith, West Bengal",24.1181801,87.7960437,2022-04-09 15:57:46 UTC,2022-04-09 15:57:46 UTC
2274,731243,"Nalhati Township, West Bengal",24.2769,87.9744083290995,2022-04-09 15:57:46 UTC,2022-04-09 15:57:46 UTC
2275,734215,"Nagrispur, West Bengal",26.8866407,88.1877798,2022-04-09 15:57:46 UTC,2022-04-09 15:57:46 UTC
2276,734218,"Phuguri, West Bengal",26.8866407,88.1877798,2022-04-09 15:57:46 UTC,2022-04-09 15:57:46 UTC
2277,734421,"A P Bagdogra, West Bengal",26.7194252,88.3068054,2022-04-09 15:57:46 UTC,2022-04-09 15:57:46 UTC
2278,734430,"North Bengal University, West Bengal",22.5964916,88.4174395,2022-04-09 15:57:46 UTC,2022-04-09 15:57:46 UTC
2279,735138,"Chaulhati, West Bengal",26.4994835,88.6676732,2022-04-09 15:57:46 UTC,2022-04-09 15:57:46 UTC
2280,735217,"Kalchini, West Bengal",26.6910619,89.4474765,2022-04-09 15:57:46 UTC,2022-04-09 15:57:46 UTC
2281,735229,"Sallihat, West Bengal",26.7011224,89.2753101904409,2022-04-09 15:57:46 UTC,2022-04-09 15:57:46 UTC
2282,736131,"Bakshirhat, West Bengal",26.3252008,89.7659933,2022-04-09 15:57:46 UTC,2022-04-09 15:57:46 UTC
2283,736146,"Mathabhanga, West Bengal",26.3403146,89.2155563,2022-04-09 15:57:46 UTC,2022-04-09 15:57:46 UTC
2284,736170,"Ghugumari, West Bengal",26.31957785,89.4414149287713,2022-04-09 15:57:46 UTC,2022-04-09 15:57:46 UTC
2285,734204,"Dow Hill, West Bengal",26.897226,88.283502,2022-04-09 15:57:46 UTC,2022-04-09 15:57:46 UTC
2286,734213,"Lopchu, West Bengal",26.8866407,88.1877798,2022-04-09 15:57:46 UTC,2022-04-09 15:57:46 UTC
2287,781308,"Mandia, Assam",,,2022-04-09 15:57:47 UTC,2022-04-09 15:57:47 UTC
2288,787028,"Nowboicha, Assam",,,2022-04-09 15:57:47 UTC,2022-04-09 15:57:47 UTC
2289,700002,"Satchasipara, West Bengal",22.55897705,88.3437985051968,2022-04-09 15:57:47 UTC,2022-04-09 15:57:47 UTC
2290,700003,"Patrika, West Bengal",29.998388,-90.222244,2022-04-09 15:57:47 UTC,2022-04-09 15:57:47 UTC
2291,700004,"R G Kar M C Hospital, West Bengal",22.6044756,88.378406691258,2022-04-09 15:57:47 UTC,2022-04-09 15:57:47 UTC
2292,700005,"Hatkhola, West Bengal",22.5996105,88.3788189,2022-04-09 15:57:47 UTC,2022-04-09 15:57:47 UTC
2293,700006,"Beadon Street, West Bengal",22.5898402,88.3605481,2022-04-09 15:57:47 UTC,2022-04-09 15:57:47 UTC
2294,700007,"Barabazar H O, West Bengal",22.5386694,88.3723074,2022-04-09 15:57:47 UTC,2022-04-09 15:57:47 UTC
2295,700008,"Barisha, West Bengal",22.5996105,88.3788189,2022-04-09 15:57:47 UTC,2022-04-09 15:57:47 UTC
2296,700009,"Sarani Rarsibagan, West Bengal",22.5627359,88.3594981,2022-04-09 15:57:47 UTC,2022-04-09 15:57:47 UTC
2297,700010,"Subhas Sarobar, West Bengal",22.5030906,88.3113573,2022-04-09 15:57:47 UTC,2022-04-09 15:57:47 UTC
2298,700011,"Narkeldanga, West Bengal",22.5763206,88.3802213,2022-04-09 15:57:47 UTC,2022-04-09 15:57:47 UTC
2299,700012,"Sankaritala, West Bengal",22.55897705,88.3437985051968,2022-04-09 15:57:47 UTC,2022-04-09 15:57:47 UTC
2300,700013,"Mott Lane, West Bengal",22.5080547,88.3533289,2022-04-09 15:57:47 UTC,2022-04-09 15:57:47 UTC
2301,700014,"Taltala, West Bengal",22.59175005,88.4123271242104,2022-04-09 15:57:47 UTC,2022-04-09 15:57:47 UTC
2302,700015,"Seal Lane, West Bengal",22.5633329,88.3802086,2022-04-09 15:57:47 UTC,2022-04-09 15:57:47 UTC
2303,700016,"Elliot Road, West Bengal",22.5505188,88.3615519,2022-04-09 15:57:47 UTC,2022-04-09 15:57:47 UTC
2304,700017,"Circus Avenue, West Bengal",22.5417004,88.362616,2022-04-09 15:57:47 UTC,2022-04-09 15:57:47 UTC
2305,700018,"Bartala, West Bengal",22.5827795,88.352839,2022-04-09 15:57:47 UTC,2022-04-09 15:57:47 UTC
2306,700019,"Ballygunge Science College, West Bengal",22.52655175,88.3623910552296,2022-04-09 15:57:47 UTC,2022-04-09 15:57:47 UTC
2307,700020,"Chandra Bose Road, West Bengal",22.5413491,88.3508921,2022-04-09 15:57:47 UTC,2022-04-09 15:57:47 UTC
2308,799106,"Boxa Nagar, Tripura",,,2022-04-09 15:57:47 UTC,2022-04-09 15:57:47 UTC
2309,799107,"Charilam, Tripura",,,2022-04-09 15:57:47 UTC,2022-04-09 15:57:47 UTC
2310,781007,"Ulubari, Assam",,,2022-04-09 15:57:47 UTC,2022-04-09 15:57:47 UTC
2311,700021,"Fort Willium, West Bengal",22.55449655,88.3380131840883,2022-04-09 15:57:47 UTC,2022-04-09 15:57:47 UTC
2312,700022,"Bakery Road, West Bengal",22.546598,88.3274551,2022-04-09 15:57:47 UTC,2022-04-09 15:57:47 UTC
2313,700023,"Raja Janakinath, West Bengal",22.5147558,88.3575199,2022-04-09 15:57:47 UTC,2022-04-09 15:57:47 UTC
2314,700024,"Reach, West Bengal",22.5481197,88.289735,2022-04-09 15:57:47 UTC,2022-04-09 15:57:47 UTC
2315,700025,"Ramkrishna Park, West Bengal",22.1909942,88.7514899,2022-04-09 15:57:47 UTC,2022-04-09 15:57:47 UTC
2316,700026,"Keoratala, West Bengal",22.5156247,88.3409978362002,2022-04-09 15:57:47 UTC,2022-04-09 15:57:47 UTC
2317,700028,"Kumarpare, West Bengal",26.7690708,88.7396777,2022-04-09 15:57:47 UTC,2022-04-09 15:57:47 UTC
2318,700029,"Sarat Bose Road, West Bengal",22.5234901,88.3521924,2022-04-09 15:57:47 UTC,2022-04-09 15:57:47 UTC
2319,700030,"Sethbagan, West Bengal",29.998388,-90.222244,2022-04-09 15:57:47 UTC,2022-04-09 15:57:47 UTC
2320,700031,"K P Roy Lane, West Bengal",22.5086357,88.377098,2022-04-09 15:57:47 UTC,2022-04-09 15:57:47 UTC
2321,700032,"Hossain Road, West Bengal",22.5270342,88.3199286,2022-04-09 15:57:47 UTC,2022-04-09 15:57:47 UTC
2322,700033,"Indrani Park, West Bengal",22.50135215,88.3509350795994,2022-04-09 15:57:47 UTC,2022-04-09 15:57:47 UTC
2323,700035,"Desh Bandhu Road, West Bengal",22.6480474,88.3616645,2022-04-09 15:57:47 UTC,2022-04-09 15:57:47 UTC
2324,700036,"Bengal Immunity, West Bengal",22.59175005,88.4123271242104,2022-04-09 15:57:47 UTC,2022-04-09 15:57:47 UTC
2325,700037,"Belgachia, West Bengal",22.6059241,88.3863913,2022-04-09 15:57:47 UTC,2022-04-09 15:57:47 UTC
2326,700038,"Sahapur, West Bengal",29.998388,-90.222244,2022-04-09 15:57:47 UTC,2022-04-09 15:57:47 UTC
2327,700039,"Picnic Garden, West Bengal",22.5281329,88.3858345,2022-04-09 15:57:47 UTC,2022-04-09 15:57:47 UTC
2328,700040,"Russa, West Bengal",22.499136,88.3488056,2022-04-09 15:57:47 UTC,2022-04-09 15:57:47 UTC
2329,700041,"Paschim Putuary, West Bengal",22.4810058,88.3430922,2022-04-09 15:57:47 UTC,2022-04-09 15:57:47 UTC
2330,700042,"Bose Pukur Road, West Bengal",22.5133113,88.3828262,2022-04-09 15:57:47 UTC,2022-04-09 15:57:47 UTC
2331,700043,"Sonai, West Bengal",23.3420785,86.3292789,2022-04-09 15:57:47 UTC,2022-04-09 15:57:47 UTC
2332,700045,"La Gardens, West Bengal",22.5080547,88.3533289,2022-04-09 15:57:47 UTC,2022-04-09 15:57:47 UTC
2333,700046,"Gobinda Khatik Road, West Bengal",22.5504857,88.3852865,2022-04-09 15:57:47 UTC,2022-04-09 15:57:47 UTC
2334,700047,"Naktala, West Bengal",22.472836,88.3674517,2022-04-09 15:57:47 UTC,2022-04-09 15:57:47 UTC
2335,700048,"Basak Bagan, West Bengal",22.5842371,88.3635089,2022-04-09 15:57:47 UTC,2022-04-09 15:57:47 UTC
2336,700049,"Nimta, West Bengal",22.9815711,88.6599493,2022-04-09 15:57:47 UTC,2022-04-09 15:57:47 UTC
2337,700050,"South Sinthee, West Bengal",22.6170856,88.3853195,2022-04-09 15:57:47 UTC,2022-04-09 15:57:47 UTC
2338,700051,"Birati, West Bengal",22.6632119,88.4271269,2022-04-09 15:57:47 UTC,2022-04-09 15:57:47 UTC
2339,700052,"Kolkata Air Port, West Bengal",22.5177264,88.3214565,2022-04-09 15:57:47 UTC,2022-04-09 15:57:47 UTC
2340,700054,"Kankurgachi, West Bengal",22.580493,88.38951905,2022-04-09 15:57:47 UTC,2022-04-09 15:57:47 UTC
2341,700055,"Shyamnagar Dum Dum, West Bengal",22.6364899,88.4120228,2022-04-09 15:57:47 UTC,2022-04-09 15:57:47 UTC
2342,700057,"Ariadaha, West Bengal",22.53780505,88.3342530479433,2022-04-09 15:57:47 UTC,2022-04-09 15:57:47 UTC
2343,700058,"Kamarhati Mills, West Bengal",22.6810246,88.3715343,2022-04-09 15:57:47 UTC,2022-04-09 15:57:47 UTC
2344,700060,"Mahendra Banerjee Road, West Bengal",22.4997204,88.2935046,2022-04-09 15:57:47 UTC,2022-04-09 15:57:47 UTC
2345,700061,"Sarsoona, West Bengal",22.59175005,88.4123271242104,2022-04-09 15:57:47 UTC,2022-04-09 15:57:47 UTC
2346,700062,"W B G S Camp, West Bengal",22.55897705,88.3437985051968,2022-04-09 15:57:47 UTC,2022-04-09 15:57:47 UTC
2347,700027,"Alipore Store Yard, West Bengal",,,2022-04-09 15:57:47 UTC,2022-04-09 15:57:47 UTC
2348,700034,"Behala Municipal Market, West Bengal",,,2022-04-09 15:57:47 UTC,2022-04-09 15:57:47 UTC
2349,700044,"Rajabagan Dok Yeard, West Bengal",,,2022-04-09 15:57:47 UTC,2022-04-09 15:57:47 UTC
2350,700053,"Nalini Ranjan Avenue, West Bengal",,,2022-04-09 15:57:47 UTC,2022-04-09 15:57:47 UTC
2351,700056,"Belgharia Mohini Mills, West Bengal",,,2022-04-09 15:57:47 UTC,2022-04-09 15:57:47 UTC
2352,700063,"Paschim Barisha, West Bengal",,,2022-04-09 15:57:47 UTC,2022-04-09 15:57:47 UTC
2353,700088,"Telecom Factory, West Bengal",,,2022-04-09 15:57:47 UTC,2022-04-09 15:57:47 UTC
2354,700098,"Bidhan Nagar Sai Complex, West Bengal",,,2022-04-09 15:57:47 UTC,2022-04-09 15:57:47 UTC
2355,700116,"Balaram Dharma Sopan, West Bengal",,,2022-04-09 15:57:47 UTC,2022-04-09 15:57:47 UTC
2356,700145,"Malancha Mahinagar, West Bengal",,,2022-04-09 15:57:47 UTC,2022-04-09 15:57:47 UTC
2357,700151,"Dakshin Jagatdal, West Bengal",,,2022-04-09 15:57:47 UTC,2022-04-09 15:57:47 UTC
2358,700065,"Subhas Nagar (Durganagar), West Bengal",22.6357069,88.4101728,2022-04-09 15:57:47 UTC,2022-04-09 15:57:47 UTC
2359,700066,"Bidhangarh, West Bengal",22.59175005,88.4123271242104,2022-04-09 15:57:47 UTC,2022-04-09 15:57:47 UTC
2360,700067,"Lily Biscuit, West Bengal",22.34313405,88.4554686457944,2022-04-09 15:57:47 UTC,2022-04-09 15:57:47 UTC
2361,700069,"Income Tax Building, West Bengal",22.5689234,88.3460111,2022-04-09 15:57:47 UTC,2022-04-09 15:57:47 UTC
2362,700071,"Russel Street, West Bengal",22.5482376,88.3504305,2022-04-09 15:57:47 UTC,2022-04-09 15:57:47 UTC
2363,700072,"Hindustan Building, West Bengal",22.5177017,88.3632073,2022-04-09 15:57:47 UTC,2022-04-09 15:57:47 UTC
2364,700074,"Motijheel, West Bengal",22.6237506,88.4104856,2022-04-09 15:57:47 UTC,2022-04-09 15:57:47 UTC
2365,700075,"Viviekanagar, West Bengal",22.5331407,88.3472282,2022-04-09 15:57:47 UTC,2022-04-09 15:57:47 UTC
2366,700076,"Dakshineswar, West Bengal",22.654827,88.3575776228964,2022-04-09 15:57:47 UTC,2022-04-09 15:57:47 UTC
2367,700077,"Bediapara, West Bengal",22.53780505,88.3342530479433,2022-04-09 15:57:47 UTC,2022-04-09 15:57:47 UTC
2368,700078,"Jadavgarh, West Bengal",22.5029884,88.3677271,2022-04-09 15:57:47 UTC,2022-04-09 15:57:47 UTC
2369,700080,"Jessore Road, West Bengal",22.6170128,88.412467,2022-04-09 15:57:47 UTC,2022-04-09 15:57:47 UTC
2370,700081,"Rajbari Colony, West Bengal",22.6491626,88.4342929048898,2022-04-09 15:57:47 UTC,2022-04-09 15:57:47 UTC
2371,700082,"Keorapukur Bazar, West Bengal",22.5704924,88.3615602,2022-04-09 15:57:47 UTC,2022-04-09 15:57:47 UTC
2372,700084,"Kamdahari, West Bengal",22.59175005,88.4123271242104,2022-04-09 15:57:47 UTC,2022-04-09 15:57:47 UTC
2373,700085,"Sarani, West Bengal",22.5438431,88.3484987,2022-04-09 15:57:47 UTC,2022-04-09 15:57:47 UTC
2374,700086,"Bagha Jatin, West Bengal",22.4828516,88.3866633,2022-04-09 15:57:47 UTC,2022-04-09 15:57:47 UTC
2375,700087,"New Market, West Bengal",22.560119,88.3567351,2022-04-09 15:57:47 UTC,2022-04-09 15:57:47 UTC
2376,700090,"Noapara, West Bengal",22.6398237,88.3941087,2022-04-09 15:57:47 UTC,2022-04-09 15:57:47 UTC
2377,700091,"Sech Bhavan, West Bengal",22.5717951,88.4269896308213,2022-04-09 15:57:47 UTC,2022-04-09 15:57:47 UTC
2378,700092,"Regent Estate, West Bengal",22.4865731,88.3525792,2022-04-09 15:57:47 UTC,2022-04-09 15:57:47 UTC
2379,700093,"Purba Putiary, West Bengal",22.4960442,88.4019458,2022-04-09 15:57:47 UTC,2022-04-09 15:57:47 UTC
2380,700095,"Golf Green, West Bengal",22.4913328,88.3618382,2022-04-09 15:57:47 UTC,2022-04-09 15:57:47 UTC
2381,700096,"Brahmapur, West Bengal",22.463103,88.3641483,2022-04-09 15:57:47 UTC,2022-04-09 15:57:47 UTC
2382,700097,"Purbachal, West Bengal",22.501944,88.3980331,2022-04-09 15:57:47 UTC,2022-04-09 15:57:47 UTC
2383,700099,"Kalikapur, West Bengal",22.412052,88.4760309,2022-04-09 15:57:47 UTC,2022-04-09 15:57:47 UTC
2384,700101,"Prafullakanan, West Bengal",22.5964916,88.4174395,2022-04-09 15:57:47 UTC,2022-04-09 15:57:47 UTC
2385,700102,"Krishnapur, West Bengal",25.3629536,88.3612287,2022-04-09 15:57:47 UTC,2022-04-09 15:57:47 UTC
2386,700103,"Narendrapur, West Bengal",22.4541674,88.4183764,2022-04-09 15:57:47 UTC,2022-04-09 15:57:47 UTC
2387,700105,"Dhapa, West Bengal",22.53477,88.4240922,2022-04-09 15:57:47 UTC,2022-04-09 15:57:47 UTC
2388,700106,"Bidhannagar Ib Market, West Bengal",22.57200345,88.4161700299983,2022-04-09 15:57:47 UTC,2022-04-09 15:57:47 UTC
2389,700107,"East Kolkata Township, West Bengal",22.581261,88.3593328,2022-04-09 15:57:47 UTC,2022-04-09 15:57:47 UTC
2390,700109,"Agarpara, West Bengal",22.6828782,88.3853645,2022-04-09 15:57:47 UTC,2022-04-09 15:57:47 UTC
2391,700110,"Bijoypur, West Bengal",22.5964916,88.4174395,2022-04-09 15:57:47 UTC,2022-04-09 15:57:47 UTC
2392,700111,"Ghola Bazar, West Bengal",22.5977211,88.4022816,2022-04-09 15:57:47 UTC,2022-04-09 15:57:47 UTC
2393,700112,"Pansila, West Bengal",22.7126857,88.4754936,2022-04-09 15:57:47 UTC,2022-04-09 15:57:47 UTC
2394,700113,"Natagarh, West Bengal",22.5666449,88.3544854,2022-04-09 15:57:47 UTC,2022-04-09 15:57:47 UTC
2395,700114,"Panihati, West Bengal",22.7095728,88.3743491,2022-04-09 15:57:47 UTC,2022-04-09 15:57:47 UTC
2396,700117,"Jeliapara, West Bengal",22.5422509,88.3617465,2022-04-09 15:57:47 UTC,2022-04-09 15:57:47 UTC
2397,700118,"Rahara, West Bengal",22.72388,88.3868275,2022-04-09 15:57:47 UTC,2022-04-09 15:57:47 UTC
2398,700119,"Brahmasthan, West Bengal",22.7008369,88.3789301,2022-04-09 15:57:47 UTC,2022-04-09 15:57:47 UTC
2399,700121,"Nilganj Bazar, West Bengal",22.7481567,88.4197117,2022-04-09 15:57:47 UTC,2022-04-09 15:57:47 UTC
2400,700122,"Nonachandanpukur, West Bengal",22.7666129,88.3773963,2022-04-09 15:57:47 UTC,2022-04-09 15:57:47 UTC
2401,700123,"Talpukur, West Bengal",22.7557122,88.369374,2022-04-09 15:57:47 UTC,2022-04-09 15:57:47 UTC
2402,700124,"Barasat H O, West Bengal",22.71624435,88.4801667299469,2022-04-09 15:57:47 UTC,2022-04-09 15:57:47 UTC
2403,700126,"Navanalli, West Bengal",22.7126857,88.4754936,2022-04-09 15:57:47 UTC,2022-04-09 15:57:47 UTC
2404,700127,"Hridaypur, West Bengal",22.7109969,88.4699989,2022-04-09 15:57:47 UTC,2022-04-09 15:57:47 UTC
2405,700128,"Badu, West Bengal",22.55897705,88.3437985051968,2022-04-09 15:57:47 UTC,2022-04-09 15:57:47 UTC
2406,700129,"Madhyamgram, West Bengal",22.6910824,88.4660136,2022-04-09 15:57:47 UTC,2022-04-09 15:57:47 UTC
2407,700131,"New Barrackpore, West Bengal",22.6860681,88.4446406,2022-04-09 15:57:47 UTC,2022-04-09 15:57:47 UTC
2408,700132,"Ganga Nagar, West Bengal",22.4884855,88.3717539,2022-04-09 15:57:47 UTC,2022-04-09 15:57:47 UTC
2409,700133,"Michale Nagar, West Bengal",22.6344934,88.4783545,2022-04-09 15:57:47 UTC,2022-04-09 15:57:47 UTC
2410,700134,"Nilachal, West Bengal",22.6671632,88.4338904,2022-04-09 15:57:47 UTC,2022-04-09 15:57:47 UTC
2411,700136,"Rajarhat Gopalpur, West Bengal",22.6310615,88.4843003,2022-04-09 15:57:47 UTC,2022-04-09 15:57:47 UTC
2412,700137,"Budge Budge, West Bengal",22.4827548,88.1817594,2022-04-09 15:57:47 UTC,2022-04-09 15:57:47 UTC
2413,700138,"Pujali, West Bengal",22.4678722,88.145241,2022-04-09 15:57:47 UTC,2022-04-09 15:57:47 UTC
2414,700140,"Batanagar, West Bengal",22.6493438,88.3685302,2022-04-09 15:57:47 UTC,2022-04-09 15:57:47 UTC
2415,700141,"Maheshtala, West Bengal",22.508621,88.2532182,2022-04-09 15:57:47 UTC,2022-04-09 15:57:47 UTC
2416,700142,"Santoshpur (Mahestala), West Bengal",22.5240566,88.2710655,2022-04-09 15:57:47 UTC,2022-04-09 15:57:47 UTC
2417,700143,"Sarkarpool, West Bengal",22.6739939,88.4451998,2022-04-09 15:57:47 UTC,2022-04-09 15:57:47 UTC
2418,700146,"Kodalia, West Bengal",22.6766538,88.43492,2022-04-09 15:57:47 UTC,2022-04-09 15:57:47 UTC
2419,700147,"Subhasgram, West Bengal",22.4124207,88.331841,2022-04-09 15:57:47 UTC,2022-04-09 15:57:47 UTC
2420,700148,"Harinavi, West Bengal",22.4163468,88.4161652139648,2022-04-09 15:57:47 UTC,2022-04-09 15:57:47 UTC
2421,700149,"Rajpur, West Bengal",22.4382026,88.432045,2022-04-09 15:57:47 UTC,2022-04-09 15:57:47 UTC
2422,700152,"Panchpota, West Bengal",22.59225285,88.4752122308606,2022-04-09 15:57:47 UTC,2022-04-09 15:57:47 UTC
2423,700153,"Laskarpur, West Bengal",22.4552952,88.3806867,2022-04-09 15:57:47 UTC,2022-04-09 15:57:47 UTC
2424,700154,"Boral, West Bengal",22.4522654,88.3764785470133,2022-04-09 15:57:47 UTC,2022-04-09 15:57:47 UTC
2425,711205,"Sambay Pallay, West Bengal",,,2022-04-09 15:57:47 UTC,2022-04-09 15:57:47 UTC
2426,711307,"Chakashi, West Bengal",,,2022-04-09 15:57:47 UTC,2022-04-09 15:57:47 UTC
2427,711309,"Delta Mills, West Bengal",,,2022-04-09 15:57:48 UTC,2022-04-09 15:57:48 UTC
2428,711321,"G I Press Colony, West Bengal",,,2022-04-09 15:57:48 UTC,2022-04-09 15:57:48 UTC
2429,711412,"Chitrasenpur, West Bengal",,,2022-04-09 15:57:48 UTC,2022-04-09 15:57:48 UTC
2430,711416,"Manikura, West Bengal",,,2022-04-09 15:57:48 UTC,2022-04-09 15:57:48 UTC
2431,712147,"Itachuna, West Bengal",,,2022-04-09 15:57:48 UTC,2022-04-09 15:57:48 UTC
2432,712149,"Pravashnagar, West Bengal",,,2022-04-09 15:57:48 UTC,2022-04-09 15:57:48 UTC
2433,712151,"Raijamna, West Bengal",,,2022-04-09 15:57:48 UTC,2022-04-09 15:57:48 UTC
2434,712155,"Ayemanawabpur, West Bengal",,,2022-04-09 15:57:48 UTC,2022-04-09 15:57:48 UTC
2435,712221,"Durgapur Briek Field, West Bengal",,,2022-04-09 15:57:48 UTC,2022-04-09 15:57:48 UTC
2436,712222,"Champdani, West Bengal",,,2022-04-09 15:57:48 UTC,2022-04-09 15:57:48 UTC
2437,712246,"Nabagram (Hooghly), West Bengal",,,2022-04-09 15:57:48 UTC,2022-04-09 15:57:48 UTC
2438,712247,"Raghunathpur (Hooghly), West Bengal",,,2022-04-09 15:57:48 UTC,2022-04-09 15:57:48 UTC
2439,712307,"Pownan, West Bengal",,,2022-04-09 15:57:48 UTC,2022-04-09 15:57:48 UTC
2440,712407,"Lllahipur, West Bengal",,,2022-04-09 15:57:48 UTC,2022-04-09 15:57:48 UTC
2441,712412,"Helan, West Bengal",,,2022-04-09 15:57:48 UTC,2022-04-09 15:57:48 UTC
2442,712414,"Deulpara, West Bengal",,,2022-04-09 15:57:48 UTC,2022-04-09 15:57:48 UTC
2443,712415,"Saidpur, West Bengal",,,2022-04-09 15:57:48 UTC,2022-04-09 15:57:48 UTC
2444,712417,"Rajhati Bandar, West Bengal",,,2022-04-09 15:57:48 UTC,2022-04-09 15:57:48 UTC
2445,712418,"Pargopalnagar, West Bengal",,,2022-04-09 15:57:48 UTC,2022-04-09 15:57:48 UTC
2446,711102,"Shibpur, West Bengal",22.9737049,88.4014678,2022-04-09 15:57:48 UTC,2022-04-09 15:57:48 UTC
2447,711103,"Andul Road, West Bengal",22.5775166,88.2578257,2022-04-09 15:57:48 UTC,2022-04-09 15:57:48 UTC
2448,711104,"Santragachi, West Bengal",22.5846995,88.2830722,2022-04-09 15:57:48 UTC,2022-04-09 15:57:48 UTC
2449,711106,"Salka H O, West Bengal",22.5924866,88.3059776081166,2022-04-09 15:57:48 UTC,2022-04-09 15:57:48 UTC
2450,711107,"Ghusuri, West Bengal",22.58863565,88.3149776986413,2022-04-09 15:57:48 UTC,2022-04-09 15:57:48 UTC
2451,711108,"Netajigarh, West Bengal",22.58863565,88.3149776986413,2022-04-09 15:57:48 UTC,2022-04-09 15:57:48 UTC
2452,711201,"Bally, West Bengal",22.6535362,88.349801,2022-04-09 15:57:48 UTC,2022-04-09 15:57:48 UTC
2453,711204,"Liluah, West Bengal",22.6207446,88.3392327,2022-04-09 15:57:48 UTC,2022-04-09 15:57:48 UTC
2454,711224,"Dankuni, West Bengal",22.6820899,88.2907444,2022-04-09 15:57:48 UTC,2022-04-09 15:57:48 UTC
2455,711225,"Pancharule, West Bengal",22.6559437,88.3079715,2022-04-09 15:57:48 UTC,2022-04-09 15:57:48 UTC
2456,711227,"Ghoshpara, West Bengal",22.9819264,88.4394197,2022-04-09 15:57:48 UTC,2022-04-09 15:57:48 UTC
2457,711301,"Anantapur, West Bengal",22.3236785,87.9637098,2022-04-09 15:57:48 UTC,2022-04-09 15:57:48 UTC
2458,711304,"Banipur Howrah, West Bengal",22.57786575,88.3165276347633,2022-04-09 15:57:48 UTC,2022-04-09 15:57:48 UTC
2459,711310,"Fort Gloster, West Bengal",22.5101693,88.1836138,2022-04-09 15:57:48 UTC,2022-04-09 15:57:48 UTC
2460,711313,"Sankrail, West Bengal",22.5587753,88.2282829,2022-04-09 15:57:48 UTC,2022-04-09 15:57:48 UTC
2461,711315,"Uluberia, West Bengal",22.4722227,88.0938448,2022-04-09 15:57:48 UTC,2022-04-09 15:57:48 UTC
2462,711322,"Panchla, West Bengal",22.56984205,88.1305770086371,2022-04-09 15:57:48 UTC,2022-04-09 15:57:48 UTC
2463,711324,"Samta, West Bengal",23.2972235,86.9742727,2022-04-09 15:57:48 UTC,2022-04-09 15:57:48 UTC
2464,711326,"Sasoti, West Bengal",22.5758699,88.3809331,2022-04-09 15:57:48 UTC,2022-04-09 15:57:48 UTC
2465,711327,"Howrah, West Bengal",22.5736296,88.3251045,2022-04-09 15:57:48 UTC,2022-04-09 15:57:48 UTC
2466,711401,"Amta, West Bengal",22.57526,88.013692,2022-04-09 15:57:48 UTC,2022-04-09 15:57:48 UTC
2467,711402,"Baltikuri, West Bengal",22.6094016,88.2961287,2022-04-09 15:57:48 UTC,2022-04-09 15:57:48 UTC
2468,711405,"Domjur, West Bengal",22.6362732,88.2198286,2022-04-09 15:57:48 UTC,2022-04-09 15:57:48 UTC
2469,711406,"Garalgacha, West Bengal",22.6862555,88.2700124702196,2022-04-09 15:57:48 UTC,2022-04-09 15:57:48 UTC
2470,712411,"Ramnagar (Hooghly), West Bengal",22.8784438,88.0132985,2022-04-09 15:57:48 UTC,2022-04-09 15:57:48 UTC
2471,712413,"Mayapur, West Bengal",23.4285018,88.3950179993606,2022-04-09 15:57:48 UTC,2022-04-09 15:57:48 UTC
2472,711415,"Pantihal, West Bengal",22.6588954,88.1134609,2022-04-09 15:57:48 UTC,2022-04-09 15:57:48 UTC
2473,712152,"Rameswarpur, West Bengal",22.91682915,88.3849263084335,2022-04-09 15:57:48 UTC,2022-04-09 15:57:48 UTC
2474,712258,"Uttarpara, West Bengal",22.663208,88.3435006,2022-04-09 15:57:48 UTC,2022-04-09 15:57:48 UTC
2475,712303,"Gurup, West Bengal",23.025068,88.1121993,2022-04-09 15:57:48 UTC,2022-04-09 15:57:48 UTC
2476,712121,"Adconagar, West Bengal",23.4158568,87.8297595453279,2022-04-09 15:57:48 UTC,2022-04-09 15:57:48 UTC
2477,712202,"Mahes-I, West Bengal",22.508621,88.2532182,2022-04-09 15:57:48 UTC,2022-04-09 15:57:48 UTC
2478,712403,"Haripal, West Bengal",22.83757875,88.1179051865325,2022-04-09 15:57:48 UTC,2022-04-09 15:57:48 UTC
2479,712404,"Jangipara, West Bengal",22.7415728,88.0515924,2022-04-09 15:57:48 UTC,2022-04-09 15:57:48 UTC
2480,712138,"Khalisani, West Bengal",22.86710465,88.3459619903834,2022-04-09 15:57:48 UTC,2022-04-09 15:57:48 UTC
2481,711408,"Jagatballavpur, West Bengal",22.6843507,88.106575,2022-04-09 15:57:48 UTC,2022-04-09 15:57:48 UTC
2482,711413,"Gazipur, West Bengal",23.5890674,88.2355108932088,2022-04-09 15:57:48 UTC,2022-04-09 15:57:48 UTC
2483,711414,"Maju, West Bengal",22.1744885,88.4183569,2022-04-09 15:57:48 UTC,2022-04-09 15:57:48 UTC
2484,712101,"Chandra, West Bengal",22.4617326,87.148447,2022-04-09 15:57:48 UTC,2022-04-09 15:57:48 UTC
2485,712103,"Hooghly, West Bengal",22.6791882,88.3006167,2022-04-09 15:57:48 UTC,2022-04-09 15:57:48 UTC
2486,712104,"Sahaganj, West Bengal",23.2590737,87.8273959,2022-04-09 15:57:48 UTC,2022-04-09 15:57:48 UTC
2487,712402,"Dasghara, West Bengal",22.9727956,88.0276104,2022-04-09 15:57:48 UTC,2022-04-09 15:57:48 UTC
2488,712123,"Bandel Junction, West Bengal",22.9236692,88.3782855,2022-04-09 15:57:48 UTC,2022-04-09 15:57:48 UTC
2489,712136,"Palpara, West Bengal",22.0827237,87.6642792,2022-04-09 15:57:48 UTC,2022-04-09 15:57:48 UTC
2490,712235,"Cripar Road, West Bengal",22.7009537,88.3505625,2022-04-09 15:57:48 UTC,2022-04-09 15:57:48 UTC
2491,712148,"Magra, West Bengal",22.9838676,88.3683372,2022-04-09 15:57:48 UTC,2022-04-09 15:57:48 UTC
2492,712150,"Rabindranagar, West Bengal",22.42277515,87.3197813,2022-04-09 15:57:48 UTC,2022-04-09 15:57:48 UTC
2493,712154,"Polba, West Bengal",22.94677515,88.2541437530725,2022-04-09 15:57:48 UTC,2022-04-09 15:57:48 UTC
2494,712401,"Champadanga, West Bengal",22.8388873,87.9714778,2022-04-09 15:57:48 UTC,2022-04-09 15:57:48 UTC
2495,712203,"Mallickpara, West Bengal",22.9392044,88.6433187,2022-04-09 15:57:48 UTC,2022-04-09 15:57:48 UTC
2496,712204,"Chatra Hooghly, West Bengal",22.7636159,88.3370615,2022-04-09 15:57:48 UTC,2022-04-09 15:57:48 UTC
2497,712406,"Khanakul, West Bengal",22.7126439,87.8524652,2022-04-09 15:57:48 UTC,2022-04-09 15:57:48 UTC
2498,712223,"Sheoraphuli, West Bengal",22.7710139,88.3291849,2022-04-09 15:57:48 UTC,2022-04-09 15:57:48 UTC
2499,712234,"Kanaipur, West Bengal",22.7023771,88.3262104,2022-04-09 15:57:48 UTC,2022-04-09 15:57:48 UTC
2500,712416,"Natibpur, West Bengal",22.6658339,87.8911044,2022-04-09 15:57:48 UTC,2022-04-09 15:57:48 UTC
2501,712248,"Rishra, West Bengal",22.7261414,88.343487,2022-04-09 15:57:48 UTC,2022-04-09 15:57:48 UTC
2502,712423,"Gopinagar, West Bengal",,,2022-04-09 15:57:48 UTC,2022-04-09 15:57:48 UTC
2503,712426,"Prasadpur, West Bengal",,,2022-04-09 15:57:48 UTC,2022-04-09 15:57:48 UTC
2504,712429,"Rauth Khana, West Bengal",,,2022-04-09 15:57:48 UTC,2022-04-09 15:57:48 UTC
2505,712504,"Chandrahati, West Bengal",,,2022-04-09 15:57:48 UTC,2022-04-09 15:57:48 UTC
2506,712617,"Baradangal, West Bengal",,,2022-04-09 15:57:48 UTC,2022-04-09 15:57:48 UTC
2507,712703,"Nawabpur, West Bengal",,,2022-04-09 15:57:48 UTC,2022-04-09 15:57:48 UTC
2508,713123,"Banwaribad Raj, West Bengal",,,2022-04-09 15:57:48 UTC,2022-04-09 15:57:48 UTC
2509,713162,"Hatkriti Nagar, West Bengal",,,2022-04-09 15:57:48 UTC,2022-04-09 15:57:48 UTC
2510,713173,"Uniatatarpur, West Bengal",,,2022-04-09 15:57:48 UTC,2022-04-09 15:57:48 UTC
2511,713201,"Zone Colony, Rajasthan",,,2022-04-09 15:57:48 UTC,2022-04-09 15:57:48 UTC
2512,713202,"Railpar, Rajasthan",,,2022-04-09 15:57:48 UTC,2022-04-09 15:57:48 UTC
2513,713326,"Choto Dighari, West Bengal",,,2022-04-09 15:57:48 UTC,2022-04-09 15:57:48 UTC
2514,713332,"Debchand Nagar, West Bengal",,,2022-04-09 15:57:48 UTC,2022-04-09 15:57:48 UTC
2515,713334,"Domohan Bazar, West Bengal",,,2022-04-09 15:57:48 UTC,2022-04-09 15:57:48 UTC
2516,713335,"Hindustan Cable, West Bengal",,,2022-04-09 15:57:48 UTC,2022-04-09 15:57:48 UTC
2517,713347,"Karsuli Bazar, West Bengal",,,2022-04-09 15:57:48 UTC,2022-04-09 15:57:48 UTC
2518,713358,"Searsol Rajbari, West Bengal",,,2022-04-09 15:57:48 UTC,2022-04-09 15:57:48 UTC
2519,713364,"Rupnarayanpur Bazar, West Bengal",,,2022-04-09 15:57:48 UTC,2022-04-09 15:57:48 UTC
2520,713367,"Baradhemo, West Bengal",,,2022-04-09 15:57:48 UTC,2022-04-09 15:57:48 UTC
2521,713130,"Katwa Bazar, West Bengal",23.6399348,88.1280238,2022-04-09 15:57:48 UTC,2022-04-09 15:57:48 UTC
2522,712501,"Balagarh, West Bengal",23.1244162,88.4616994,2022-04-09 15:57:48 UTC,2022-04-09 15:57:48 UTC
2523,712512,"Guptipara, West Bengal",23.1969878,88.4176937,2022-04-09 15:57:48 UTC,2022-04-09 15:57:48 UTC
2524,712513,"Nayasarai, West Bengal",23.0177739,88.4171887,2022-04-09 15:57:48 UTC,2022-04-09 15:57:48 UTC
2525,712515,"Khamar Gachi, West Bengal",23.0541106,88.4439435,2022-04-09 15:57:48 UTC,2022-04-09 15:57:48 UTC
2526,712601,"Arambagh Court, West Bengal",22.8764875,87.7909131,2022-04-09 15:57:48 UTC,2022-04-09 15:57:48 UTC
2527,712613,"Gourhati, West Bengal",22.8628937,88.3674543,2022-04-09 15:57:48 UTC,2022-04-09 15:57:48 UTC
2528,712614,"Goghat, West Bengal",22.8893089,87.7062382,2022-04-09 15:57:48 UTC,2022-04-09 15:57:48 UTC
2529,712702,"Chanditala, West Bengal",22.6890228,88.2629156,2022-04-09 15:57:48 UTC,2022-04-09 15:57:48 UTC
2530,713101,"Ranisayar, West Bengal",23.4158568,87.8297595453279,2022-04-09 15:57:48 UTC,2022-04-09 15:57:48 UTC
2531,713104,"Sarbamangalabari, West Bengal",23.4469677,87.4546869303269,2022-04-09 15:57:48 UTC,2022-04-09 15:57:48 UTC
2532,713121,"Aruar, West Bengal",23.4158568,87.8297595453279,2022-04-09 15:57:48 UTC,2022-04-09 15:57:48 UTC
2533,713122,"Baidyapur, West Bengal",23.36424245,87.9438922836952,2022-04-09 15:57:48 UTC,2022-04-09 15:57:48 UTC
2534,713129,"Kandra, West Bengal",23.7329085,87.9719066,2022-04-09 15:57:48 UTC,2022-04-09 15:57:48 UTC
2535,712428,"Keshabpur, West Bengal",22.2207757,87.9500545,2022-04-09 15:57:48 UTC,2022-04-09 15:57:48 UTC
2536,713140,"Ketugram, West Bengal",23.7008699,88.0473103,2022-04-09 15:57:48 UTC,2022-04-09 15:57:48 UTC
2537,713141,"Khana Jn, West Bengal",23.3322966,87.7616484,2022-04-09 15:57:48 UTC,2022-04-09 15:57:48 UTC
2538,713144,"Mankar, West Bengal",23.432247,87.5503255,2022-04-09 15:57:48 UTC,2022-04-09 15:57:48 UTC
2539,713145,"Manteswar, West Bengal",23.38736455,88.1240458152314,2022-04-09 15:57:48 UTC,2022-04-09 15:57:48 UTC
2540,713146,"Bamunpara, West Bengal",23.4469677,87.4546869303269,2022-04-09 15:57:48 UTC,2022-04-09 15:57:48 UTC
2541,713148,"Panagarh Bazar, West Bengal",23.4469677,87.4546869303269,2022-04-09 15:57:48 UTC,2022-04-09 15:57:48 UTC
2542,713149,"Saktigarh, West Bengal",23.2070343,87.9690972,2022-04-09 15:57:48 UTC,2022-04-09 15:57:48 UTC
2543,713151,"Rasulpur, West Bengal",23.1874417,88.0408528,2022-04-09 15:57:48 UTC,2022-04-09 15:57:48 UTC
2544,713152,"Bannabagram, West Bengal",23.5271099,87.6315623,2022-04-09 15:57:48 UTC,2022-04-09 15:57:48 UTC
2545,713156,"Aushgram, West Bengal",23.5174167,87.6657299,2022-04-09 15:57:48 UTC,2022-04-09 15:57:48 UTC
2546,713157,"Akalpoush, West Bengal",23.4064696,87.8210095375467,2022-04-09 15:57:48 UTC,2022-04-09 15:57:48 UTC
2547,713161,"Galatun, West Bengal",23.4158568,87.8297595453279,2022-04-09 15:57:48 UTC,2022-04-09 15:57:48 UTC
2548,713165,"Nasigram, West Bengal",23.36424245,87.9438922836952,2022-04-09 15:57:48 UTC,2022-04-09 15:57:48 UTC
2549,713166,"Nabagram (Bdn), West Bengal",23.1115996,88.0575424,2022-04-09 15:57:48 UTC,2022-04-09 15:57:48 UTC
2550,713168,"Paharhati, West Bengal",23.4469677,87.4546869303269,2022-04-09 15:57:48 UTC,2022-04-09 15:57:48 UTC
2551,713174,"Mangalkote, West Bengal",23.5291369,87.8968724,2022-04-09 15:57:48 UTC,2022-04-09 15:57:48 UTC
2552,713206,"A B V Township Durgapur, West Bengal",23.52352555,87.3553912798121,2022-04-09 15:57:48 UTC,2022-04-09 15:57:48 UTC
2553,713209,"M G Avenue, Rajasthan",26.876433,75.7187554,2022-04-09 15:57:48 UTC,2022-04-09 15:57:48 UTC
2554,713210,"V K Nagar, Rajasthan",26.9177976,75.7363566,2022-04-09 15:57:48 UTC,2022-04-09 15:57:48 UTC
2555,713215,"Durgapur Chemical, West Bengal",23.1626284,88.0323369,2022-04-09 15:57:48 UTC,2022-04-09 15:57:48 UTC
2556,713301,"S B Gorai Road, West Bengal",23.6705724,86.9666764,2022-04-09 15:57:48 UTC,2022-04-09 15:57:48 UTC
2557,713303,"Ushagram, West Bengal",23.6851336,86.9754567,2022-04-09 15:57:48 UTC,2022-04-09 15:57:48 UTC
2558,713321,"Andal, West Bengal",23.5790543,87.1814926,2022-04-09 15:57:48 UTC,2022-04-09 15:57:48 UTC
2559,713322,"Bahula, West Bengal",23.6657514,87.182708164932,2022-04-09 15:57:48 UTC,2022-04-09 15:57:48 UTC
2560,713323,"Ballavpur, West Bengal",23.5866445,87.1267098,2022-04-09 15:57:48 UTC,2022-04-09 15:57:48 UTC
2561,713325,"Santinagar, West Bengal",23.36424245,87.9438922836952,2022-04-09 15:57:48 UTC,2022-04-09 15:57:48 UTC
2562,713331,"Chittaranjan, West Bengal",23.8491569,86.901887,2022-04-09 15:57:48 UTC,2022-04-09 15:57:48 UTC
2563,713336,"Jamuriahat, West Bengal",23.8469523,86.9035212,2022-04-09 15:57:48 UTC,2022-04-09 15:57:48 UTC
2564,713155,"Amarargarh, West Bengal",23.36424245,87.9438922836952,2022-04-09 15:57:48 UTC,2022-04-09 15:57:48 UTC
2565,713338,"Kajoragram, West Bengal",23.6164028,87.1856359,2022-04-09 15:57:48 UTC,2022-04-09 15:57:48 UTC
2566,713339,"Kalipahari, West Bengal",23.6648496,87.0162555,2022-04-09 15:57:48 UTC,2022-04-09 15:57:48 UTC
2567,713340,"Kalla Cent Hospital, West Bengal",23.700938,86.9966876,2022-04-09 15:57:48 UTC,2022-04-09 15:57:48 UTC
2568,713342,"Kendra, West Bengal",23.6979744,87.6434671,2022-04-09 15:57:48 UTC,2022-04-09 15:57:48 UTC
2569,713343,"Kendua, West Bengal",23.2334749,87.0449443109917,2022-04-09 15:57:48 UTC,2022-04-09 15:57:48 UTC
2570,713344,"Nandi, West Bengal",21.98371745,87.9873754874848,2022-04-09 15:57:48 UTC,2022-04-09 15:57:48 UTC
2571,713345,"Oyaria, West Bengal",23.7181171,86.8762086,2022-04-09 15:57:48 UTC,2022-04-09 15:57:48 UTC
2572,713357,"Salanpur, West Bengal",23.8103183,86.877532095596,2022-04-09 15:57:48 UTC,2022-04-09 15:57:48 UTC
2573,713359,"Neamatpur, West Bengal",23.71622295,86.8923170299017,2022-04-09 15:57:48 UTC,2022-04-09 15:57:48 UTC
2574,713362,"Toposi, West Bengal",22.5333783,88.3856113,2022-04-09 15:57:48 UTC,2022-04-09 15:57:48 UTC
2575,713366,"Barabani, West Bengal",23.7424547,87.0181775,2022-04-09 15:57:48 UTC,2022-04-09 15:57:48 UTC
2576,713369,"Kalyaneswari, West Bengal",23.7181171,86.8762086,2022-04-09 15:57:48 UTC,2022-04-09 15:57:48 UTC
2577,713368,"Churulia, West Bengal",23.78464775,87.088619044569,2022-04-09 15:57:48 UTC,2022-04-09 15:57:48 UTC
2578,713333,"Disergarh, West Bengal",23.8469523,86.9035212,2022-04-09 15:57:48 UTC,2022-04-09 15:57:48 UTC
2579,713370,"Niramay Sanatorium, West Bengal",,,2022-04-09 15:57:48 UTC,2022-04-09 15:57:48 UTC
2580,713372,"Radhanagar Rly Colony, West Bengal",,,2022-04-09 15:57:48 UTC,2022-04-09 15:57:48 UTC
2581,713376,"Dhandadihi, West Bengal",,,2022-04-09 15:57:48 UTC,2022-04-09 15:57:48 UTC
2582,713382,"Parascole, West Bengal",,,2022-04-09 15:57:48 UTC,2022-04-09 15:57:48 UTC
2583,713518,"Khajurdihi, West Bengal",,,2022-04-09 15:57:48 UTC,2022-04-09 15:57:48 UTC
2584,721134,"Power Project, West Bengal",,,2022-04-09 15:57:48 UTC,2022-04-09 15:57:48 UTC
2585,721155,"Jalchak, West Bengal",,,2022-04-09 15:57:48 UTC,2022-04-09 15:57:48 UTC
2586,721158,"Baishnabchak, West Bengal",,,2022-04-09 15:57:48 UTC,2022-04-09 15:57:48 UTC
2587,722139,"Kenjakura, West Bengal",,,2022-04-09 15:57:48 UTC,2022-04-09 15:57:48 UTC
2588,722145,"Peardola, West Bengal",,,2022-04-09 15:57:48 UTC,2022-04-09 15:57:48 UTC
2589,722149,"Sabrakone, West Bengal",,,2022-04-09 15:57:48 UTC,2022-04-09 15:57:48 UTC
2590,722155,"Kesiakole, West Bengal",,,2022-04-09 15:57:48 UTC,2022-04-09 15:57:48 UTC
2591,722156,"Panchmura, West Bengal",,,2022-04-09 15:57:48 UTC,2022-04-09 15:57:48 UTC
2592,722204,"Hatasuria, West Bengal",,,2022-04-09 15:57:48 UTC,2022-04-09 15:57:48 UTC
2593,722208,"Pakhanna, West Bengal",,,2022-04-09 15:57:48 UTC,2022-04-09 15:57:48 UTC
2594,731121,"Abinashpur, West Bengal",,,2022-04-09 15:57:48 UTC,2022-04-09 15:57:48 UTC
2595,731124,"Hetampur Rajbati, West Bengal",,,2022-04-09 15:57:48 UTC,2022-04-09 15:57:48 UTC
2596,731126,"Karidhya, West Bengal",,,2022-04-09 15:57:48 UTC,2022-04-09 15:57:48 UTC
2597,713379,"Jemahari, West Bengal",23.7181171,86.8762086,2022-04-09 15:57:48 UTC,2022-04-09 15:57:48 UTC
2598,713377,"Gour Bazar, West Bengal",25.0207364,88.1492784970756,2022-04-09 15:57:48 UTC,2022-04-09 15:57:48 UTC
2599,713381,"Nutandanga, West Bengal",23.6705724,86.9666764,2022-04-09 15:57:48 UTC,2022-04-09 15:57:48 UTC
2600,713383,"Satgram, West Bengal",23.4484144,85.865986,2022-04-09 15:57:48 UTC,2022-04-09 15:57:48 UTC
2601,713384,"Parasea, West Bengal",23.65157225,87.162932837319,2022-04-09 15:57:48 UTC,2022-04-09 15:57:48 UTC
2602,713385,"Landoha, West Bengal",23.7181171,86.8762086,2022-04-09 15:57:48 UTC,2022-04-09 15:57:48 UTC
2603,713401,"Ajhapur, West Bengal",23.6705724,86.9666764,2022-04-09 15:57:48 UTC,2022-04-09 15:57:48 UTC
2604,713402,"Arjunpur Bdn, West Bengal",23.1025878,87.8672273,2022-04-09 15:57:48 UTC,2022-04-09 15:57:48 UTC
2605,713404,"Chakdighi, West Bengal",23.2590737,87.8273959,2022-04-09 15:57:48 UTC,2022-04-09 15:57:48 UTC
2606,713405,"Dhatrigram, West Bengal",23.2779708,88.3119217,2022-04-09 15:57:48 UTC,2022-04-09 15:57:48 UTC
2607,713408,"Jamalpur, West Bengal",23.0672159,87.9909181,2022-04-09 15:57:48 UTC,2022-04-09 15:57:48 UTC
2608,713409,"Kalna Court, West Bengal",23.2211183,88.3591889,2022-04-09 15:57:48 UTC,2022-04-09 15:57:48 UTC
2609,713420,"Panagarh, West Bengal",23.4469677,87.4546869303269,2022-04-09 15:57:48 UTC,2022-04-09 15:57:48 UTC
2610,713422,"Satgachia, West Bengal",23.4469677,87.4546869303269,2022-04-09 15:57:48 UTC,2022-04-09 15:57:48 UTC
2611,713423,"Sehara, West Bengal",23.4469677,87.4546869303269,2022-04-09 15:57:48 UTC,2022-04-09 15:57:48 UTC
2612,713426,"Mandalgram, West Bengal",23.4469677,87.4546869303269,2022-04-09 15:57:48 UTC,2022-04-09 15:57:48 UTC
2613,713428,"Adrahati, West Bengal",23.4469677,87.4546869303269,2022-04-09 15:57:48 UTC,2022-04-09 15:57:48 UTC
2614,713431,"Bakta, West Bengal",22.5698258,88.3678127,2022-04-09 15:57:48 UTC,2022-04-09 15:57:48 UTC
2615,713502,"Dainhat, West Bengal",23.6007563,88.1716364,2022-04-09 15:57:48 UTC,2022-04-09 15:57:48 UTC
2616,713378,"Haripur, West Bengal",22.945834,88.6113745,2022-04-09 15:57:48 UTC,2022-04-09 15:57:48 UTC
2617,713512,"Narayanpur, West Bengal",23.4064696,87.8210095375467,2022-04-09 15:57:48 UTC,2022-04-09 15:57:48 UTC
2618,713515,"Gangatikuri, West Bengal",23.7184146,88.0879278,2022-04-09 15:57:48 UTC,2022-04-09 15:57:48 UTC
2619,721101,"Tantigeria, West Bengal",23.2334749,87.0449443109917,2022-04-09 15:57:48 UTC,2022-04-09 15:57:48 UTC
2620,721121,"Amlagora, West Bengal",22.844581,87.3366418,2022-04-09 15:57:48 UTC,2022-04-09 15:57:48 UTC
2621,721122,"Anandapur, West Bengal",26.7599026,88.6903523,2022-04-09 15:57:49 UTC,2022-04-09 15:57:49 UTC
2622,721136,"Lowada, West Bengal",22.4475602,87.8922662,2022-04-09 15:57:49 UTC,2022-04-09 15:57:49 UTC
2623,721138,"Nayagram, West Bengal",22.0411781,87.175554,2022-04-09 15:57:49 UTC,2022-04-09 15:57:49 UTC
2624,721139,"Panskura, West Bengal",22.3994709,87.7175073,2022-04-09 15:57:49 UTC,2022-04-09 15:57:49 UTC
2625,721140,"Pingla, West Bengal",22.2819798,87.5860921,2022-04-09 15:57:49 UTC,2022-04-09 15:57:49 UTC
2626,721141,"Ramgarh, West Bengal",22.476922,88.3729944,2022-04-09 15:57:49 UTC,2022-04-09 15:57:49 UTC
2627,721144,"Sabong, West Bengal",22.1629246,87.6022167981279,2022-04-09 15:57:49 UTC,2022-04-09 15:57:49 UTC
2628,721145,"Salua, West Bengal",22.640244,87.3242497,2022-04-09 15:57:49 UTC,2022-04-09 15:57:49 UTC
2629,721147,"Salbani, West Bengal",22.640244,87.3242497,2022-04-09 15:57:49 UTC,2022-04-09 15:57:49 UTC
2630,713434,"Nibhuji Bazar, West Bengal",23.1050817,87.867726,2022-04-09 15:57:49 UTC,2022-04-09 15:57:49 UTC
2631,721149,"Madpur, West Bengal",22.3692521,87.4430916,2022-04-09 15:57:49 UTC,2022-04-09 15:57:49 UTC
2632,721150,"Keshpur, West Bengal",22.5581413,87.4616431,2022-04-09 15:57:49 UTC,2022-04-09 15:57:49 UTC
2633,721152,"Panskura R S, West Bengal",22.34410105,87.73716915,2022-04-09 15:57:49 UTC,2022-04-09 15:57:49 UTC
2634,721157,"Hoomgarh, West Bengal",22.05211075,88.0712465815004,2022-04-09 15:57:49 UTC,2022-04-09 15:57:49 UTC
2635,721160,"Radhamohanpur, West Bengal",22.357034,87.6134579,2022-04-09 15:57:49 UTC,2022-04-09 15:57:49 UTC
2636,722101,"Feeder Road, West Bengal",22.8223707,88.3915005,2022-04-09 15:57:49 UTC,2022-04-09 15:57:49 UTC
2637,722122,"Lalbandh, West Bengal",23.23736625,87.0445233952588,2022-04-09 15:57:49 UTC,2022-04-09 15:57:49 UTC
2638,722132,"Chatna, West Bengal",23.3115,86.9669,2022-04-09 15:57:49 UTC,2022-04-09 15:57:49 UTC
2639,722134,"Garh Raipur, West Bengal",22.802487,86.9466198,2022-04-09 15:57:49 UTC,2022-04-09 15:57:49 UTC
2640,722135,"Gorabari, West Bengal",26.696269,88.6500248,2022-04-09 15:57:49 UTC,2022-04-09 15:57:49 UTC
2641,722138,"Joypur, West Bengal",23.0168643,87.4687541401515,2022-04-09 15:57:49 UTC,2022-04-09 15:57:49 UTC
2642,722142,"Maliara, West Bengal",23.4761613,87.2273872,2022-04-09 15:57:49 UTC,2022-04-09 15:57:49 UTC
2643,722144,"Onda, West Bengal",23.1452951,87.2009043,2022-04-09 15:57:49 UTC,2022-04-09 15:57:49 UTC
2644,722146,"Rajagram, West Bengal",23.2166565,87.0330943,2022-04-09 15:57:49 UTC,2022-04-09 15:57:49 UTC
2645,722148,"Ranibandh, West Bengal",22.8636108,86.7817024,2022-04-09 15:57:49 UTC,2022-04-09 15:57:49 UTC
2646,722150,"Sarenga, West Bengal",22.7793989,87.0324642848607,2022-04-09 15:57:49 UTC,2022-04-09 15:57:49 UTC
2647,722152,"Taldangra, West Bengal",23.0191903,87.0997513,2022-04-09 15:57:49 UTC,2022-04-09 15:57:49 UTC
2648,722154,"Galia, West Bengal",22.6065906,88.3704502,2022-04-09 15:57:49 UTC,2022-04-09 15:57:49 UTC
2649,722159,"Kamalpur, West Bengal",23.3039642,86.8465688,2022-04-09 15:57:49 UTC,2022-04-09 15:57:49 UTC
2650,722201,"Akui, West Bengal",23.2334749,87.0449443109917,2022-04-09 15:57:49 UTC,2022-04-09 15:57:49 UTC
2651,722205,"Indas, West Bengal",23.1460946,87.6265327,2022-04-09 15:57:49 UTC,2022-04-09 15:57:49 UTC
2652,731102,"Hatjan Bazar, West Bengal",23.9878599,87.5708761,2022-04-09 15:57:49 UTC,2022-04-09 15:57:49 UTC
2653,731103,"Barabagan, West Bengal",22.756558,88.3359521,2022-04-09 15:57:49 UTC,2022-04-09 15:57:49 UTC
2654,731123,"Dubrajpur, West Bengal",23.7911288,87.3780882,2022-04-09 15:57:49 UTC,2022-04-09 15:57:49 UTC
2655,722147,"Ramesagar, West Bengal",23.0953999,87.2381202,2022-04-09 15:57:49 UTC,2022-04-09 15:57:49 UTC
2656,731128,"Giridanga, West Bengal",,,2022-04-09 15:57:49 UTC,2022-04-09 15:57:49 UTC
2657,731136,"Baidyanathpur, West Bengal",,,2022-04-09 15:57:49 UTC,2022-04-09 15:57:49 UTC
2658,731138,"Paigara, West Bengal",,,2022-04-09 15:57:49 UTC,2022-04-09 15:57:49 UTC
2659,731139,"Patadanga, West Bengal",,,2022-04-09 15:57:49 UTC,2022-04-09 15:57:49 UTC
2660,731140,"Panchhiara, West Bengal",,,2022-04-09 15:57:49 UTC,2022-04-09 15:57:49 UTC
2661,731141,"Nabasan, West Bengal",,,2022-04-09 15:57:49 UTC,2022-04-09 15:57:49 UTC
2662,731143,"Gargaria, West Bengal",,,2022-04-09 15:57:49 UTC,2022-04-09 15:57:49 UTC
2663,731145,"Deucha, West Bengal",,,2022-04-09 15:57:49 UTC,2022-04-09 15:57:49 UTC
2664,731146,"Itagaria, West Bengal",,,2022-04-09 15:57:49 UTC,2022-04-09 15:57:49 UTC
2665,731304,"Bagdowara, West Bengal",,,2022-04-09 15:57:49 UTC,2022-04-09 15:57:49 UTC
2666,734203,"Domaram Busty, West Bengal",,,2022-04-09 15:57:49 UTC,2022-04-09 15:57:49 UTC
2667,734426,"Kamalabagan, West Bengal",,,2022-04-09 15:57:49 UTC,2022-04-09 15:57:49 UTC
2668,734435,"Mahanada Project, West Bengal",,,2022-04-09 15:57:49 UTC,2022-04-09 15:57:49 UTC
2669,735132,"Pandapra Kalibari, West Bengal",,,2022-04-09 15:57:49 UTC,2022-04-09 15:57:49 UTC
2670,735135,"Kamarvita, West Bengal",,,2022-04-09 15:57:49 UTC,2022-04-09 15:57:49 UTC
2671,735139,"Mandalghat, West Bengal",,,2022-04-09 15:57:49 UTC,2022-04-09 15:57:49 UTC
2672,735140,"Goralbari, West Bengal",,,2022-04-09 15:57:49 UTC,2022-04-09 15:57:49 UTC
2673,731132,"Township, West Bengal",23.7066628,86.9036385865737,2022-04-09 15:57:49 UTC,2022-04-09 15:57:49 UTC
2674,731134,"Bakreswar, West Bengal",23.83608555,87.4636493789504,2022-04-09 15:57:49 UTC,2022-04-09 15:57:49 UTC
2675,731214,"Llam Bazar, West Bengal",23.6270001,87.5385292,2022-04-09 15:57:49 UTC,2022-04-09 15:57:49 UTC
2676,731217,"Margram, West Bengal",24.1494361,87.8438902,2022-04-09 15:57:49 UTC,2022-04-09 15:57:49 UTC
2677,731131,"Tantipara, West Bengal",24.86071935,88.1371264744377,2022-04-09 15:57:49 UTC,2022-04-09 15:57:49 UTC
2678,731220,"Nalhati, West Bengal",24.2966075,87.835306,2022-04-09 15:57:49 UTC,2022-04-09 15:57:49 UTC
2679,731221,"Paikar, West Bengal",24.4333953,87.914272,2022-04-09 15:57:49 UTC,2022-04-09 15:57:49 UTC
2680,731222,"Rajgaon, West Bengal",26.65148615,88.5000361863213,2022-04-09 15:57:49 UTC,2022-04-09 15:57:49 UTC
2681,731224,"Rampurhat Railpur, West Bengal",24.1763069,87.7859569,2022-04-09 15:57:49 UTC,2022-04-09 15:57:49 UTC
2682,731234,"Sainthia, West Bengal",23.9496876,87.6829354,2022-04-09 15:57:49 UTC,2022-04-09 15:57:49 UTC
2683,731237,"Lohapur, West Bengal",24.292777,87.9683017,2022-04-09 15:57:49 UTC,2022-04-09 15:57:49 UTC
2684,731238,"Chatra Birbhum, West Bengal",24.372778,87.848889,2022-04-09 15:57:49 UTC,2022-04-09 15:57:49 UTC
2685,731239,"Narayanpur (Birbhum), West Bengal",23.6787692,87.6818197,2022-04-09 15:57:49 UTC,2022-04-09 15:57:49 UTC
2686,731240,"Bahiri, West Bengal",22.6859708,88.5648945,2022-04-09 15:57:49 UTC,2022-04-09 15:57:49 UTC
2687,731247,"Chawhatta, West Bengal",23.8249078,87.7519717,2022-04-09 15:57:49 UTC,2022-04-09 15:57:49 UTC
2688,731250,"Mahula, West Bengal",13.0113153,77.5446972,2022-04-09 15:57:49 UTC,2022-04-09 15:57:49 UTC
2689,731255,"Panchsowa, West Bengal",23.6787692,87.6818197,2022-04-09 15:57:49 UTC,2022-04-09 15:57:49 UTC
2690,731284,"Hatia, West Bengal",23.14460515,87.1632058345574,2022-04-09 15:57:49 UTC,2022-04-09 15:57:49 UTC
2691,731301,"Chandidas Nanoor, West Bengal",23.7041383,87.8672272,2022-04-09 15:57:49 UTC,2022-04-09 15:57:49 UTC
2692,734103,"North Point, West Bengal",27.05935785,88.250928864267,2022-04-09 15:57:49 UTC,2022-04-09 15:57:49 UTC
2693,734104,"Jalapahar, West Bengal",27.0197802,88.2582058,2022-04-09 15:57:49 UTC,2022-04-09 15:57:49 UTC
2694,731241,"Chandpara, West Bengal",22.9616731,88.7851954,2022-04-09 15:57:49 UTC,2022-04-09 15:57:49 UTC
2695,734105,"Lebong, West Bengal",27.0543579,88.2574093,2022-04-09 15:57:49 UTC,2022-04-09 15:57:49 UTC
2696,734214,"Mirik, West Bengal",26.8881872,88.1888396,2022-04-09 15:57:49 UTC,2022-04-09 15:57:49 UTC
2697,734216,"Pokhriabong, West Bengal",26.9505151,88.1794547,2022-04-09 15:57:49 UTC,2022-04-09 15:57:49 UTC
2698,734217,"Pankhabari, West Bengal",26.8335755,88.2647937,2022-04-09 15:57:49 UTC,2022-04-09 15:57:49 UTC
2699,734222,"Takdah, West Bengal",27.0115957,88.3892468,2022-04-09 15:57:49 UTC,2022-04-09 15:57:49 UTC
2700,734226,"Rangli Rangliot, West Bengal",27.0253936,88.346976,2022-04-09 15:57:49 UTC,2022-04-09 15:57:49 UTC
2701,731303,"Labpur, West Bengal",23.80422755,87.8393049917194,2022-04-09 15:57:49 UTC,2022-04-09 15:57:49 UTC
2702,734311,"Pedong, West Bengal",27.1551305,88.6117963,2022-04-09 15:57:49 UTC,2022-04-09 15:57:49 UTC
2703,734313,"Mangpoo, West Bengal",27.065845,88.4733891,2022-04-09 15:57:49 UTC,2022-04-09 15:57:49 UTC
2704,734314,"Algarah, West Bengal",27.1173436,88.5836206,2022-04-09 15:57:49 UTC,2022-04-09 15:57:49 UTC
2705,734316,"Topkhana, West Bengal",27.065845,88.4733891,2022-04-09 15:57:49 UTC,2022-04-09 15:57:49 UTC
2706,734403,"Pradhannagar, West Bengal",26.7247129,88.4150932,2022-04-09 15:57:49 UTC,2022-04-09 15:57:49 UTC
2707,734404,"Lake Town, West Bengal",22.6057276,88.4029611,2022-04-09 15:57:49 UTC,2022-04-09 15:57:49 UTC
2708,734405,"Saktigarh, West Bengal",23.2070343,87.9690972,2022-04-09 15:57:49 UTC,2022-04-09 15:57:49 UTC
2709,734422,"Bagdogra, West Bengal",26.6821128,88.3290687059284,2022-04-09 15:57:49 UTC,2022-04-09 15:57:49 UTC
2710,734428,"Matigara, West Bengal",26.73474505,88.3718287813386,2022-04-09 15:57:49 UTC,2022-04-09 15:57:49 UTC
2711,734429,"Naksalbari, West Bengal",26.6844571,88.2001439,2022-04-09 15:57:49 UTC,2022-04-09 15:57:49 UTC
2712,734431,"Sahabad, West Bengal",26.6633925,88.3664341,2022-04-09 15:57:49 UTC,2022-04-09 15:57:49 UTC
2713,734434,"Phansidewa, West Bengal",26.5881165,88.3733318,2022-04-09 15:57:49 UTC,2022-04-09 15:57:49 UTC
2714,734401,"Seyoke Road, West Bengal",26.7403703,88.4351806,2022-04-09 15:57:49 UTC,2022-04-09 15:57:49 UTC
2715,734501,"Bagrakote, West Bengal",26.8812537,88.5767448,2022-04-09 15:57:49 UTC,2022-04-09 15:57:49 UTC
2716,734502,"Gairibas, West Bengal",26.9672527,88.2735866,2022-04-09 15:57:49 UTC,2022-04-09 15:57:49 UTC
2717,735102,"Engineering College, West Bengal",22.53884125,88.3286153258323,2022-04-09 15:57:49 UTC,2022-04-09 15:57:49 UTC
2718,735122,"Haldibari, West Bengal",26.3117592,88.8296937774203,2022-04-09 15:57:49 UTC,2022-04-09 15:57:49 UTC
2719,734433,"Kadamtala (Darjeeling), West Bengal",26.6633925,88.3664341,2022-04-09 15:57:49 UTC,2022-04-09 15:57:49 UTC
2720,735201,"Ambari Bagan, West Bengal",26.6411437,88.5105146,2022-04-09 15:57:49 UTC,2022-04-09 15:57:49 UTC
2721,735202,"Banarhat, West Bengal",26.7011224,89.2753101904409,2022-04-09 15:57:49 UTC,2022-04-09 15:57:49 UTC
2722,735205,"Carron, West Bengal",26.8799737,88.970544,2022-04-09 15:57:49 UTC,2022-04-09 15:57:49 UTC
2723,735207,"Chamurchi, West Bengal",26.8827274,89.0903663,2022-04-09 15:57:49 UTC,2022-04-09 15:57:49 UTC
2724,735208,"Dalsingpara, West Bengal",26.7916945,89.3643695,2022-04-09 15:57:49 UTC,2022-04-09 15:57:49 UTC
2725,735209,"Dam Dim, West Bengal",26.8518285,88.6717517,2022-04-09 15:57:49 UTC,2022-04-09 15:57:49 UTC
2726,735210,"Dhupgrui, West Bengal",26.5890221,89.0074849,2022-04-09 15:57:49 UTC,2022-04-09 15:57:49 UTC
2727,735214,"Hamiltonganj, West Bengal",26.6870747,89.4220161,2022-04-09 15:57:49 UTC,2022-04-09 15:57:49 UTC
2728,735206,"Chalsa, West Bengal",26.8813771,88.7943089,2022-04-09 15:57:49 UTC,2022-04-09 15:57:49 UTC
2729,735215,"Hasimara, West Bengal",26.7304173,89.3498394,2022-04-09 15:57:49 UTC,2022-04-09 15:57:49 UTC
2730,735216,"Jateswar, West Bengal",22.9309322,88.7067631,2022-04-09 15:57:49 UTC,2022-04-09 15:57:49 UTC
2731,735219,"Lataguri, West Bengal",26.706542,88.7689841,2022-04-09 15:57:49 UTC,2022-04-09 15:57:49 UTC
2732,735213,"Gopal Bagan, West Bengal",22.9853637,88.3819659937717,2022-04-09 15:57:49 UTC,2022-04-09 15:57:49 UTC
2733,735227,"Raja Bhat Khawa, West Bengal",,,2022-04-09 15:57:49 UTC,2022-04-09 15:57:49 UTC
2734,735233,"Nathuahat, West Bengal",,,2022-04-09 15:57:49 UTC,2022-04-09 15:57:49 UTC
2735,735235,"Jalpesh Mondir, West Bengal",,,2022-04-09 15:57:49 UTC,2022-04-09 15:57:49 UTC
2736,735238,"Rungamatti, West Bengal",,,2022-04-09 15:57:49 UTC,2022-04-09 15:57:49 UTC
2737,735306,"Helapakri, West Bengal",,,2022-04-09 15:57:49 UTC,2022-04-09 15:57:49 UTC
2738,736101,"Durgabari Subhapalli, West Bengal",,,2022-04-09 15:57:49 UTC,2022-04-09 15:57:49 UTC
2739,736132,"Balairhat, West Bengal",,,2022-04-09 15:57:49 UTC,2022-04-09 15:57:49 UTC
2740,736156,"Nilkuthi, West Bengal",,,2022-04-09 15:57:49 UTC,2022-04-09 15:57:49 UTC
2741,736160,"Tufanganj New Town, West Bengal",,,2022-04-09 15:57:49 UTC,2022-04-09 15:57:49 UTC
2742,736166,"Chowdhuri Hat, West Bengal",,,2022-04-09 15:57:49 UTC,2022-04-09 15:57:49 UTC
2743,736172,"Gossairhat Bandar, West Bengal",,,2022-04-09 15:57:49 UTC,2022-04-09 15:57:49 UTC
2744,736201,"Hatipotha, West Bengal",,,2022-04-09 15:57:49 UTC,2022-04-09 15:57:49 UTC
2745,736202,"Kamakshyaguri, West Bengal",,,2022-04-09 15:57:49 UTC,2022-04-09 15:57:49 UTC
2746,736203,"New Lands, West Bengal",,,2022-04-09 15:57:49 UTC,2022-04-09 15:57:49 UTC
2747,736204,"Mathurabagan, West Bengal",,,2022-04-09 15:57:49 UTC,2022-04-09 15:57:49 UTC
2748,736206,"Saontalpur, West Bengal",,,2022-04-09 15:57:49 UTC,2022-04-09 15:57:49 UTC
2749,736207,"Barabisha, West Bengal",,,2022-04-09 15:57:49 UTC,2022-04-09 15:57:49 UTC
2750,736208,"Salsalabari, West Bengal",,,2022-04-09 15:57:49 UTC,2022-04-09 15:57:49 UTC
2751,736257,"Renishiganj, West Bengal",,,2022-04-09 15:57:49 UTC,2022-04-09 15:57:49 UTC
2752,737101,"Gangtok H O, Sikkim",,,2022-04-09 15:57:49 UTC,2022-04-09 15:57:49 UTC
2753,737102,"Doorali, Sikkim",,,2022-04-09 15:57:49 UTC,2022-04-09 15:57:49 UTC
2754,737103,"Raj Bhavan, Sikkim",,,2022-04-09 15:57:49 UTC,2022-04-09 15:57:49 UTC
2755,737106,"Pakyong, Sikkim",,,2022-04-09 15:57:49 UTC,2022-04-09 15:57:49 UTC
2756,737107,"Dikchu, Sikkim",,,2022-04-09 15:57:49 UTC,2022-04-09 15:57:49 UTC
2757,737111,"Gayzing, Sikkim",,,2022-04-09 15:57:49 UTC,2022-04-09 15:57:49 UTC
2758,737112,"Dentam, Sikkim",,,2022-04-09 15:57:49 UTC,2022-04-09 15:57:49 UTC
2759,737113,"Pelling, Sikkim",,,2022-04-09 15:57:49 UTC,2022-04-09 15:57:49 UTC
2760,737114,"Kaluk Bazar, Sikkim",,,2022-04-09 15:57:49 UTC,2022-04-09 15:57:49 UTC
2761,737116,"Magan, Sikkim",,,2022-04-09 15:57:49 UTC,2022-04-09 15:57:49 UTC
2762,737117,"Kabi, Sikkim",,,2022-04-09 15:57:49 UTC,2022-04-09 15:57:49 UTC
2763,737118,"Phensong, Sikkim",,,2022-04-09 15:57:49 UTC,2022-04-09 15:57:49 UTC
2764,737119,"Phodong, Sikkim",,,2022-04-09 15:57:49 UTC,2022-04-09 15:57:49 UTC
2765,737120,"Chung Thung, Sikkim",,,2022-04-09 15:57:49 UTC,2022-04-09 15:57:49 UTC
2766,737121,"Nayabazar (Sikkim), Sikkim",,,2022-04-09 15:57:49 UTC,2022-04-09 15:57:49 UTC
2767,737122,"Sombaray, Sikkim",,,2022-04-09 15:57:49 UTC,2022-04-09 15:57:49 UTC
2768,737126,"Namchi, Sikkim",,,2022-04-09 15:57:49 UTC,2022-04-09 15:57:49 UTC
2769,737127,"Chakung, Sikkim",,,2022-04-09 15:57:49 UTC,2022-04-09 15:57:49 UTC
2770,737128,"Mallibazar, Sikkim",,,2022-04-09 15:57:49 UTC,2022-04-09 15:57:49 UTC
2771,737131,"Ranglu Bazar, Sikkim",,,2022-04-09 15:57:49 UTC,2022-04-09 15:57:49 UTC
2772,737132,"Rangpo, Sikkim",,,2022-04-09 15:57:49 UTC,2022-04-09 15:57:49 UTC
2773,737133,"Rhenock, Sikkim",,,2022-04-09 15:57:49 UTC,2022-04-09 15:57:49 UTC
2774,737134,"Singtam, Sikkim",,,2022-04-09 15:57:49 UTC,2022-04-09 15:57:49 UTC
2775,737135,"Ranipool, Sikkim",,,2022-04-09 15:57:49 UTC,2022-04-09 15:57:49 UTC
2776,737136,"Dain Thong, Sikkim",,,2022-04-09 15:57:49 UTC,2022-04-09 15:57:49 UTC
2777,737137,"Namthung, Sikkim",,,2022-04-09 15:57:49 UTC,2022-04-09 15:57:49 UTC
2778,737138,"Makha, Sikkim",,,2022-04-09 15:57:49 UTC,2022-04-09 15:57:49 UTC
2779,741101,"Nagendra Nagar, West Bengal",,,2022-04-09 15:57:49 UTC,2022-04-09 15:57:49 UTC
2780,743440,"Metia, West Bengal",,,2022-04-09 15:57:49 UTC,2022-04-09 15:57:49 UTC
2781,744101,"Port Blair H O, Andaman and Nicobar",,,2022-04-09 15:57:49 UTC,2022-04-09 15:57:49 UTC
2782,744102,"Haddo, Andaman and Nicobar",,,2022-04-09 15:57:49 UTC,2022-04-09 15:57:49 UTC
2783,744103,"Jangli Ghat, Andaman and Nicobar",,,2022-04-09 15:57:49 UTC,2022-04-09 15:57:49 UTC
2784,744104,"Neel Island, Andaman and Nicobar",,,2022-04-09 15:57:49 UTC,2022-04-09 15:57:49 UTC
2785,744105,"New Secretariate Bldg, Andaman and Nicobar",,,2022-04-09 15:57:49 UTC,2022-04-09 15:57:49 UTC
2786,744106,"Shadipur, Andaman and Nicobar",,,2022-04-09 15:57:49 UTC,2022-04-09 15:57:49 UTC
2787,744107,"Bambooflat, Andaman and Nicobar",,,2022-04-09 15:57:49 UTC,2022-04-09 15:57:49 UTC
2788,744201,"Betapur, Andaman and Nicobar",,,2022-04-09 15:57:49 UTC,2022-04-09 15:57:49 UTC
2789,744202,"Diglipur, Andaman and Nicobar",,,2022-04-09 15:57:49 UTC,2022-04-09 15:57:49 UTC
2790,744203,"Long Island, Andaman and Nicobar",,,2022-04-09 15:57:49 UTC,2022-04-09 15:57:49 UTC
2791,744204,"Mayabunder, Andaman and Nicobar",,,2022-04-09 15:57:49 UTC,2022-04-09 15:57:49 UTC
2792,744205,"Ranghat, Andaman and Nicobar",,,2022-04-09 15:57:49 UTC,2022-04-09 15:57:49 UTC
2793,744206,"Wimberlygunji, Andaman and Nicobar",,,2022-04-09 15:57:49 UTC,2022-04-09 15:57:49 UTC
2794,744207,"Hut Bay, Andaman and Nicobar",,,2022-04-09 15:57:49 UTC,2022-04-09 15:57:49 UTC
2795,735222,"Manabari, West Bengal",26.9009512,88.6339696,2022-04-09 15:57:49 UTC,2022-04-09 15:57:49 UTC
2796,735223,"Matehi, West Bengal",26.9387519,88.8059986,2022-04-09 15:57:49 UTC,2022-04-09 15:57:49 UTC
2797,735225,"Nagrakata, West Bengal",26.887366,88.9115671,2022-04-09 15:57:49 UTC,2022-04-09 15:57:49 UTC
2798,735228,"Ramjhora, West Bengal",26.756592,89.2004,2022-04-09 15:57:49 UTC,2022-04-09 15:57:49 UTC
2799,735221,"Mal H O, West Bengal",26.8489686,88.7285856,2022-04-09 15:57:49 UTC,2022-04-09 15:57:49 UTC
2800,735230,"Baradighi, West Bengal",26.7960343,88.74007,2022-04-09 15:57:49 UTC,2022-04-09 15:57:49 UTC
2801,735231,"Fagu, West Bengal",26.686055,89.4131176,2022-04-09 15:57:49 UTC,2022-04-09 15:57:49 UTC
2802,735236,"Ranirhat, West Bengal",26.4995202,88.9527249141447,2022-04-09 15:57:49 UTC,2022-04-09 15:57:49 UTC
2803,735226,"Panabasti, West Bengal",26.7011224,89.2753101904409,2022-04-09 15:57:49 UTC,2022-04-09 15:57:49 UTC
2804,735304,"Mekliganj, West Bengal",26.3601177,88.9066051,2022-04-09 15:57:49 UTC,2022-04-09 15:57:49 UTC
2805,735234,"Gajaldoba, West Bengal",26.686055,89.4131176,2022-04-09 15:57:49 UTC,2022-04-09 15:57:49 UTC
2806,735307,"Dharampur, West Bengal",22.8865906,88.6683085,2022-04-09 15:57:49 UTC,2022-04-09 15:57:49 UTC
2807,736121,"Alipurduar, West Bengal",26.4851573,89.5246926,2022-04-09 15:57:49 UTC,2022-04-09 15:57:49 UTC
2808,736130,"Bakshaduar, West Bengal",26.31957785,89.4414149287713,2022-04-09 15:57:49 UTC,2022-04-09 15:57:49 UTC
2809,735302,"Domohani, West Bengal",26.5694911,88.7858917,2022-04-09 15:57:49 UTC,2022-04-09 15:57:49 UTC
2810,736102,"Cooch Behar New Town, West Bengal",26.31103485,89.4487715546303,2022-04-09 15:57:49 UTC,2022-04-09 15:57:49 UTC
2811,736134,"Dewanhat, West Bengal",26.2356445,89.4826716,2022-04-09 15:57:49 UTC,2022-04-09 15:57:49 UTC
2812,736122,"Alipurduar Court, West Bengal",26.4851573,89.5246926,2022-04-09 15:57:49 UTC,2022-04-09 15:57:49 UTC
2813,736145,"Gossanimari, West Bengal",26.1384516,89.3595224,2022-04-09 15:57:49 UTC,2022-04-09 15:57:49 UTC
2814,736133,"Baneswar, West Bengal",26.3945597,89.5105789,2022-04-09 15:57:49 UTC,2022-04-09 15:57:49 UTC
2815,736135,"Dinhata, West Bengal",26.1238376,89.4680986,2022-04-09 15:57:49 UTC,2022-04-09 15:57:49 UTC
2816,736150,"Nigamnagar, West Bengal",26.31957785,89.4414149287713,2022-04-09 15:57:49 UTC,2022-04-09 15:57:49 UTC
2817,736159,"Tuanganj, West Bengal",26.3139208,89.6665579,2022-04-09 15:57:49 UTC,2022-04-09 15:57:49 UTC
2818,736168,"Bamanhat, West Bengal",26.0707744,89.5868791,2022-04-09 15:57:49 UTC,2022-04-09 15:57:49 UTC
2819,736171,"Ghokshadanga, West Bengal",26.4226304,89.2778032,2022-04-09 15:57:49 UTC,2022-04-09 15:57:49 UTC
2820,744208,"Bakultala, Andaman and Nicobar",,,2022-04-09 15:57:49 UTC,2022-04-09 15:57:49 UTC
2821,744209,"Kadamtala A & N, Andaman and Nicobar",,,2022-04-09 15:57:49 UTC,2022-04-09 15:57:49 UTC
2822,744210,"Oralkatcha, Andaman and Nicobar",,,2022-04-09 15:57:49 UTC,2022-04-09 15:57:49 UTC
2823,744211,"Havelock, Andaman and Nicobar",,,2022-04-09 15:57:49 UTC,2022-04-09 15:57:49 UTC
2824,744301,"Car Nicobar, Andaman and Nicobar",,,2022-04-09 15:57:49 UTC,2022-04-09 15:57:49 UTC
2825,744302,"Campbell Bay, Andaman and Nicobar",,,2022-04-09 15:57:49 UTC,2022-04-09 15:57:49 UTC
2826,744303,"Nancowrie, Andaman and Nicobar",,,2022-04-09 15:57:49 UTC,2022-04-09 15:57:49 UTC
2827,744304,"Kapanga, Andaman and Nicobar",,,2022-04-09 15:57:49 UTC,2022-04-09 15:57:49 UTC
2828,751001,"A G Office, Orisa",,,2022-04-09 15:57:49 UTC,2022-04-09 15:57:49 UTC
2829,751002,"Santarpur, Orisa",,,2022-04-09 15:57:49 UTC,2022-04-09 15:57:49 UTC
2830,751003,"Ganga Nagar, Orisa",,,2022-04-09 15:57:49 UTC,2022-04-09 15:57:49 UTC
2831,751004,"Veer Surendra Sai Nagar, Orisa",,,2022-04-09 15:57:49 UTC,2022-04-09 15:57:49 UTC
2832,751005,"Sainik School(Bbr-5), Orisa",,,2022-04-09 15:57:49 UTC,2022-04-09 15:57:49 UTC
2833,751007,"Madhusudan Nagar, Orisa",,,2022-04-09 15:57:49 UTC,2022-04-09 15:57:49 UTC
2834,751008,"Rajbhawan (Bbr-8), Orisa",,,2022-04-09 15:57:49 UTC,2022-04-09 15:57:49 UTC
2835,751009,"Ashoka Nagar, Orisa",,,2022-04-09 15:57:49 UTC,2022-04-09 15:57:49 UTC
2836,751010,"Gada Gopinathprasad, Orisa",,,2022-04-09 15:57:49 UTC,2022-04-09 15:57:49 UTC
2837,751011,"C R P Line (Bbr-11) Piri, Orisa",,,2022-04-09 15:57:49 UTC,2022-04-09 15:57:49 UTC
2838,751012,"Nayapalli (Bbr-12), Orisa",,,2022-04-09 15:57:49 UTC,2022-04-09 15:57:49 UTC
2839,751013,"Laboratory (Bbr-13), Orisa",,,2022-04-09 15:57:49 UTC,2022-04-09 15:57:49 UTC
2840,751014,"B J B Nagar, Orisa",,,2022-04-09 15:57:49 UTC,2022-04-09 15:57:49 UTC
2841,751031,"Patia, Orisa",,,2022-04-09 15:57:49 UTC,2022-04-09 15:57:49 UTC
2842,752001,"S C S College, Orisa",,,2022-04-09 15:57:49 UTC,2022-04-09 15:57:49 UTC
2843,752002,"Balikhand Chakratirsh, Orisa",,,2022-04-09 15:57:49 UTC,2022-04-09 15:57:49 UTC
2844,752006,"Rajsunakhala, Orisa",,,2022-04-09 15:57:49 UTC,2022-04-09 15:57:49 UTC
2845,752014,"Sakhigopal, Orisa",,,2022-04-09 15:57:49 UTC,2022-04-09 15:57:49 UTC
2846,752015,"Delang, Orisa",,,2022-04-09 15:57:49 UTC,2022-04-09 15:57:49 UTC
2847,752017,"Kanas, Orisa",,,2022-04-09 15:57:49 UTC,2022-04-09 15:57:49 UTC
2848,752018,"Narangarh, Orisa",,,2022-04-09 15:57:49 UTC,2022-04-09 15:57:49 UTC
2849,752019,"Nirakarpur, Orisa",,,2022-04-09 15:57:49 UTC,2022-04-09 15:57:49 UTC
2850,752020,"Jankia, Orisa",,,2022-04-09 15:57:49 UTC,2022-04-09 15:57:49 UTC
2851,752022,"Kalupuraghat, Orisa",,,2022-04-09 15:57:49 UTC,2022-04-09 15:57:49 UTC
2852,752023,"Tangi, Orisa",,,2022-04-09 15:57:49 UTC,2022-04-09 15:57:49 UTC
2853,752024,"Chandpur, Orisa",,,2022-04-09 15:57:49 UTC,2022-04-09 15:57:49 UTC
2854,752026,"Rajranpur, Orisa",,,2022-04-09 15:57:49 UTC,2022-04-09 15:57:49 UTC
2855,752028,"Nachuni, Orisa",,,2022-04-09 15:57:49 UTC,2022-04-09 15:57:49 UTC
2856,752029,"Nairi, Orisa",,,2022-04-09 15:57:49 UTC,2022-04-09 15:57:49 UTC
2857,752032,"Pavikud, Orisa",,,2022-04-09 15:57:49 UTC,2022-04-09 15:57:49 UTC
2858,752033,"Chilika Nuapada, Orisa",,,2022-04-09 15:57:50 UTC,2022-04-09 15:57:50 UTC
2859,752034,"Gangadharpur, Orisa",,,2022-04-09 15:57:50 UTC,2022-04-09 15:57:50 UTC
2860,752035,"Gambharimunda, Orisa",,,2022-04-09 15:57:50 UTC,2022-04-09 15:57:50 UTC
2861,752037,"N T C Chilika, Orisa",,,2022-04-09 15:57:50 UTC,2022-04-09 15:57:50 UTC
2862,752044,"Kalyanpur, Orisa",,,2022-04-09 15:57:50 UTC,2022-04-09 15:57:50 UTC
2863,752045,"Gabakund, Orisa",,,2022-04-09 15:57:50 UTC,2022-04-09 15:57:50 UTC
2864,752046,"Satsankha, Orisa",,,2022-04-09 15:57:50 UTC,2022-04-09 15:57:50 UTC
2865,752050,"Jatani, Orisa",,,2022-04-09 15:57:50 UTC,2022-04-09 15:57:50 UTC
2866,752054,"Janla, Orisa",,,2022-04-09 15:57:50 UTC,2022-04-09 15:57:50 UTC
2867,752056,"Pallahat (Khurda-2), Orisa",,,2022-04-09 15:57:50 UTC,2022-04-09 15:57:50 UTC
2868,752058,"Garhsanput, Orisa",,,2022-04-09 15:57:50 UTC,2022-04-09 15:57:50 UTC
2869,752060,"Bajpur, Orisa",,,2022-04-09 15:57:50 UTC,2022-04-09 15:57:50 UTC
2870,752061,"Baghamari, Orisa",,,2022-04-09 15:57:50 UTC,2022-04-09 15:57:50 UTC
2871,752067,"Manikgoda, Orisa",,,2022-04-09 15:57:50 UTC,2022-04-09 15:57:50 UTC
2872,752068,"Itamati, Orisa",,,2022-04-09 15:57:50 UTC,2022-04-09 15:57:50 UTC
2873,752069,"Nayagarh H O, Orisa",,,2022-04-09 15:57:50 UTC,2022-04-09 15:57:50 UTC
2874,752070,"Nayagarh Bazar (Nayagarh2, Orisa",,,2022-04-09 15:57:50 UTC,2022-04-09 15:57:50 UTC
2875,752079,"Mandhatapur, Orisa",,,2022-04-09 15:57:50 UTC,2022-04-09 15:57:50 UTC
2876,752080,"Sarankul, Orisa",,,2022-04-09 15:57:50 UTC,2022-04-09 15:57:50 UTC
2877,752081,"Odagaon, Orisa",,,2022-04-09 15:57:50 UTC,2022-04-09 15:57:50 UTC
2878,752082,"Bahadajhola, Orisa",,,2022-04-09 15:57:50 UTC,2022-04-09 15:57:50 UTC
2879,752084,"Daspalla, Orisa",,,2022-04-09 15:57:50 UTC,2022-04-09 15:57:50 UTC
2880,752085,"Gania, Orisa",,,2022-04-09 15:57:50 UTC,2022-04-09 15:57:50 UTC
2881,752086,"Gediapalli, Orisa",,,2022-04-09 15:57:50 UTC,2022-04-09 15:57:50 UTC
2882,752087,"Harekrishnapur, Orisa",,,2022-04-09 15:57:50 UTC,2022-04-09 15:57:50 UTC
2883,752088,"Fategarh, Orisa",,,2022-04-09 15:57:50 UTC,2022-04-09 15:57:50 UTC
2884,752091,"Satpatna, Orisa",,,2022-04-09 15:57:50 UTC,2022-04-09 15:57:50 UTC
2885,752092,"Godipada, Orisa",,,2022-04-09 15:57:50 UTC,2022-04-09 15:57:50 UTC
2886,752093,"Mandhyakhand, Orisa",,,2022-04-09 15:57:50 UTC,2022-04-09 15:57:50 UTC
2887,752094,"Mahipur, Orisa",,,2022-04-09 15:57:50 UTC,2022-04-09 15:57:50 UTC
2888,752101,"Balianta, Orisa",,,2022-04-09 15:57:50 UTC,2022-04-09 15:57:50 UTC
2889,752102,"Balipantna, Orisa",,,2022-04-09 15:57:50 UTC,2022-04-09 15:57:50 UTC
2890,752105,"Balanga, Orisa",,,2022-04-09 15:57:50 UTC,2022-04-09 15:57:50 UTC
2891,752106,"Nimapara, Orisa",,,2022-04-09 15:57:50 UTC,2022-04-09 15:57:50 UTC
2892,752107,"Nayahat, Orisa",,,2022-04-09 15:57:50 UTC,2022-04-09 15:57:50 UTC
2893,752108,"Kakatpur, Orisa",,,2022-04-09 15:57:50 UTC,2022-04-09 15:57:50 UTC
2894,752109,"Astrang, Orisa",,,2022-04-09 15:57:50 UTC,2022-04-09 15:57:50 UTC
2895,752110,"Gop, Orisa",,,2022-04-09 15:57:50 UTC,2022-04-09 15:57:50 UTC
2896,752112,"Dandamukundpur, Orisa",,,2022-04-09 15:57:50 UTC,2022-04-09 15:57:50 UTC
2897,752119,"Lataharan, Orisa",,,2022-04-09 15:57:50 UTC,2022-04-09 15:57:50 UTC
2898,752201,"Haldia, Orisa",,,2022-04-09 15:57:50 UTC,2022-04-09 15:57:50 UTC
2899,753001,"Cantonment Road, Orisa",,,2022-04-09 15:57:50 UTC,2022-04-09 15:57:50 UTC
2900,753002,"Orissa High Court, Orisa",,,2022-04-09 15:57:50 UTC,2022-04-09 15:57:50 UTC
2901,753003,"Kaliaboda, Orisa",,,2022-04-09 15:57:50 UTC,2022-04-09 15:57:50 UTC
2902,753004,"Nayabazar (Cuttack-4) Cha, Orisa",,,2022-04-09 15:57:50 UTC,2022-04-09 15:57:50 UTC
2903,753006,"Institute (Cuttack 6), Orisa",,,2022-04-09 15:57:50 UTC,2022-04-09 15:57:50 UTC
2904,753008,"Tulsipur (Cuttack-8), Orisa",,,2022-04-09 15:57:50 UTC,2022-04-09 15:57:50 UTC
2905,753009,"Telenga Bazar (Cuttack-9), Orisa",,,2022-04-09 15:57:50 UTC,2022-04-09 15:57:50 UTC
2906,753010,"Orissa School Of Eng, Orisa",,,2022-04-09 15:57:50 UTC,2022-04-09 15:57:50 UTC
2907,753011,"Gopalpur (Cuttack 2), Orisa",,,2022-04-09 15:57:50 UTC,2022-04-09 15:57:50 UTC
2908,753012,"Chhatra Bazar, Orisa",,,2022-04-09 15:57:50 UTC,2022-04-09 15:57:50 UTC
2909,753013,"Kalyani Nagar, Orisa",,,2022-04-09 15:57:50 UTC,2022-04-09 15:57:50 UTC
2910,753051,"Telengapentha, Orisa",,,2022-04-09 15:57:50 UTC,2022-04-09 15:57:50 UTC
2911,753052,"Sankhatras, Orisa",,,2022-04-09 15:57:50 UTC,2022-04-09 15:57:50 UTC
2912,754001,"Fulnakhara, Orisa",,,2022-04-09 15:57:50 UTC,2022-04-09 15:57:50 UTC
2913,754004,"Niali, Orisa",,,2022-04-09 15:57:50 UTC,2022-04-09 15:57:50 UTC
2914,754009,"Kalapathar, Orisa",,,2022-04-09 15:57:50 UTC,2022-04-09 15:57:50 UTC
2915,754010,"Bairoi, Orisa",,,2022-04-09 15:57:50 UTC,2022-04-09 15:57:50 UTC
2916,754011,"Adaspur, Orisa",,,2022-04-09 15:57:50 UTC,2022-04-09 15:57:50 UTC
2917,754012,"Tulosipur (Banki), Orisa",,,2022-04-09 15:57:50 UTC,2022-04-09 15:57:50 UTC
2918,754013,"Nandankanan, Orisa",,,2022-04-09 15:57:50 UTC,2022-04-09 15:57:50 UTC
2919,754014,"Talabasta, Orisa",,,2022-04-09 15:57:50 UTC,2022-04-09 15:57:50 UTC
2920,754015,"Chandaka, Orisa",,,2022-04-09 15:57:50 UTC,2022-04-09 15:57:50 UTC
2921,754016,"Kantapara, Orisa",,,2022-04-09 15:57:50 UTC,2022-04-09 15:57:50 UTC
2922,754017,"Baideswar, Orisa",,,2022-04-09 15:57:50 UTC,2022-04-09 15:57:50 UTC
2923,754021,"Jagatpur, Orisa",,,2022-04-09 15:57:50 UTC,2022-04-09 15:57:50 UTC
2924,754023,"Chhatia, Orisa",,,2022-04-09 15:57:50 UTC,2022-04-09 15:57:50 UTC
2925,754024,"Dhanmandal, Orisa",,,2022-04-09 15:57:50 UTC,2022-04-09 15:57:50 UTC
2926,754025,"Chaudwar Bazar, Orisa",,,2022-04-09 15:57:50 UTC,2022-04-09 15:57:50 UTC
2927,754026,"Daulatabad, Orisa",,,2022-04-09 15:57:50 UTC,2022-04-09 15:57:50 UTC
2928,754027,"Chasapara, Orisa",,,2022-04-09 15:57:50 UTC,2022-04-09 15:57:50 UTC
2929,754028,"Charbatia, Orisa",,,2022-04-09 15:57:50 UTC,2022-04-09 15:57:50 UTC
2930,754030,"Tigiria, Orisa",,,2022-04-09 15:57:50 UTC,2022-04-09 15:57:50 UTC
2931,754032,"Narsinghpur, Orisa",,,2022-04-09 15:57:50 UTC,2022-04-09 15:57:50 UTC
2932,754034,"Maniabandha, Orisa",,,2022-04-09 15:57:50 UTC,2022-04-09 15:57:50 UTC
2933,754037,"Kanpur, Orisa",,,2022-04-09 15:57:50 UTC,2022-04-09 15:57:50 UTC
2934,754070,"Agrahat, Orisa",,,2022-04-09 15:57:50 UTC,2022-04-09 15:57:50 UTC
2935,754071,"Kalingchhak, Orisa",,,2022-04-09 15:57:50 UTC,2022-04-09 15:57:50 UTC
2936,754102,"Anakhia, Orisa",,,2022-04-09 15:57:50 UTC,2022-04-09 15:57:50 UTC
2937,754103,"S V M College, Orisa",,,2022-04-09 15:57:50 UTC,2022-04-09 15:57:50 UTC
2938,754104,"Nalibar, Orisa",,,2022-04-09 15:57:50 UTC,2022-04-09 15:57:50 UTC
2939,754106,"Kaduapara, Orisa",,,2022-04-09 15:57:50 UTC,2022-04-09 15:57:50 UTC
2940,754107,"Alanahat, Orisa",,,2022-04-09 15:57:50 UTC,2022-04-09 15:57:50 UTC
2941,754108,"Balikuda, Orisa",,,2022-04-09 15:57:50 UTC,2022-04-09 15:57:50 UTC
2942,754109,"Debidol, Orisa",,,2022-04-09 15:57:50 UTC,2022-04-09 15:57:50 UTC
2943,754113,"Naugaonhat, Orisa",,,2022-04-09 15:57:50 UTC,2022-04-09 15:57:50 UTC
2944,754114,"Mandasahi, Orisa",,,2022-04-09 15:57:50 UTC,2022-04-09 15:57:50 UTC
2945,754115,"Tarikund, Orisa",,,2022-04-09 15:57:50 UTC,2022-04-09 15:57:50 UTC
2946,754116,"Madhyasasan, Orisa",,,2022-04-09 15:57:50 UTC,2022-04-09 15:57:50 UTC
2947,754117,"Kandarpur, Orisa",,,2022-04-09 15:57:50 UTC,2022-04-09 15:57:50 UTC
2948,754118,"Sarichuan, Orisa",,,2022-04-09 15:57:50 UTC,2022-04-09 15:57:50 UTC
2949,754119,"Machhagaon, Orisa",,,2022-04-09 15:57:50 UTC,2022-04-09 15:57:50 UTC
2950,754132,"Raghunathpur, Orisa",,,2022-04-09 15:57:50 UTC,2022-04-09 15:57:50 UTC
2951,754133,"Tarpur, Orisa",,,2022-04-09 15:57:50 UTC,2022-04-09 15:57:50 UTC
2952,754136,"Kanakpur, Orisa",,,2022-04-09 15:57:50 UTC,2022-04-09 15:57:50 UTC
2953,754137,"Tirtol, Orisa",,,2022-04-09 15:57:50 UTC,2022-04-09 15:57:50 UTC
2954,754139,"Tiran, Orisa",,,2022-04-09 15:57:50 UTC,2022-04-09 15:57:50 UTC
2955,754140,"Rahama, Orisa",,,2022-04-09 15:57:50 UTC,2022-04-09 15:57:50 UTC
2956,754142,"Paradeep Port, Orisa",,,2022-04-09 15:57:50 UTC,2022-04-09 15:57:50 UTC
2957,754144,"Paradeep Lock, Orisa",,,2022-04-09 15:57:50 UTC,2022-04-09 15:57:50 UTC
2958,754153,"Garadpur, Orisa",,,2022-04-09 15:57:50 UTC,2022-04-09 15:57:50 UTC
2959,754154,"Antei, Orisa",,,2022-04-09 15:57:50 UTC,2022-04-09 15:57:50 UTC
2960,754157,"Godijang, Orisa",,,2022-04-09 15:57:50 UTC,2022-04-09 15:57:50 UTC
2961,754159,"Godma, Orisa",,,2022-04-09 15:57:50 UTC,2022-04-09 15:57:50 UTC
2962,754160,"Manijanga, Orisa",,,2022-04-09 15:57:50 UTC,2022-04-09 15:57:50 UTC
2963,754161,"Jaipur Ck, Orisa",,,2022-04-09 15:57:50 UTC,2022-04-09 15:57:50 UTC
2964,754201,"Rameswar, Orisa",,,2022-04-09 15:57:50 UTC,2022-04-09 15:57:50 UTC
2965,754202,"Salipur, Orisa",,,2022-04-09 15:57:50 UTC,2022-04-09 15:57:50 UTC
2966,754205,"Balichandrapur, Orisa",,,2022-04-09 15:57:50 UTC,2022-04-09 15:57:50 UTC
2967,754206,"Maharga, Orisa",,,2022-04-09 15:57:50 UTC,2022-04-09 15:57:50 UTC
2968,754207,"Nischintakoili, Orisa",,,2022-04-09 15:57:50 UTC,2022-04-09 15:57:50 UTC
2969,754208,"Chandol, Orisa",,,2022-04-09 15:57:50 UTC,2022-04-09 15:57:50 UTC
2970,754210,"Danpur, Orisa",,,2022-04-09 15:57:50 UTC,2022-04-09 15:57:50 UTC
2971,754211,"Tinimuhani, Orisa",,,2022-04-09 15:57:50 UTC,2022-04-09 15:57:50 UTC
2972,754214,"Indupur, Orisa",,,2022-04-09 15:57:50 UTC,2022-04-09 15:57:50 UTC
2973,754215,"Pattamundai College, Orisa",,,2022-04-09 15:57:50 UTC,2022-04-09 15:57:50 UTC
2974,754216,"Jaria, Orisa",,,2022-04-09 15:57:50 UTC,2022-04-09 15:57:50 UTC
2975,754217,"Alba, Orisa",,,2022-04-09 15:57:50 UTC,2022-04-09 15:57:50 UTC
2976,754220,"Rajkanika, Orisa",,,2022-04-09 15:57:50 UTC,2022-04-09 15:57:50 UTC
2977,754222,"Chaudkulat, Orisa",,,2022-04-09 15:57:50 UTC,2022-04-09 15:57:50 UTC
2978,754224,"Mahakalpara, Orisa",,,2022-04-09 15:57:50 UTC,2022-04-09 15:57:50 UTC
2979,754225,"Rajnagar (Kendrapara), Orisa",,,2022-04-09 15:57:50 UTC,2022-04-09 15:57:50 UTC
2980,754226,"Damarpur, Orisa",,,2022-04-09 15:57:50 UTC,2022-04-09 15:57:50 UTC
2981,754227,"Olavar, Orisa",,,2022-04-09 15:57:50 UTC,2022-04-09 15:57:50 UTC
2982,754228,"Patkura, Orisa",,,2022-04-09 15:57:50 UTC,2022-04-09 15:57:50 UTC
2983,754229,"Ostapur, Orisa",,,2022-04-09 15:57:50 UTC,2022-04-09 15:57:50 UTC
2984,754231,"Namauza, Orisa",,,2022-04-09 15:57:50 UTC,2022-04-09 15:57:50 UTC
2985,754232,"Angulai, Orisa",,,2022-04-09 15:57:50 UTC,2022-04-09 15:57:50 UTC
2986,754233,"Anduli, Orisa",,,2022-04-09 15:57:50 UTC,2022-04-09 15:57:50 UTC
2987,754235,"Balikanagopalpur, Orisa",,,2022-04-09 15:57:50 UTC,2022-04-09 15:57:50 UTC
2988,754238,"Amruta Manohi, Orisa",,,2022-04-09 15:57:50 UTC,2022-04-09 15:57:50 UTC
2989,754240,"Dandisahi, Orisa",,,2022-04-09 15:57:50 UTC,2022-04-09 15:57:50 UTC
2990,754242,"Talchuan, Orisa",,,2022-04-09 15:57:50 UTC,2022-04-09 15:57:50 UTC
2991,754243,"Pegarpara, Orisa",,,2022-04-09 15:57:50 UTC,2022-04-09 15:57:50 UTC
2992,754244,"Jampar, Orisa",,,2022-04-09 15:57:50 UTC,2022-04-09 15:57:50 UTC
2993,754246,"Madanpur, Orisa",,,2022-04-09 15:57:50 UTC,2022-04-09 15:57:50 UTC
2994,754248,"Iswarpur, Orisa",,,2022-04-09 15:57:50 UTC,2022-04-09 15:57:50 UTC
2995,754250,"Thakurpatna, Orisa",,,2022-04-09 15:57:50 UTC,2022-04-09 15:57:50 UTC
2996,754260,"Padmapur (Athgarh), Orisa",,,2022-04-09 15:57:50 UTC,2022-04-09 15:57:50 UTC
2997,754280,"Charirakaba, Orisa",,,2022-04-09 15:57:50 UTC,2022-04-09 15:57:50 UTC
2998,754281,"Badamundai, Orisa",,,2022-04-09 15:57:50 UTC,2022-04-09 15:57:50 UTC
2999,754288,"Lalitgiri, Orisa",,,2022-04-09 15:57:50 UTC,2022-04-09 15:57:50 UTC
3000,754289,"Derabis, Orisa",,,2022-04-09 15:57:50 UTC,2022-04-09 15:57:50 UTC
3001,754292,"Charinangal, Orisa",,,2022-04-09 15:57:50 UTC,2022-04-09 15:57:50 UTC
3002,755001,"Jaipur H O, Orisa",,,2022-04-09 15:57:50 UTC,2022-04-09 15:57:50 UTC
3003,755006,"Dasarathpur, Orisa",,,2022-04-09 15:57:50 UTC,2022-04-09 15:57:50 UTC
3004,755007,"Debidwar, Orisa",,,2022-04-09 15:57:50 UTC,2022-04-09 15:57:50 UTC
3005,755008,"Dharamshala, Orisa",,,2022-04-09 15:57:50 UTC,2022-04-09 15:57:50 UTC
3006,755009,"Kabirpur, Orisa",,,2022-04-09 15:57:50 UTC,2022-04-09 15:57:50 UTC
3007,755010,"Kaipara, Orisa",,,2022-04-09 15:57:50 UTC,2022-04-09 15:57:50 UTC
3008,755011,"Mangalpur, Orisa",,,2022-04-09 15:57:50 UTC,2022-04-09 15:57:50 UTC
3009,755014,"Rambagh, Orisa",,,2022-04-09 15:57:50 UTC,2022-04-09 15:57:50 UTC
3010,755015,"Sankhachilla, Orisa",,,2022-04-09 15:57:50 UTC,2022-04-09 15:57:50 UTC
3011,755019,"Jaipr Road R S, Orisa",,,2022-04-09 15:57:50 UTC,2022-04-09 15:57:50 UTC
3012,755020,"F C Project, Orisa",,,2022-04-09 15:57:50 UTC,2022-04-09 15:57:50 UTC
3013,755021,"Bainsaria, Orisa",,,2022-04-09 15:57:50 UTC,2022-04-09 15:57:50 UTC
3014,755023,"Jenapur, Orisa",,,2022-04-09 15:57:50 UTC,2022-04-09 15:57:50 UTC
3015,755024,"Haridaspur, Orisa",,,2022-04-09 15:57:50 UTC,2022-04-09 15:57:50 UTC
3016,755026,"Dangadi, Orisa",,,2022-04-09 15:57:50 UTC,2022-04-09 15:57:50 UTC
3017,755027,"Arei, Orisa",,,2022-04-09 15:57:50 UTC,2022-04-09 15:57:50 UTC
3018,755028,"Kalaringatta, Orisa",,,2022-04-09 15:57:50 UTC,2022-04-09 15:57:50 UTC
3019,755030,"Kalyanpur, Orisa",,,2022-04-09 15:57:50 UTC,2022-04-09 15:57:50 UTC
3020,755031,"Kamagarh, Orisa",,,2022-04-09 15:57:50 UTC,2022-04-09 15:57:50 UTC
3021,755032,"Rama Chandrapur (Jaipur), Orisa",,,2022-04-09 15:57:50 UTC,2022-04-09 15:57:50 UTC
3022,755035,"Angalo, Orisa",,,2022-04-09 15:57:50 UTC,2022-04-09 15:57:50 UTC
3023,755036,"Ahiyas, Orisa",,,2022-04-09 15:57:50 UTC,2022-04-09 15:57:50 UTC
3024,755037,"Kanikapara, Orisa",,,2022-04-09 15:57:50 UTC,2022-04-09 15:57:50 UTC
3025,755041,"Garhmadhupur, Orisa",,,2022-04-09 15:57:50 UTC,2022-04-09 15:57:50 UTC
3026,755042,"Ragadi, Orisa",,,2022-04-09 15:57:50 UTC,2022-04-09 15:57:50 UTC
3027,755043,"Panikoili, Orisa",,,2022-04-09 15:57:50 UTC,2022-04-09 15:57:50 UTC
3028,755044,"Chandikhol, Orisa",,,2022-04-09 15:57:50 UTC,2022-04-09 15:57:50 UTC
3029,755046,"Hatibari, Orisa",,,2022-04-09 15:57:50 UTC,2022-04-09 15:57:50 UTC
3030,755047,"Kaliapani, Orisa",,,2022-04-09 15:57:50 UTC,2022-04-09 15:57:50 UTC
3031,755048,"Dala, Orisa",,,2022-04-09 15:57:50 UTC,2022-04-09 15:57:50 UTC
3032,755050,"Jaraka Bazar, Orisa",,,2022-04-09 15:57:50 UTC,2022-04-09 15:57:50 UTC
3033,756001,"Nayabazar Balasore, Orisa",,,2022-04-09 15:57:50 UTC,2022-04-09 15:57:50 UTC
3034,756003,"Sahidpark, Orisa",,,2022-04-09 15:57:50 UTC,2022-04-09 15:57:50 UTC
3035,756017,"Sargaon, Orisa",,,2022-04-09 15:57:50 UTC,2022-04-09 15:57:50 UTC
3036,756022,"Darada, Orisa",,,2022-04-09 15:57:50 UTC,2022-04-09 15:57:50 UTC
3037,756024,"Nangaleswar, Orisa",,,2022-04-09 15:57:50 UTC,2022-04-09 15:57:50 UTC
3038,756025,"Chandipur, Orisa",,,2022-04-09 15:57:50 UTC,2022-04-09 15:57:50 UTC
3039,756026,"Baliapal, Orisa",,,2022-04-09 15:57:50 UTC,2022-04-09 15:57:50 UTC
3040,756027,"Haldipada, Orisa",,,2022-04-09 15:57:50 UTC,2022-04-09 15:57:50 UTC
3041,756030,"Amarda Road, Orisa",,,2022-04-09 15:57:50 UTC,2022-04-09 15:57:50 UTC
3042,756032,"Nayabazar Jaleswar, Orisa",,,2022-04-09 15:57:50 UTC,2022-04-09 15:57:50 UTC
3043,756033,"Hatigarh, Orisa",,,2022-04-09 15:57:50 UTC,2022-04-09 15:57:50 UTC
3044,756034,"Nampo, Orisa",,,2022-04-09 15:57:50 UTC,2022-04-09 15:57:50 UTC
3045,756035,"Kamarda, Orisa",,,2022-04-09 15:57:50 UTC,2022-04-09 15:57:50 UTC
3046,756036,"Dehurda, Orisa",,,2022-04-09 15:57:50 UTC,2022-04-09 15:57:50 UTC
3047,756037,"Fulbani, Orisa",,,2022-04-09 15:57:50 UTC,2022-04-09 15:57:50 UTC
3048,756040,"Rajnilgiri, Orisa",,,2022-04-09 15:57:50 UTC,2022-04-09 15:57:50 UTC
3049,756041,"Sajanagarh, Orisa",,,2022-04-09 15:57:50 UTC,2022-04-09 15:57:50 UTC
3050,756042,"Bahanaga, Orisa",,,2022-04-09 15:57:50 UTC,2022-04-09 15:57:50 UTC
3051,756043,"Kakhra, Orisa",,,2022-04-09 15:57:50 UTC,2022-04-09 15:57:50 UTC
3052,756044,"Gopalpur (Bis), Orisa",,,2022-04-09 15:57:50 UTC,2022-04-09 15:57:50 UTC
3053,756045,"Hareswar, Orisa",,,2022-04-09 15:57:50 UTC,2022-04-09 15:57:50 UTC
3054,756046,"Anantapur, Orisa",,,2022-04-09 15:57:50 UTC,2022-04-09 15:57:50 UTC
3055,756047,"Turigaria, Orisa",,,2022-04-09 15:57:50 UTC,2022-04-09 15:57:50 UTC
3056,756049,"Oupada, Orisa",,,2022-04-09 15:57:50 UTC,2022-04-09 15:57:50 UTC
3057,756053,"Chak Jagannathpur, Orisa",,,2022-04-09 15:57:50 UTC,2022-04-09 15:57:50 UTC
3058,756054,"Chak Barhapur, Orisa",,,2022-04-09 15:57:50 UTC,2022-04-09 15:57:50 UTC
3059,756057,"Balaramgadi, Orisa",,,2022-04-09 15:57:50 UTC,2022-04-09 15:57:50 UTC
3060,756058,"Raj Berhampur, Orisa",,,2022-04-09 15:57:50 UTC,2022-04-09 15:57:50 UTC
3061,756071,"Sadanandapur, Orisa",,,2022-04-09 15:57:50 UTC,2022-04-09 15:57:50 UTC
3062,756072,"Mandurkula, Orisa",,,2022-04-09 15:57:50 UTC,2022-04-09 15:57:50 UTC
3063,756073,"Haldiapada, Orisa",,,2022-04-09 15:57:50 UTC,2022-04-09 15:57:50 UTC
3064,756074,"Dandika, Orisa",,,2022-04-09 15:57:50 UTC,2022-04-09 15:57:50 UTC
3065,756075,"Raibania, Orisa",,,2022-04-09 15:57:50 UTC,2022-04-09 15:57:50 UTC
3066,756076,"Lakhnnath Road, Orisa",,,2022-04-09 15:57:50 UTC,2022-04-09 15:57:50 UTC
3067,756077,"Sartha, Orisa",,,2022-04-09 15:57:50 UTC,2022-04-09 15:57:50 UTC
3068,756078,"Vellora, Orisa",,,2022-04-09 15:57:50 UTC,2022-04-09 15:57:50 UTC
3069,756079,"Dahamunda, Orisa",,,2022-04-09 15:57:50 UTC,2022-04-09 15:57:50 UTC
3070,756080,"Irda, Orisa",,,2022-04-09 15:57:50 UTC,2022-04-09 15:57:50 UTC
3071,756081,"Jamsuli, Orisa",,,2022-04-09 15:57:50 UTC,2022-04-09 15:57:50 UTC
3072,756082,"Machhadiha, Orisa",,,2022-04-09 15:57:50 UTC,2022-04-09 15:57:50 UTC
3073,756084,"D K College, Orisa",,,2022-04-09 15:57:50 UTC,2022-04-09 15:57:50 UTC
3074,756101,"Charampa, Orisa",,,2022-04-09 15:57:50 UTC,2022-04-09 15:57:50 UTC
3075,756110,"Ichhapur, Orisa",,,2022-04-09 15:57:50 UTC,2022-04-09 15:57:50 UTC
3076,756111,"Ranital, Orisa",,,2022-04-09 15:57:50 UTC,2022-04-09 15:57:50 UTC
3077,756116,"Arnapal, Orisa",,,2022-04-09 15:57:50 UTC,2022-04-09 15:57:50 UTC
3078,756117,"Dakhinbad, Orisa",,,2022-04-09 15:57:50 UTC,2022-04-09 15:57:50 UTC
3079,756121,"Manjuri Road, Orisa",,,2022-04-09 15:57:50 UTC,2022-04-09 15:57:50 UTC
3080,756122,"Akhuapada, Orisa",,,2022-04-09 15:57:50 UTC,2022-04-09 15:57:50 UTC
3081,756123,"Sabrang, Orisa",,,2022-04-09 15:57:50 UTC,2022-04-09 15:57:50 UTC
3082,756124,"Ertal, Orisa",,,2022-04-09 15:57:50 UTC,2022-04-09 15:57:50 UTC
3083,756129,"Ghanteswar, Orisa",,,2022-04-09 15:57:51 UTC,2022-04-09 15:57:51 UTC
3084,756130,"Tihiri, Orisa",,,2022-04-09 15:57:51 UTC,2022-04-09 15:57:51 UTC
3085,756133,"Chandbali, Orisa",,,2022-04-09 15:57:51 UTC,2022-04-09 15:57:51 UTC
3086,756134,"Ada, Orisa",,,2022-04-09 15:57:51 UTC,2022-04-09 15:57:51 UTC
3087,756135,"Randiahat, Orisa",,,2022-04-09 15:57:51 UTC,2022-04-09 15:57:51 UTC
3088,756136,"Churamani, Orisa",,,2022-04-09 15:57:51 UTC,2022-04-09 15:57:51 UTC
3089,756137,"Asurali, Orisa",,,2022-04-09 15:57:51 UTC,2022-04-09 15:57:51 UTC
3090,756138,"Arad, Orisa",,,2022-04-09 15:57:51 UTC,2022-04-09 15:57:51 UTC
3091,756139,"Arsa, Orisa",,,2022-04-09 15:57:51 UTC,2022-04-09 15:57:51 UTC
3092,756140,"Adhuan, Orisa",,,2022-04-09 15:57:51 UTC,2022-04-09 15:57:51 UTC
3093,756141,"Hatidihi, Orisa",,,2022-04-09 15:57:51 UTC,2022-04-09 15:57:51 UTC
3094,756143,"Nandigaon, Orisa",,,2022-04-09 15:57:51 UTC,2022-04-09 15:57:51 UTC
3095,756162,"Eram, Orisa",,,2022-04-09 15:57:51 UTC,2022-04-09 15:57:51 UTC
3096,756164,"Naikanidihi, Orisa",,,2022-04-09 15:57:51 UTC,2022-04-09 15:57:51 UTC
3097,756166,"Balikhand, Orisa",,,2022-04-09 15:57:51 UTC,2022-04-09 15:57:51 UTC
3098,756181,"Madhabnagar, Orisa",,,2022-04-09 15:57:51 UTC,2022-04-09 15:57:51 UTC
3099,757001,"Baghra Road, Orisa",,,2022-04-09 15:57:51 UTC,2022-04-09 15:57:51 UTC
3100,757003,"Takatpur (Baripada-3), Orisa",,,2022-04-09 15:57:51 UTC,2022-04-09 15:57:51 UTC
3101,757014,"Chandua Ashram, Orisa",,,2022-04-09 15:57:51 UTC,2022-04-09 15:57:51 UTC
3102,757016,"Rasgovindpur, Orisa",,,2022-04-09 15:57:51 UTC,2022-04-09 15:57:51 UTC
3103,757018,"Chitrada, Orisa",,,2022-04-09 15:57:51 UTC,2022-04-09 15:57:51 UTC
3104,757021,"Deoli, Orisa",,,2022-04-09 15:57:51 UTC,2022-04-09 15:57:51 UTC
3105,757023,"Garia, Orisa",,,2022-04-09 15:57:51 UTC,2022-04-09 15:57:51 UTC
3106,757024,"Sankerko, Orisa",,,2022-04-09 15:57:51 UTC,2022-04-09 15:57:51 UTC
3107,757028,"Baisinga, Orisa",,,2022-04-09 15:57:51 UTC,2022-04-09 15:57:51 UTC
3108,757035,"Raruan, Orisa",,,2022-04-09 15:57:51 UTC,2022-04-09 15:57:51 UTC
3109,757036,"Tato, Orisa",,,2022-04-09 15:57:51 UTC,2022-04-09 15:57:51 UTC
3110,757038,"Thakurmunda, Orisa",,,2022-04-09 15:57:51 UTC,2022-04-09 15:57:51 UTC
3111,757041,"Udala College, Orisa",,,2022-04-09 15:57:51 UTC,2022-04-09 15:57:51 UTC
3112,757043,"Madhuldiha, Orisa",,,2022-04-09 15:57:51 UTC,2022-04-09 15:57:51 UTC
3113,757045,"Jamda, Orisa",,,2022-04-09 15:57:51 UTC,2022-04-09 15:57:51 UTC
3114,757046,"Bahalda, Orisa",,,2022-04-09 15:57:51 UTC,2022-04-09 15:57:51 UTC
3115,757047,"Badampahar, Orisa",,,2022-04-09 15:57:51 UTC,2022-04-09 15:57:51 UTC
3116,757050,"Hatbadra, Orisa",,,2022-04-09 15:57:51 UTC,2022-04-09 15:57:51 UTC
3117,757051,"Saraskana, Orisa",,,2022-04-09 15:57:51 UTC,2022-04-09 15:57:51 UTC
3118,757054,"Bahalda Road R S, Orisa",,,2022-04-09 15:57:51 UTC,2022-04-09 15:57:51 UTC
3119,757055,"Amarda, Orisa",,,2022-04-09 15:57:51 UTC,2022-04-09 15:57:51 UTC
3120,757071,"Chandanpur, Orisa",,,2022-04-09 15:57:51 UTC,2022-04-09 15:57:51 UTC
3121,757072,"Paiksahi, Orisa",,,2022-04-09 15:57:51 UTC,2022-04-09 15:57:51 UTC
3122,757073,"Nalagaja, Orisa",,,2022-04-09 15:57:51 UTC,2022-04-09 15:57:51 UTC
3123,757078,"Badjod, Orisa",,,2022-04-09 15:57:51 UTC,2022-04-09 15:57:51 UTC
3124,757079,"Sarat, Orisa",,,2022-04-09 15:57:51 UTC,2022-04-09 15:57:51 UTC
3125,757082,"Garhdeulia, Orisa",,,2022-04-09 15:57:51 UTC,2022-04-09 15:57:51 UTC
3126,757101,"Radho, Orisa",,,2022-04-09 15:57:51 UTC,2022-04-09 15:57:51 UTC
3127,757104,"Bahanada, Orisa",,,2022-04-09 15:57:51 UTC,2022-04-09 15:57:51 UTC
3128,757106,"Salchua, Orisa",,,2022-04-09 15:57:51 UTC,2022-04-09 15:57:51 UTC
3129,758001,"Madhapur, Orisa",,,2022-04-09 15:57:51 UTC,2022-04-09 15:57:51 UTC
3130,758013,"Raisuan, Orisa",,,2022-04-09 15:57:51 UTC,2022-04-09 15:57:51 UTC
3131,758014,"Naranpur, Orisa",,,2022-04-09 15:57:51 UTC,2022-04-09 15:57:51 UTC
3132,758015,"Ghasipura, Orisa",,,2022-04-09 15:57:51 UTC,2022-04-09 15:57:51 UTC
3133,758016,"Saharpada, Orisa",,,2022-04-09 15:57:51 UTC,2022-04-09 15:57:51 UTC
3134,758017,"Rajnagar (Keonjhar), Orisa",,,2022-04-09 15:57:51 UTC,2022-04-09 15:57:51 UTC
3135,758019,"Telkoi, Orisa",,,2022-04-09 15:57:51 UTC,2022-04-09 15:57:51 UTC
3136,758020,"Salapada, Orisa",,,2022-04-09 15:57:51 UTC,2022-04-09 15:57:51 UTC
3137,758021,"Anandapur, Orisa",,,2022-04-09 15:57:51 UTC,2022-04-09 15:57:51 UTC
3138,758022,"Fakirpur, Orisa",,,2022-04-09 15:57:51 UTC,2022-04-09 15:57:51 UTC
3139,758023,"Hadgarh, Orisa",,,2022-04-09 15:57:51 UTC,2022-04-09 15:57:51 UTC
3140,758026,"Talpada, Orisa",,,2022-04-09 15:57:51 UTC,2022-04-09 15:57:51 UTC
3141,758027,"Ghatgaon, Orisa",,,2022-04-09 15:57:51 UTC,2022-04-09 15:57:51 UTC
3142,758028,"Harichandanpur, Orisa",,,2022-04-09 15:57:51 UTC,2022-04-09 15:57:51 UTC
3143,758032,"Ukhunda, Orisa",,,2022-04-09 15:57:51 UTC,2022-04-09 15:57:51 UTC
3144,758041,"Champua, Orisa",,,2022-04-09 15:57:51 UTC,2022-04-09 15:57:51 UTC
3145,758042,"Nalda, Orisa",,,2022-04-09 15:57:51 UTC,2022-04-09 15:57:51 UTC
3146,758043,"Sainkul, Orisa",,,2022-04-09 15:57:51 UTC,2022-04-09 15:57:51 UTC
3147,758045,"Udayapur, Orisa",,,2022-04-09 15:57:51 UTC,2022-04-09 15:57:51 UTC
3148,758046,"Turumunga, Orisa",,,2022-04-09 15:57:51 UTC,2022-04-09 15:57:51 UTC
3149,758048,"Kalikaprasad, Orisa",,,2022-04-09 15:57:51 UTC,2022-04-09 15:57:51 UTC
3150,758049,"Dhakota, Orisa",,,2022-04-09 15:57:51 UTC,2022-04-09 15:57:51 UTC
3151,758052,"Jajang, Orisa",,,2022-04-09 15:57:51 UTC,2022-04-09 15:57:51 UTC
3152,758053,"Chamakpur, Orisa",,,2022-04-09 15:57:51 UTC,2022-04-09 15:57:51 UTC
3153,758054,"Palaspanga, Orisa",,,2022-04-09 15:57:51 UTC,2022-04-09 15:57:51 UTC
3154,758061,"Ramachandrapur (Keonjhar), Orisa",,,2022-04-09 15:57:51 UTC,2022-04-09 15:57:51 UTC
3155,758062,"Panchapally, Orisa",,,2022-04-09 15:57:51 UTC,2022-04-09 15:57:51 UTC
3156,758071,"Pandapada, Orisa",,,2022-04-09 15:57:51 UTC,2022-04-09 15:57:51 UTC
3157,758073,"Padmapur (Keonjhar), Orisa",,,2022-04-09 15:57:51 UTC,2022-04-09 15:57:51 UTC
3158,758074,"Mandua, Orisa",,,2022-04-09 15:57:51 UTC,2022-04-09 15:57:51 UTC
3159,758078,"Dhanurjayapur, Orisa",,,2022-04-09 15:57:51 UTC,2022-04-09 15:57:51 UTC
3160,758079,"Janghira, Orisa",,,2022-04-09 15:57:51 UTC,2022-04-09 15:57:51 UTC
3161,758081,"Machhagarh, Orisa",,,2022-04-09 15:57:51 UTC,2022-04-09 15:57:51 UTC
3162,759001,"Baji Chowk, Orisa",,,2022-04-09 15:57:51 UTC,2022-04-09 15:57:51 UTC
3163,759014,"Mahimagadi, Orisa",,,2022-04-09 15:57:51 UTC,2022-04-09 15:57:51 UTC
3164,759018,"Kamakhyanagar, Orisa",,,2022-04-09 15:57:51 UTC,2022-04-09 15:57:51 UTC
3165,759019,"Hindol Road R S, Orisa",,,2022-04-09 15:57:51 UTC,2022-04-09 15:57:51 UTC
3166,759020,"Balimi, Orisa",,,2022-04-09 15:57:51 UTC,2022-04-09 15:57:51 UTC
3167,759021,"Rasol, Orisa",,,2022-04-09 15:57:51 UTC,2022-04-09 15:57:51 UTC
3168,759022,"Hindol, Orisa",,,2022-04-09 15:57:51 UTC,2022-04-09 15:57:51 UTC
3169,759025,"Gadasila, Orisa",,,2022-04-09 15:57:51 UTC,2022-04-09 15:57:51 UTC
3170,759026,"Analabereni, Orisa",,,2022-04-09 15:57:51 UTC,2022-04-09 15:57:51 UTC
3171,759028,"Kankadahad, Orisa",,,2022-04-09 15:57:51 UTC,2022-04-09 15:57:51 UTC
3172,759029,"Fulpada, Orisa",,,2022-04-09 15:57:51 UTC,2022-04-09 15:57:51 UTC
3173,759030,"Sadangi, Orisa",,,2022-04-09 15:57:51 UTC,2022-04-09 15:57:51 UTC
3174,759032,"Dhalpur, Orisa",,,2022-04-09 15:57:51 UTC,2022-04-09 15:57:51 UTC
3175,759034,"Balarampur, Orisa",,,2022-04-09 15:57:51 UTC,2022-04-09 15:57:51 UTC
3176,759036,"Badakhamar, Orisa",,,2022-04-09 15:57:51 UTC,2022-04-09 15:57:51 UTC
3177,759037,"Samal Barrage, Orisa",,,2022-04-09 15:57:51 UTC,2022-04-09 15:57:51 UTC
3178,759039,"Badasualo, Orisa",,,2022-04-09 15:57:51 UTC,2022-04-09 15:57:51 UTC
3179,759101,"Talcher Thermal, Orisa",,,2022-04-09 15:57:51 UTC,2022-04-09 15:57:51 UTC
3180,759102,"Deulbera Colliery, Orisa",,,2022-04-09 15:57:51 UTC,2022-04-09 15:57:51 UTC
3181,759103,"Dera Colliary, Orisa",,,2022-04-09 15:57:51 UTC,2022-04-09 15:57:51 UTC
3182,759104,"Chainpal Colony, Orisa",,,2022-04-09 15:57:51 UTC,2022-04-09 15:57:51 UTC
3183,759106,"Vikrampur, Orisa",,,2022-04-09 15:57:51 UTC,2022-04-09 15:57:51 UTC
3184,759107,"Talcher Twon, Orisa",,,2022-04-09 15:57:51 UTC,2022-04-09 15:57:51 UTC
3185,759116,"Balanda, Orisa",,,2022-04-09 15:57:51 UTC,2022-04-09 15:57:51 UTC
3186,759117,"Kaniha, Orisa",,,2022-04-09 15:57:51 UTC,2022-04-09 15:57:51 UTC
3187,759119,"Pallahara, Orisa",,,2022-04-09 15:57:51 UTC,2022-04-09 15:57:51 UTC
3188,759120,"Parjang, Orisa",,,2022-04-09 15:57:51 UTC,2022-04-09 15:57:51 UTC
3189,759122,"Angul Bazar, Orisa",,,2022-04-09 15:57:51 UTC,2022-04-09 15:57:51 UTC
3190,759123,"P T C Angul, Orisa",,,2022-04-09 15:57:51 UTC,2022-04-09 15:57:51 UTC
3191,759124,"Chhendipada, Orisa",,,2022-04-09 15:57:51 UTC,2022-04-09 15:57:51 UTC
3192,759126,"Rajkisherenagar, Orisa",,,2022-04-09 15:57:51 UTC,2022-04-09 15:57:51 UTC
3193,759131,"Jagannathpur, Orisa",,,2022-04-09 15:57:51 UTC,2022-04-09 15:57:51 UTC
3194,759132,"Hulursinga, Orisa",,,2022-04-09 15:57:51 UTC,2022-04-09 15:57:51 UTC
3195,759134,"Handapa, Orisa",,,2022-04-09 15:57:51 UTC,2022-04-09 15:57:51 UTC
3196,759136,"Raijharan, Orisa",,,2022-04-09 15:57:51 UTC,2022-04-09 15:57:51 UTC
3197,759138,"Jarapada, Orisa",,,2022-04-09 15:57:51 UTC,2022-04-09 15:57:51 UTC
3198,759141,"Bagdia, Orisa",,,2022-04-09 15:57:51 UTC,2022-04-09 15:57:51 UTC
3199,759142,"Thakurgarh, Orisa",,,2022-04-09 15:57:51 UTC,2022-04-09 15:57:51 UTC
3200,759143,"Hakimpada, Orisa",,,2022-04-09 15:57:51 UTC,2022-04-09 15:57:51 UTC
3201,759144,"Tubey, Orisa",,,2022-04-09 15:57:51 UTC,2022-04-09 15:57:51 UTC
3202,759145,"Nalco Nagar, Orisa",,,2022-04-09 15:57:51 UTC,2022-04-09 15:57:51 UTC
3203,760001,"Badakemundi Street, Orisa",,,2022-04-09 15:57:51 UTC,2022-04-09 15:57:51 UTC
3204,760002,"Park Street, Orisa",,,2022-04-09 15:57:51 UTC,2022-04-09 15:57:51 UTC
3205,760004,"Baidyanathpur, Orisa",,,2022-04-09 15:57:51 UTC,2022-04-09 15:57:51 UTC
3206,760005,"Hilpatna (Berhampur5), Orisa",,,2022-04-09 15:57:51 UTC,2022-04-09 15:57:51 UTC
3207,760006,"Sankarpur, Orisa",,,2022-04-09 15:57:51 UTC,2022-04-09 15:57:51 UTC
3208,760007,"University, Orisa",,,2022-04-09 15:57:51 UTC,2022-04-09 15:57:51 UTC
3209,760008,"Lanjipalli (Berhampur-8), Orisa",,,2022-04-09 15:57:51 UTC,2022-04-09 15:57:51 UTC
3210,760009,"Nabeen (Berhampur-9), Orisa",,,2022-04-09 15:57:51 UTC,2022-04-09 15:57:51 UTC
3211,760010,"Engineering School Berham, Orisa",,,2022-04-09 15:57:51 UTC,2022-04-09 15:57:51 UTC
3212,760031,"Indrakhi, Orisa",,,2022-04-09 15:57:51 UTC,2022-04-09 15:57:51 UTC
3213,760032,"Bahadurpetta, Orisa",,,2022-04-09 15:57:51 UTC,2022-04-09 15:57:51 UTC
3214,760034,"Padmapur (Behrampur), Orisa",,,2022-04-09 15:57:51 UTC,2022-04-09 15:57:51 UTC
3215,761001,"Nimakhandi, Orisa",,,2022-04-09 15:57:51 UTC,2022-04-09 15:57:51 UTC
3216,761004,"Patrapur (Gm), Orisa",,,2022-04-09 15:57:51 UTC,2022-04-09 15:57:51 UTC
3217,761005,"Jaradagad, Orisa",,,2022-04-09 15:57:51 UTC,2022-04-09 15:57:51 UTC
3218,761006,"Jayantipur, Orisa",,,2022-04-09 15:57:51 UTC,2022-04-09 15:57:51 UTC
3219,761007,"Padmanbhapur, Orisa",,,2022-04-09 15:57:51 UTC,2022-04-09 15:57:51 UTC
3220,761008,"Golanthra, Orisa",,,2022-04-09 15:57:51 UTC,2022-04-09 15:57:51 UTC
3221,761009,"Girisola, Orisa",,,2022-04-09 15:57:51 UTC,2022-04-09 15:57:51 UTC
3222,761010,"Chikati, Orisa",,,2022-04-09 15:57:51 UTC,2022-04-09 15:57:51 UTC
3223,761013,"Pattopur, Orisa",,,2022-04-09 15:57:51 UTC,2022-04-09 15:57:51 UTC
3224,761016,"R Udaigiri, Orisa",,,2022-04-09 15:57:51 UTC,2022-04-09 15:57:51 UTC
3225,761017,"Chandragiri, Orisa",,,2022-04-09 15:57:51 UTC,2022-04-09 15:57:51 UTC
3226,761020,"New Reserve, Orisa",,,2022-04-09 15:57:51 UTC,2022-04-09 15:57:51 UTC
3227,761025,"Jayasree, Orisa",,,2022-04-09 15:57:51 UTC,2022-04-09 15:57:51 UTC
3228,761026,"Ganjam, Orisa",,,2022-04-09 15:57:51 UTC,2022-04-09 15:57:51 UTC
3229,761027,"Humma, Orisa",,,2022-04-09 15:57:51 UTC,2022-04-09 15:57:51 UTC
3230,761028,"Rambha, Orisa",,,2022-04-09 15:57:51 UTC,2022-04-09 15:57:51 UTC
3231,761033,"Gondala, Orisa",,,2022-04-09 15:57:51 UTC,2022-04-09 15:57:51 UTC
3232,761034,"Mahendragada, Orisa",,,2022-04-09 15:57:51 UTC,2022-04-09 15:57:51 UTC
3233,761036,"Sabulia (Paralakhemundi), Orisa",,,2022-04-09 15:57:51 UTC,2022-04-09 15:57:51 UTC
3234,761038,"Phasi, Orisa",,,2022-04-09 15:57:51 UTC,2022-04-09 15:57:51 UTC
3235,761039,"Kanhaipur, Orisa",,,2022-04-09 15:57:51 UTC,2022-04-09 15:57:51 UTC
3236,761040,"Nuagam Chikiti, Orisa",,,2022-04-09 15:57:51 UTC,2022-04-09 15:57:51 UTC
3237,761041,"Badakharida, Orisa",,,2022-04-09 15:57:51 UTC,2022-04-09 15:57:51 UTC
3238,761043,"Pandia, Orisa",,,2022-04-09 15:57:51 UTC,2022-04-09 15:57:51 UTC
3239,761051,"Narendrapur, Orisa",,,2022-04-09 15:57:51 UTC,2022-04-09 15:57:51 UTC
3240,761052,"Golabandh, Orisa",,,2022-04-09 15:57:51 UTC,2022-04-09 15:57:51 UTC
3241,761053,"Samantipalli, Orisa",,,2022-04-09 15:57:51 UTC,2022-04-09 15:57:51 UTC
3242,761056,"Sahapur, Orisa",,,2022-04-09 15:57:51 UTC,2022-04-09 15:57:51 UTC
3243,761101,"Kanchuru, Orisa",,,2022-04-09 15:57:51 UTC,2022-04-09 15:57:51 UTC
3244,761102,"Hinjilicut, Orisa",,,2022-04-09 15:57:51 UTC,2022-04-09 15:57:51 UTC
3245,761105,"Ranipada, Orisa",,,2022-04-09 15:57:51 UTC,2022-04-09 15:57:51 UTC
3246,761107,"Dharakote, Orisa",,,2022-04-09 15:57:51 UTC,2022-04-09 15:57:51 UTC
3247,761110,"Taluk Office Road Aska, Orisa",,,2022-04-09 15:57:51 UTC,2022-04-09 15:57:51 UTC
3248,761111,"Aska College Square, Orisa",,,2022-04-09 15:57:51 UTC,2022-04-09 15:57:51 UTC
3249,761118,"Badadandasahi, Orisa",,,2022-04-09 15:57:51 UTC,2022-04-09 15:57:51 UTC
3250,761119,"Badadanda Sahi, Orisa",,,2022-04-09 15:57:51 UTC,2022-04-09 15:57:51 UTC
3251,761121,"Jaganathprasad, Orisa",,,2022-04-09 15:57:51 UTC,2022-04-09 15:57:51 UTC
3252,761122,"Nimina, Orisa",,,2022-04-09 15:57:51 UTC,2022-04-09 15:57:51 UTC
3253,761123,"Gangapur, Orisa",,,2022-04-09 15:57:51 UTC,2022-04-09 15:57:51 UTC
3254,761124,"Gobara, Orisa",,,2022-04-09 15:57:51 UTC,2022-04-09 15:57:51 UTC
3255,761125,"Badakodanda, Orisa",,,2022-04-09 15:57:51 UTC,2022-04-09 15:57:51 UTC
3256,761135,"Debabhumi, Orisa",,,2022-04-09 15:57:51 UTC,2022-04-09 15:57:51 UTC
3257,761138,"Tarasinigi, Orisa",,,2022-04-09 15:57:51 UTC,2022-04-09 15:57:51 UTC
3258,761139,"Panchabhuti, Orisa",,,2022-04-09 15:57:51 UTC,2022-04-09 15:57:51 UTC
3259,761140,"Tanarada, Orisa",,,2022-04-09 15:57:51 UTC,2022-04-09 15:57:51 UTC
3260,761141,"Galleri, Orisa",,,2022-04-09 15:57:51 UTC,2022-04-09 15:57:51 UTC
3261,761145,"Raghunathnagar, Orisa",,,2022-04-09 15:57:51 UTC,2022-04-09 15:57:51 UTC
3262,761151,"Asurabandha, Orisa",,,2022-04-09 15:57:51 UTC,2022-04-09 15:57:51 UTC
3263,761201,"Paralakhemundi-2, Orisa",,,2022-04-09 15:57:51 UTC,2022-04-09 15:57:51 UTC
3264,761211,"Upalada, Orisa",,,2022-04-09 15:57:51 UTC,2022-04-09 15:57:51 UTC
3265,761212,"Narayanpur, Orisa",,,2022-04-09 15:57:51 UTC,2022-04-09 15:57:51 UTC
3266,761214,"Nuagada, Orisa",,,2022-04-09 15:57:51 UTC,2022-04-09 15:57:51 UTC
3267,761215,"Garabandha, Orisa",,,2022-04-09 15:57:51 UTC,2022-04-09 15:57:51 UTC
3268,761217,"Odaba, Orisa",,,2022-04-09 15:57:51 UTC,2022-04-09 15:57:51 UTC
3269,762001,"Penjisahi, Orisa",,,2022-04-09 15:57:51 UTC,2022-04-09 15:57:51 UTC
3270,762010,"Tikkabali, Orisa",,,2022-04-09 15:57:51 UTC,2022-04-09 15:57:51 UTC
3271,762011,"Phiringia, Orisa",,,2022-04-09 15:57:51 UTC,2022-04-09 15:57:51 UTC
3272,762014,"Malisahi, Orisa",,,2022-04-09 15:57:51 UTC,2022-04-09 15:57:51 UTC
3273,762016,"Manmunda, Orisa",,,2022-04-09 15:57:51 UTC,2022-04-09 15:57:51 UTC
3274,762017,"Kantamal, Orisa",,,2022-04-09 15:57:51 UTC,2022-04-09 15:57:51 UTC
3275,762018,"Ghantapara, Orisa",,,2022-04-09 15:57:51 UTC,2022-04-09 15:57:51 UTC
3276,762019,"Sankarkhole, Orisa",,,2022-04-09 15:57:51 UTC,2022-04-09 15:57:51 UTC
3277,762021,"Harbhanga, Orisa",,,2022-04-09 15:57:51 UTC,2022-04-09 15:57:51 UTC
3278,762022,"Kalinga, Orisa",,,2022-04-09 15:57:51 UTC,2022-04-09 15:57:51 UTC
3279,762026,"Sarasara, Orisa",,,2022-04-09 15:57:51 UTC,2022-04-09 15:57:51 UTC
3280,762027,"Linepada, Orisa",,,2022-04-09 15:57:51 UTC,2022-04-09 15:57:51 UTC
3281,762028,"Chakapada, Orisa",,,2022-04-09 15:57:51 UTC,2022-04-09 15:57:51 UTC
3282,762030,"Baghiabahal, Orisa",,,2022-04-09 15:57:51 UTC,2022-04-09 15:57:51 UTC
3283,762101,"Raikia, Orisa",,,2022-04-09 15:57:51 UTC,2022-04-09 15:57:51 UTC
3284,762104,"Daringabadi, Orisa",,,2022-04-09 15:57:51 UTC,2022-04-09 15:57:51 UTC
3285,762106,"Sarangada, Orisa",,,2022-04-09 15:57:51 UTC,2022-04-09 15:57:51 UTC
3286,762107,"Tumribandh, Orisa",,,2022-04-09 15:57:51 UTC,2022-04-09 15:57:51 UTC
3287,762111,"Mallikapodi, Orisa",,,2022-04-09 15:57:51 UTC,2022-04-09 15:57:51 UTC
3288,762112,"Paburia, Orisa",,,2022-04-09 15:57:51 UTC,2022-04-09 15:57:51 UTC
3289,763003,"D P Camp Sunabeda-3, Orisa",,,2022-04-09 15:57:51 UTC,2022-04-09 15:57:51 UTC
3290,763008,"Damanjodi, Orisa",,,2022-04-09 15:57:51 UTC,2022-04-09 15:57:51 UTC
3291,764001,"Jeypore (K) Civil Court, Orisa",,,2022-04-09 15:57:51 UTC,2022-04-09 15:57:51 UTC
3292,764002,"Jeypore (K) R S, Orisa",,,2022-04-09 15:57:51 UTC,2022-04-09 15:57:51 UTC
3293,764003,"Jeypore (K)3, Orisa",,,2022-04-09 15:57:51 UTC,2022-04-09 15:57:51 UTC
3294,764004,"Jeypore (K) Irrigation, Orisa",,,2022-04-09 15:57:51 UTC,2022-04-09 15:57:51 UTC
3295,764005,"Jayanagar (Jaypore 5), Orisa",,,2022-04-09 15:57:51 UTC,2022-04-09 15:57:51 UTC
3296,764008,"Taragaon, Orisa",,,2022-04-09 15:57:51 UTC,2022-04-09 15:57:51 UTC
3297,764021,"O M P Line Koraput, Orisa",,,2022-04-09 15:57:51 UTC,2022-04-09 15:57:51 UTC
3298,764037,"Nandapur, Orisa",,,2022-04-09 15:57:51 UTC,2022-04-09 15:57:51 UTC
3299,764038,"Padwa, Orisa",,,2022-04-09 15:57:51 UTC,2022-04-09 15:57:51 UTC
3300,764040,"Machkund, Orisa",,,2022-04-09 15:57:51 UTC,2022-04-09 15:57:51 UTC
3301,764041,"Jalput, Orisa",,,2022-04-09 15:57:51 UTC,2022-04-09 15:57:51 UTC
3302,764042,"Onukadeli, Orisa",,,2022-04-09 15:57:51 UTC,2022-04-09 15:57:51 UTC
3303,764045,"Malkangiri, Orisa",,,2022-04-09 15:57:51 UTC,2022-04-09 15:57:51 UTC
3304,764046,"Panchabati, Orisa",,,2022-04-09 15:57:51 UTC,2022-04-09 15:57:51 UTC
3305,764047,"Kalimela, Orisa",,,2022-04-09 15:57:51 UTC,2022-04-09 15:57:51 UTC
3306,764048,"Malkangiri Colony, Orisa",,,2022-04-09 15:57:51 UTC,2022-04-09 15:57:51 UTC
3307,764049,"Lachipeta, Orisa",,,2022-04-09 15:57:51 UTC,2022-04-09 15:57:51 UTC
3308,764051,"Balimela, Orisa",,,2022-04-09 15:57:51 UTC,2022-04-09 15:57:51 UTC
3309,764052,"Chitrakonda, Orisa",,,2022-04-09 15:57:51 UTC,2022-04-09 15:57:51 UTC
3310,764055,"Ambaguda, Orisa",,,2022-04-09 15:57:51 UTC,2022-04-09 15:57:51 UTC
3311,764059,"Nowrangpur Bazar, Orisa",,,2022-04-09 15:57:52 UTC,2022-04-09 15:57:52 UTC
3312,764069,"Anchalgumma, Orisa",,,2022-04-09 15:57:52 UTC,2022-04-09 15:57:52 UTC
3313,764070,"Tentulikhunti, Orisa",,,2022-04-09 15:57:52 UTC,2022-04-09 15:57:52 UTC
3314,764071,"Papadahandi, Orisa",,,2022-04-09 15:57:52 UTC,2022-04-09 15:57:52 UTC
3315,764072,"Dabugaon, Orisa",,,2022-04-09 15:57:52 UTC,2022-04-09 15:57:52 UTC
3316,764073,"Umerkota, Orisa",,,2022-04-09 15:57:52 UTC,2022-04-09 15:57:52 UTC
3317,764074,"Raighar, Orisa",,,2022-04-09 15:57:52 UTC,2022-04-09 15:57:52 UTC
3318,764077,"Chandahandi, Orisa",,,2022-04-09 15:57:52 UTC,2022-04-09 15:57:52 UTC
3319,764078,"Danganerbheja, Orisa",,,2022-04-09 15:57:52 UTC,2022-04-09 15:57:52 UTC
3320,764081,"Lamptaput, Orisa",,,2022-04-09 15:57:52 UTC,2022-04-09 15:57:52 UTC
3321,764083,"Chattahandi, Orisa",,,2022-04-09 15:57:52 UTC,2022-04-09 15:57:52 UTC
3322,764084,"Hardoli, Orisa",,,2022-04-09 15:57:52 UTC,2022-04-09 15:57:52 UTC
3323,764085,"Indrapur, Orisa",,,2022-04-09 15:57:52 UTC,2022-04-09 15:57:52 UTC
3324,765001,"Gandhi Nagar, Orisa",,,2022-04-09 15:57:52 UTC,2022-04-09 15:57:52 UTC
3325,765013,"Lakhmipur, Orisa",,,2022-04-09 15:57:52 UTC,2022-04-09 15:57:52 UTC
3326,765014,"Narayanpatna, Orisa",,,2022-04-09 15:57:52 UTC,2022-04-09 15:57:52 UTC
3327,765016,"Kalyansinghpur, Orisa",,,2022-04-09 15:57:52 UTC,2022-04-09 15:57:52 UTC
3328,765017,"Jaykaypur Bazar, Orisa",,,2022-04-09 15:57:52 UTC,2022-04-09 15:57:52 UTC
3329,765018,"Therubali, Orisa",,,2022-04-09 15:57:52 UTC,2022-04-09 15:57:52 UTC
3330,765021,"Ambadola, Orisa",,,2022-04-09 15:57:52 UTC,2022-04-09 15:57:52 UTC
3331,765024,"Ukkamba, Orisa",,,2022-04-09 15:57:52 UTC,2022-04-09 15:57:52 UTC
3332,765025,"Padmapur (K), Orisa",,,2022-04-09 15:57:52 UTC,2022-04-09 15:57:52 UTC
3333,765028,"Dasmanthupur, Orisa",,,2022-04-09 15:57:52 UTC,2022-04-09 15:57:52 UTC
3334,765029,"Ramanaguda, Orisa",,,2022-04-09 15:57:52 UTC,2022-04-09 15:57:52 UTC
3335,765030,"Kakirigumma, Orisa",,,2022-04-09 15:57:52 UTC,2022-04-09 15:57:52 UTC
3336,765031,"Jemadeipentha, Orisa",,,2022-04-09 15:57:52 UTC,2022-04-09 15:57:52 UTC
3337,765032,"Naira, Orisa",,,2022-04-09 15:57:52 UTC,2022-04-09 15:57:52 UTC
3338,766001,"Bahadurbagichapara, Orisa",,,2022-04-09 15:57:52 UTC,2022-04-09 15:57:52 UTC
3339,766011,"Utkela, Orisa",,,2022-04-09 15:57:52 UTC,2022-04-09 15:57:52 UTC
3340,766012,"Jagannathpara, Orisa",,,2022-04-09 15:57:52 UTC,2022-04-09 15:57:52 UTC
3341,766013,"Kalampur, Orisa",,,2022-04-09 15:57:52 UTC,2022-04-09 15:57:52 UTC
3342,766015,"Dharamgarh, Orisa",,,2022-04-09 15:57:52 UTC,2022-04-09 15:57:52 UTC
3343,766016,"Deobhog, Orisa",,,2022-04-09 15:57:52 UTC,2022-04-09 15:57:52 UTC
3344,766017,"Charbahal, Orisa",,,2022-04-09 15:57:52 UTC,2022-04-09 15:57:52 UTC
3345,766018,"Jaipatna, Orisa",,,2022-04-09 15:57:52 UTC,2022-04-09 15:57:52 UTC
3346,766021,"Pastikudi, Orisa",,,2022-04-09 15:57:52 UTC,2022-04-09 15:57:52 UTC
3347,766022,"Golamunda, Orisa",,,2022-04-09 15:57:52 UTC,2022-04-09 15:57:52 UTC
3348,766023,"Mahichala, Orisa",,,2022-04-09 15:57:52 UTC,2022-04-09 15:57:52 UTC
3349,766024,"Ladugaon, Orisa",,,2022-04-09 15:57:52 UTC,2022-04-09 15:57:52 UTC
3350,766025,"Kandel, Orisa",,,2022-04-09 15:57:52 UTC,2022-04-09 15:57:52 UTC
3351,766027,"Lanjigarh, Orisa",,,2022-04-09 15:57:52 UTC,2022-04-09 15:57:52 UTC
3352,766028,"Ampani, Orisa",,,2022-04-09 15:57:52 UTC,2022-04-09 15:57:52 UTC
3353,766103,"Parla, Orisa",,,2022-04-09 15:57:52 UTC,2022-04-09 15:57:52 UTC
3354,766105,"Nawapara Tanwat, Orisa",,,2022-04-09 15:57:52 UTC,2022-04-09 15:57:52 UTC
3355,766109,"Amsena, Orisa",,,2022-04-09 15:57:52 UTC,2022-04-09 15:57:52 UTC
3356,766110,"Narla Road, Orisa",,,2022-04-09 15:57:52 UTC,2022-04-09 15:57:52 UTC
3357,766112,"Kandel Road, Orisa",,,2022-04-09 15:57:52 UTC,2022-04-09 15:57:52 UTC
3358,766113,"Tukla, Orisa",,,2022-04-09 15:57:52 UTC,2022-04-09 15:57:52 UTC
3359,766114,"Lakhna, Orisa",,,2022-04-09 15:57:52 UTC,2022-04-09 15:57:52 UTC
3360,767001,"Balangir H O, Orisa",,,2022-04-09 15:57:52 UTC,2022-04-09 15:57:52 UTC
3361,767002,"Rajendra College (Balan2), Orisa",,,2022-04-09 15:57:52 UTC,2022-04-09 15:57:52 UTC
3362,767016,"Tarbha Bazar, Orisa",,,2022-04-09 15:57:52 UTC,2022-04-09 15:57:52 UTC
3363,767017,"Ghodaghat Para, Orisa",,,2022-04-09 15:57:52 UTC,2022-04-09 15:57:52 UTC
3364,767020,"Loisinga, Orisa",,,2022-04-09 15:57:52 UTC,2022-04-09 15:57:52 UTC
3365,767021,"Salebhata, Orisa",,,2022-04-09 15:57:52 UTC,2022-04-09 15:57:52 UTC
3366,767022,"Agalpur, Orisa",,,2022-04-09 15:57:52 UTC,2022-04-09 15:57:52 UTC
3367,767024,"Churapalli, Orisa",,,2022-04-09 15:57:52 UTC,2022-04-09 15:57:52 UTC
3368,767025,"Patnagarh, Orisa",,,2022-04-09 15:57:52 UTC,2022-04-09 15:57:52 UTC
3369,767029,"Deogaon, Orisa",,,2022-04-09 15:57:52 UTC,2022-04-09 15:57:52 UTC
3370,767032,"Saintala, Orisa",,,2022-04-09 15:57:52 UTC,2022-04-09 15:57:52 UTC
3371,767033,"Titilagarh Court, Orisa",,,2022-04-09 15:57:52 UTC,2022-04-09 15:57:52 UTC
3372,767034,"Ullunda, Orisa",,,2022-04-09 15:57:52 UTC,2022-04-09 15:57:52 UTC
3373,767038,"Harisankar Road, Orisa",,,2022-04-09 15:57:52 UTC,2022-04-09 15:57:52 UTC
3374,767039,"Kantabanji, Orisa",,,2022-04-09 15:57:52 UTC,2022-04-09 15:57:52 UTC
3375,767041,"Patnagarh Rampur, Orisa",,,2022-04-09 15:57:52 UTC,2022-04-09 15:57:52 UTC
3376,767043,"Turekella, Orisa",,,2022-04-09 15:57:52 UTC,2022-04-09 15:57:52 UTC
3377,767044,"Maharapadar, Orisa",,,2022-04-09 15:57:52 UTC,2022-04-09 15:57:52 UTC
3378,767049,"Ichhapara, Orisa",,,2022-04-09 15:57:52 UTC,2022-04-09 15:57:52 UTC
3379,767062,"Sabulia (Balangir), Orisa",,,2022-04-09 15:57:52 UTC,2022-04-09 15:57:52 UTC
3380,767065,"Chandanbhati, Orisa",,,2022-04-09 15:57:52 UTC,2022-04-09 15:57:52 UTC
3381,767067,"Jarasinga, Orisa",,,2022-04-09 15:57:52 UTC,2022-04-09 15:57:52 UTC
3382,767068,"Lachhipur, Orisa",,,2022-04-09 15:57:52 UTC,2022-04-09 15:57:52 UTC
3383,768001,"Sakhigopinath, Orisa",,,2022-04-09 15:57:52 UTC,2022-04-09 15:57:52 UTC
3384,768004,"Ainthapali, Orisa",,,2022-04-09 15:57:52 UTC,2022-04-09 15:57:52 UTC
3385,768016,"Hirakud, Orisa",,,2022-04-09 15:57:52 UTC,2022-04-09 15:57:52 UTC
3386,768018,"Engineering College, Orisa",,,2022-04-09 15:57:52 UTC,2022-04-09 15:57:52 UTC
3387,768026,"Chiplima, Orisa",,,2022-04-09 15:57:52 UTC,2022-04-09 15:57:52 UTC
3388,768031,"Ambabhona, Orisa",,,2022-04-09 15:57:52 UTC,2022-04-09 15:57:52 UTC
3389,768034,"Ghess, Orisa",,,2022-04-09 15:57:52 UTC,2022-04-09 15:57:52 UTC
3390,768036,"Rajbersambar, Orisa",,,2022-04-09 15:57:52 UTC,2022-04-09 15:57:52 UTC
3391,768037,"Gaisilet, Orisa",,,2022-04-09 15:57:52 UTC,2022-04-09 15:57:52 UTC
3392,768039,"Paikamal, Orisa",,,2022-04-09 15:57:52 UTC,2022-04-09 15:57:52 UTC
3393,768040,"Tora, Orisa",,,2022-04-09 15:57:52 UTC,2022-04-09 15:57:52 UTC
3394,768044,"Kadobahal, Orisa",,,2022-04-09 15:57:52 UTC,2022-04-09 15:57:52 UTC
3395,768047,"Agalpur, Orisa",,,2022-04-09 15:57:52 UTC,2022-04-09 15:57:52 UTC
3396,768048,"Laumunda, Orisa",,,2022-04-09 15:57:52 UTC,2022-04-09 15:57:52 UTC
3397,768049,"Jamla, Orisa",,,2022-04-09 15:57:52 UTC,2022-04-09 15:57:52 UTC
3398,768050,"Mandosil, Orisa",,,2022-04-09 15:57:52 UTC,2022-04-09 15:57:52 UTC
3399,768051,"Jagadalpur, Orisa",,,2022-04-09 15:57:52 UTC,2022-04-09 15:57:52 UTC
3400,768053,"Lakhanpur, Orisa",,,2022-04-09 15:57:52 UTC,2022-04-09 15:57:52 UTC
3401,768054,"Deogaon, Orisa",,,2022-04-09 15:57:52 UTC,2022-04-09 15:57:52 UTC
3402,768102,"Larambha, Orisa",,,2022-04-09 15:57:52 UTC,2022-04-09 15:57:52 UTC
3403,768106,"Rairakhole, Orisa",,,2022-04-09 15:57:52 UTC,2022-04-09 15:57:52 UTC
3404,768107,"Jamankira, Orisa",,,2022-04-09 15:57:52 UTC,2022-04-09 15:57:52 UTC
3405,768108,"Deogarh, Orisa",,,2022-04-09 15:57:52 UTC,2022-04-09 15:57:52 UTC
3406,768111,"Godbhaga, Orisa",,,2022-04-09 15:57:52 UTC,2022-04-09 15:57:52 UTC
3407,768113,"Dhama, Orisa",,,2022-04-09 15:57:52 UTC,2022-04-09 15:57:52 UTC
3408,768114,"Gogua, Orisa",,,2022-04-09 15:57:52 UTC,2022-04-09 15:57:52 UTC
3409,768115,"Gondturum, Orisa",,,2022-04-09 15:57:52 UTC,2022-04-09 15:57:52 UTC
3410,768116,"Malatigunderpur, Orisa",,,2022-04-09 15:57:52 UTC,2022-04-09 15:57:52 UTC
3411,768117,"Charmal, Orisa",,,2022-04-09 15:57:52 UTC,2022-04-09 15:57:52 UTC
3412,768118,"Naktideul, Orisa",,,2022-04-09 15:57:52 UTC,2022-04-09 15:57:52 UTC
3413,768120,"Maneswar, Orisa",,,2022-04-09 15:57:52 UTC,2022-04-09 15:57:52 UTC
3414,768121,"Gohira Damsite, Orisa",,,2022-04-09 15:57:52 UTC,2022-04-09 15:57:52 UTC
3415,768151,"R R I Garmunda, Orisa",,,2022-04-09 15:57:52 UTC,2022-04-09 15:57:52 UTC
3416,768201,"Sarbahal, Orisa",,,2022-04-09 15:57:52 UTC,2022-04-09 15:57:52 UTC
3417,768203,"Kalimandir Road (Jharsu-3, Orisa",,,2022-04-09 15:57:52 UTC,2022-04-09 15:57:52 UTC
3418,768204,"O M P Line (Jharsuguda-4), Orisa",,,2022-04-09 15:57:52 UTC,2022-04-09 15:57:52 UTC
3419,768205,"Industrial Estate Jharsuguda, Orisa",,,2022-04-09 15:57:52 UTC,2022-04-09 15:57:52 UTC
3420,768211,"Talpatia, Orisa",,,2022-04-09 15:57:52 UTC,2022-04-09 15:57:52 UTC
3421,768214,"Loida, Orisa",,,2022-04-09 15:57:52 UTC,2022-04-09 15:57:52 UTC
3422,768215,"Laikera, Orisa",,,2022-04-09 15:57:52 UTC,2022-04-09 15:57:52 UTC
3423,768219,"Ainlapada, Orisa",,,2022-04-09 15:57:52 UTC,2022-04-09 15:57:52 UTC
3424,768220,"Bagdehi, Orisa",,,2022-04-09 15:57:52 UTC,2022-04-09 15:57:52 UTC
3425,768224,"Garposh, Orisa",,,2022-04-09 15:57:52 UTC,2022-04-09 15:57:52 UTC
3426,768225,"Rampur Colliery, Orisa",,,2022-04-09 15:57:52 UTC,2022-04-09 15:57:52 UTC
3427,768226,"Panchagaon, Orisa",,,2022-04-09 15:57:52 UTC,2022-04-09 15:57:52 UTC
3428,768229,"Rajpur, Orisa",,,2022-04-09 15:57:52 UTC,2022-04-09 15:57:52 UTC
3429,768230,"Lamptibahal, Orisa",,,2022-04-09 15:57:52 UTC,2022-04-09 15:57:52 UTC
3430,768231,"Mahulpalli, Orisa",,,2022-04-09 15:57:52 UTC,2022-04-09 15:57:52 UTC
3431,768232,"Lapanga, Orisa",,,2022-04-09 15:57:52 UTC,2022-04-09 15:57:52 UTC
3432,769001,"Main Road, Orisa",,,2022-04-09 15:57:52 UTC,2022-04-09 15:57:52 UTC
3433,769004,"Panposh, Orisa",,,2022-04-09 15:57:52 UTC,2022-04-09 15:57:52 UTC
3434,769008,"Jagada, Orisa",,,2022-04-09 15:57:52 UTC,2022-04-09 15:57:52 UTC
3435,769010,"O M P Line (Rourkela-10), Orisa",,,2022-04-09 15:57:52 UTC,2022-04-09 15:57:52 UTC
3436,769012,"Uditnagar (Rourkela-12), Orisa",,,2022-04-09 15:57:52 UTC,2022-04-09 15:57:52 UTC
3437,769013,"Railway Colony (Rourkela1, Orisa",,,2022-04-09 15:57:52 UTC,2022-04-09 15:57:52 UTC
3438,769014,"Saktinagar (Rourkela-14), Orisa",,,2022-04-09 15:57:52 UTC,2022-04-09 15:57:52 UTC
3439,769015,"Quairry Siding Panposh, Orisa",,,2022-04-09 15:57:52 UTC,2022-04-09 15:57:52 UTC
3440,769041,"Vedvyas, Orisa",,,2022-04-09 15:57:52 UTC,2022-04-09 15:57:52 UTC
3441,769043,"Jalda, Orisa",,,2022-04-09 15:57:52 UTC,2022-04-09 15:57:52 UTC
3442,770001,"Dengibhadi, Orisa",,,2022-04-09 15:57:52 UTC,2022-04-09 15:57:52 UTC
3443,770002,"Rangadhipa (Sundargarh-2), Orisa",,,2022-04-09 15:57:52 UTC,2022-04-09 15:57:52 UTC
3444,770011,"Ujaplur, Orisa",,,2022-04-09 15:57:52 UTC,2022-04-09 15:57:52 UTC
3445,770012,"Lephripara, Orisa",,,2022-04-09 15:57:52 UTC,2022-04-09 15:57:52 UTC
3446,770013,"Hemgir, Orisa",,,2022-04-09 15:57:52 UTC,2022-04-09 15:57:52 UTC
3447,770017,"Rajgangpur, Orisa",,,2022-04-09 15:57:52 UTC,2022-04-09 15:57:52 UTC
3448,770020,"Sankara, Orisa",,,2022-04-09 15:57:52 UTC,2022-04-09 15:57:52 UTC
3449,770021,"Sargipalli, Orisa",,,2022-04-09 15:57:52 UTC,2022-04-09 15:57:52 UTC
3450,770023,"Lanjiberna, Orisa",,,2022-04-09 15:57:52 UTC,2022-04-09 15:57:52 UTC
3451,770027,"Tangarpali, Orisa",,,2022-04-09 15:57:52 UTC,2022-04-09 15:57:52 UTC
3452,770029,"Raidihi, Orisa",,,2022-04-09 15:57:52 UTC,2022-04-09 15:57:52 UTC
3453,770031,"Turmura, Orisa",,,2022-04-09 15:57:52 UTC,2022-04-09 15:57:52 UTC
3454,770032,"Loco Colony, Orisa",,,2022-04-09 15:57:52 UTC,2022-04-09 15:57:52 UTC
3455,770033,"C T D Bureau, Orisa",,,2022-04-09 15:57:52 UTC,2022-04-09 15:57:52 UTC
3456,770034,"Kansbahal, Orisa",,,2022-04-09 15:57:52 UTC,2022-04-09 15:57:52 UTC
3457,770037,"Lathikata, Orisa",,,2022-04-09 15:57:52 UTC,2022-04-09 15:57:52 UTC
3458,770040,"Lahunipara, Orisa",,,2022-04-09 15:57:52 UTC,2022-04-09 15:57:52 UTC
3459,770042,"Tensa, Orisa",,,2022-04-09 15:57:52 UTC,2022-04-09 15:57:52 UTC
3460,770045,"Sarasara Balang, Orisa",,,2022-04-09 15:57:52 UTC,2022-04-09 15:57:52 UTC
3461,770047,"Hatibari (Rourkela), Orisa",,,2022-04-09 15:57:52 UTC,2022-04-09 15:57:52 UTC
3462,770049,"Kamarposh Balang, Orisa",,,2022-04-09 15:57:52 UTC,2022-04-09 15:57:52 UTC
3463,770050,"Nuagan (Rkl), Orisa",,,2022-04-09 15:57:52 UTC,2022-04-09 15:57:52 UTC
3464,770052,"Kalta, Orisa",,,2022-04-09 15:57:52 UTC,2022-04-09 15:57:52 UTC
3465,770071,"Industrial Estate, Orisa",,,2022-04-09 15:57:52 UTC,2022-04-09 15:57:52 UTC
3466,770072,"Zink Nagar, Orisa",,,2022-04-09 15:57:52 UTC,2022-04-09 15:57:52 UTC
3467,770074,"Talsara, Orisa",,,2022-04-09 15:57:52 UTC,2022-04-09 15:57:52 UTC
3468,770075,"Hemgir Road, Orisa",,,2022-04-09 15:57:52 UTC,2022-04-09 15:57:52 UTC
3469,770076,"Sahajbahal, Orisa",,,2022-04-09 15:57:52 UTC,2022-04-09 15:57:52 UTC
3470,781001,"Fancy Bazar, Assam",,,2022-04-09 15:57:52 UTC,2022-04-09 15:57:52 UTC
3471,781003,"Chenikuthi, Assam",,,2022-04-09 15:57:52 UTC,2022-04-09 15:57:52 UTC
3472,781004,"Kharguli, Assam",,,2022-04-09 15:57:52 UTC,2022-04-09 15:57:52 UTC
3473,781005,"Dispur, Assam",,,2022-04-09 15:57:52 UTC,2022-04-09 15:57:52 UTC
3474,781006,"Assam Sachivalaya, Assam",,,2022-04-09 15:57:52 UTC,2022-04-09 15:57:52 UTC
3475,781008,"Rehabari (Gh), Assam",,,2022-04-09 15:57:52 UTC,2022-04-09 15:57:52 UTC
3476,781010,"Kamakhya, Assam",,,2022-04-09 15:57:52 UTC,2022-04-09 15:57:52 UTC
3477,781011,"Maligaon Rly Hd Qrs, Assam",,,2022-04-09 15:57:52 UTC,2022-04-09 15:57:52 UTC
3478,781012,"Pandu, Assam",,,2022-04-09 15:57:52 UTC,2022-04-09 15:57:52 UTC
3479,781013,"Jhalukbari, Assam",,,2022-04-09 15:57:52 UTC,2022-04-09 15:57:52 UTC
3480,781014,"Guwahati University H O, Assam",,,2022-04-09 15:57:52 UTC,2022-04-09 15:57:52 UTC
3481,781015,"Guwahati Airport, Assam",,,2022-04-09 15:57:52 UTC,2022-04-09 15:57:52 UTC
3482,781016,"Gopinath Nagar, Assam",,,2022-04-09 15:57:52 UTC,2022-04-09 15:57:52 UTC
3483,781017,"Azara, Assam",,,2022-04-09 15:57:52 UTC,2022-04-09 15:57:52 UTC
3484,781019,"Kahilipara, Assam",,,2022-04-09 15:57:52 UTC,2022-04-09 15:57:52 UTC
3485,781020,"Noonmati, Assam",,,2022-04-09 15:57:52 UTC,2022-04-09 15:57:52 UTC
3486,781021,"Bamunimaidan, Assam",,,2022-04-09 15:57:52 UTC,2022-04-09 15:57:52 UTC
3487,781022,"Khanapara, Assam",,,2022-04-09 15:57:52 UTC,2022-04-09 15:57:52 UTC
3488,781023,"Amerigog, Assam",,,2022-04-09 15:57:52 UTC,2022-04-09 15:57:52 UTC
3489,781025,"Ambasi Fatesil, Assam",,,2022-04-09 15:57:52 UTC,2022-04-09 15:57:52 UTC
3490,781026,"Narangi, Assam",,,2022-04-09 15:57:52 UTC,2022-04-09 15:57:52 UTC
3491,781027,"Satgaon, Assam",,,2022-04-09 15:57:52 UTC,2022-04-09 15:57:52 UTC
3492,781030,"North Guwahati, Assam",,,2022-04-09 15:57:52 UTC,2022-04-09 15:57:52 UTC
3493,781031,"Amingaon, Assam",,,2022-04-09 15:57:52 UTC,2022-04-09 15:57:52 UTC
3494,781037,"Panjabari, Assam",,,2022-04-09 15:57:52 UTC,2022-04-09 15:57:52 UTC
3495,781101,"Changsari, Assam",,,2022-04-09 15:57:52 UTC,2022-04-09 15:57:52 UTC
3496,781102,"Hajo, Assam",,,2022-04-09 15:57:52 UTC,2022-04-09 15:57:52 UTC
3497,781103,"Soalkuchi, Assam",,,2022-04-09 15:57:52 UTC,2022-04-09 15:57:52 UTC
3498,781120,"Barduar, Assam",,,2022-04-09 15:57:52 UTC,2022-04-09 15:57:52 UTC
3499,781124,"Chhaygaon, Assam",,,2022-04-09 15:57:52 UTC,2022-04-09 15:57:52 UTC
3500,781125,"Mirza, Assam",,,2022-04-09 15:57:52 UTC,2022-04-09 15:57:52 UTC
3501,781126,"Mukalmua, Assam",,,2022-04-09 15:57:52 UTC,2022-04-09 15:57:52 UTC
3502,781127,"Nagarbera, Assam",,,2022-04-09 15:57:52 UTC,2022-04-09 15:57:52 UTC
3503,781128,"Palasbari, Assam",,,2022-04-09 15:57:52 UTC,2022-04-09 15:57:52 UTC
3504,781129,"Hahim Bazar, Assam",,,2022-04-09 15:57:52 UTC,2022-04-09 15:57:52 UTC
3505,781130,"Amranga, Assam",,,2022-04-09 15:57:52 UTC,2022-04-09 15:57:52 UTC
3506,781131,"Rani, Assam",,,2022-04-09 15:57:52 UTC,2022-04-09 15:57:52 UTC
3507,781132,"Rampur, Assam",,,2022-04-09 15:57:52 UTC,2022-04-09 15:57:52 UTC
3508,781133,"Dharapur, Assam",,,2022-04-09 15:57:52 UTC,2022-04-09 15:57:52 UTC
3509,781135,"Singra, Assam",,,2022-04-09 15:57:52 UTC,2022-04-09 15:57:52 UTC
3510,781136,"Paschimsamaria, Assam",,,2022-04-09 15:57:52 UTC,2022-04-09 15:57:52 UTC
3511,781150,"Chandrapur, Assam",,,2022-04-09 15:57:52 UTC,2022-04-09 15:57:52 UTC
3512,781171,"Maukhuli, Assam",,,2022-04-09 15:57:52 UTC,2022-04-09 15:57:52 UTC
3513,781301,"Barpeta H O, Assam",,,2022-04-09 15:57:52 UTC,2022-04-09 15:57:52 UTC
3514,781302,"Baharihat, Assam",,,2022-04-09 15:57:52 UTC,2022-04-09 15:57:52 UTC
3515,781303,"Banagram, Assam",,,2022-04-09 15:57:52 UTC,2022-04-09 15:57:52 UTC
3516,781304,"Belsore, Assam",,,2022-04-09 15:57:52 UTC,2022-04-09 15:57:52 UTC
3517,781305,"Chenga, Assam",,,2022-04-09 15:57:52 UTC,2022-04-09 15:57:52 UTC
3518,781306,"Chamata, Assam",,,2022-04-09 15:57:52 UTC,2022-04-09 15:57:52 UTC
3519,781307,"Sarthebari, Assam",,,2022-04-09 15:57:52 UTC,2022-04-09 15:57:52 UTC
3520,781310,"Jagara, Assam",,,2022-04-09 15:57:52 UTC,2022-04-09 15:57:52 UTC
3521,781314,"Santinagar, Assam",,,2022-04-09 15:57:52 UTC,2022-04-09 15:57:52 UTC
3522,781315,"Barpeta Road, Assam",,,2022-04-09 15:57:52 UTC,2022-04-09 15:57:52 UTC
3523,781316,"Howli, Assam",,,2022-04-09 15:57:52 UTC,2022-04-09 15:57:52 UTC
3524,781317,"Sorbhog, Assam",,,2022-04-09 15:57:52 UTC,2022-04-09 15:57:52 UTC
3525,781318,"Sarupeta, Assam",,,2022-04-09 15:57:52 UTC,2022-04-09 15:57:52 UTC
3526,781319,"Kalgachia, Assam",,,2022-04-09 15:57:52 UTC,2022-04-09 15:57:52 UTC
3527,781320,"Chakchaki Bazar, Assam",,,2022-04-09 15:57:52 UTC,2022-04-09 15:57:52 UTC
3528,781321,"Mainbari, Assam",,,2022-04-09 15:57:52 UTC,2022-04-09 15:57:52 UTC
3529,781325,"Pathsala, Assam",,,2022-04-09 15:57:53 UTC,2022-04-09 15:57:53 UTC
3530,781326,"Patacharkuchi, Assam",,,2022-04-09 15:57:53 UTC,2022-04-09 15:57:53 UTC
3531,781327,"Jalaghat, Assam",,,2022-04-09 15:57:53 UTC,2022-04-09 15:57:53 UTC
3532,781328,"Bagmara Bazar, Assam",,,2022-04-09 15:57:53 UTC,2022-04-09 15:57:53 UTC
3533,781329,"Nityananda, Assam",,,2022-04-09 15:57:53 UTC,2022-04-09 15:57:53 UTC
3534,781330,"Kakilabari Farm, Assam",,,2022-04-09 15:57:53 UTC,2022-04-09 15:57:53 UTC
3535,781335,"Nalbari H O, Assam",,,2022-04-09 15:57:53 UTC,2022-04-09 15:57:53 UTC
3536,781336,"Chandkuchi, Assam",,,2022-04-09 15:57:53 UTC,2022-04-09 15:57:53 UTC
3537,781337,"Milonpur, Assam",,,2022-04-09 15:57:53 UTC,2022-04-09 15:57:53 UTC
3538,781338,"Solmara, Assam",,,2022-04-09 15:57:53 UTC,2022-04-09 15:57:53 UTC
3539,781345,"Balilessa, Assam",,,2022-04-09 15:57:53 UTC,2022-04-09 15:57:53 UTC
3540,781346,"Barama, Assam",,,2022-04-09 15:57:53 UTC,2022-04-09 15:57:53 UTC
3541,781347,"Kamarkuchi, Assam",,,2022-04-09 15:57:53 UTC,2022-04-09 15:57:53 UTC
3542,781348,"Morowa, Assam",,,2022-04-09 15:57:53 UTC,2022-04-09 15:57:53 UTC
3543,781349,"Nizdhamdhama, Assam",,,2022-04-09 15:57:53 UTC,2022-04-09 15:57:53 UTC
3544,781350,"Sanekuchi, Assam",,,2022-04-09 15:57:53 UTC,2022-04-09 15:57:53 UTC
3545,781351,"Kalag, Assam",,,2022-04-09 15:57:53 UTC,2022-04-09 15:57:53 UTC
3546,781353,"Gopal Bazar, Assam",,,2022-04-09 15:57:53 UTC,2022-04-09 15:57:53 UTC
3547,781354,"Rangia, Assam",,,2022-04-09 15:57:53 UTC,2022-04-09 15:57:53 UTC
3548,781364,"Maharipara, Assam",,,2022-04-09 15:57:53 UTC,2022-04-09 15:57:53 UTC
3549,781365,"Rangia R S, Assam",,,2022-04-09 15:57:53 UTC,2022-04-09 15:57:53 UTC
3550,781366,"Gores War, Assam",,,2022-04-09 15:57:53 UTC,2022-04-09 15:57:53 UTC
3551,781367,"Tambulpur, Assam",,,2022-04-09 15:57:53 UTC,2022-04-09 15:57:53 UTC
3552,781368,"Nagrijuli, Assam",,,2022-04-09 15:57:53 UTC,2022-04-09 15:57:53 UTC
3553,781369,"Gograpar, Assam",,,2022-04-09 15:57:53 UTC,2022-04-09 15:57:53 UTC
3554,781370,"Kaithalkuchi, Assam",,,2022-04-09 15:57:53 UTC,2022-04-09 15:57:53 UTC
3555,781371,"Tihu, Assam",,,2022-04-09 15:57:53 UTC,2022-04-09 15:57:53 UTC
3556,781372,"Mussalpur, Assam",,,2022-04-09 15:57:53 UTC,2022-04-09 15:57:53 UTC
3557,781373,"Doomni, Assam",,,2022-04-09 15:57:53 UTC,2022-04-09 15:57:53 UTC
3558,781374,"Makhibaha, Assam",,,2022-04-09 15:57:53 UTC,2022-04-09 15:57:53 UTC
3559,781375,"Bangaon, Assam",,,2022-04-09 15:57:53 UTC,2022-04-09 15:57:53 UTC
3560,781376,"Darkuchi, Assam",,,2022-04-09 15:57:53 UTC,2022-04-09 15:57:53 UTC
3561,781377,"Thamana, Assam",,,2022-04-09 15:57:53 UTC,2022-04-09 15:57:53 UTC
3562,781378,"Haribhanga, Assam",,,2022-04-09 15:57:53 UTC,2022-04-09 15:57:53 UTC
3563,781380,"Balhata, Assam",,,2022-04-09 15:57:53 UTC,2022-04-09 15:57:53 UTC
3564,781381,"Baihata Charali, Assam",,,2022-04-09 15:57:53 UTC,2022-04-09 15:57:53 UTC
3565,781382,"Karara, Assam",,,2022-04-09 15:57:53 UTC,2022-04-09 15:57:53 UTC
3566,781385,"Kaniha, Assam",,,2022-04-09 15:57:53 UTC,2022-04-09 15:57:53 UTC
3567,782001,"Nowgong H O, Assam",,,2022-04-09 15:57:53 UTC,2022-04-09 15:57:53 UTC
3568,782002,"Haibargaon, Assam",,,2022-04-09 15:57:53 UTC,2022-04-09 15:57:53 UTC
3569,782010,"Senchowa, Assam",,,2022-04-09 15:57:53 UTC,2022-04-09 15:57:53 UTC
3570,782101,"Nanoi, Assam",,,2022-04-09 15:57:53 UTC,2022-04-09 15:57:53 UTC
3571,782103,"Raha, Assam",,,2022-04-09 15:57:53 UTC,2022-04-09 15:57:53 UTC
3572,782104,"Jaluguti, Assam",,,2022-04-09 15:57:53 UTC,2022-04-09 15:57:53 UTC
3573,782105,"Marigaon, Assam",,,2022-04-09 15:57:53 UTC,2022-04-09 15:57:53 UTC
3574,782107,"Barapujia, Assam",,,2022-04-09 15:57:53 UTC,2022-04-09 15:57:53 UTC
3575,782108,"Mikirbheta, Assam",,,2022-04-09 15:57:53 UTC,2022-04-09 15:57:53 UTC
3576,782120,"Ambagan, Assam",,,2022-04-09 15:57:53 UTC,2022-04-09 15:57:53 UTC
3577,782122,"Batadrava, Assam",,,2022-04-09 15:57:53 UTC,2022-04-09 15:57:53 UTC
3578,782123,"Dhing, Assam",,,2022-04-09 15:57:53 UTC,2022-04-09 15:57:53 UTC
3579,782124,"Juria, Assam",,,2022-04-09 15:57:53 UTC,2022-04-09 15:57:53 UTC
3580,782125,"Rupahi, Assam",,,2022-04-09 15:57:53 UTC,2022-04-09 15:57:53 UTC
3581,782126,"Moirabari, Assam",,,2022-04-09 15:57:53 UTC,2022-04-09 15:57:53 UTC
3582,782127,"Lahorighat, Assam",,,2022-04-09 15:57:53 UTC,2022-04-09 15:57:53 UTC
3583,782130,"Singimari, Assam",,,2022-04-09 15:57:53 UTC,2022-04-09 15:57:53 UTC
3584,782135,"Chapanalla, Assam",,,2022-04-09 15:57:53 UTC,2022-04-09 15:57:53 UTC
3585,782136,"Jakhalbandha, Assam",,,2022-04-09 15:57:53 UTC,2022-04-09 15:57:53 UTC
3586,782138,"Missa, Assam",,,2022-04-09 15:57:53 UTC,2022-04-09 15:57:53 UTC
3587,782139,"Salana, Assam",,,2022-04-09 15:57:53 UTC,2022-04-09 15:57:53 UTC
3588,782140,"Samaguri, Assam",,,2022-04-09 15:57:53 UTC,2022-04-09 15:57:53 UTC
3589,782141,"Puranigudam, Assam",,,2022-04-09 15:57:53 UTC,2022-04-09 15:57:53 UTC
3590,782142,"Bebejia, Assam",,,2022-04-09 15:57:53 UTC,2022-04-09 15:57:53 UTC
3591,782143,"Silghat, Assam",,,2022-04-09 15:57:53 UTC,2022-04-09 15:57:53 UTC
3592,782401,"Digaru, Assam",,,2022-04-09 15:57:53 UTC,2022-04-09 15:57:53 UTC
3593,782403,"Khetri, Assam",,,2022-04-09 15:57:53 UTC,2022-04-09 15:57:53 UTC
3594,782410,"Jagi Road, Assam",,,2022-04-09 15:57:53 UTC,2022-04-09 15:57:53 UTC
3595,782411,"Jagibhakatagon, Assam",,,2022-04-09 15:57:53 UTC,2022-04-09 15:57:53 UTC
3596,782412,"Dharamtul, Assam",,,2022-04-09 15:57:53 UTC,2022-04-09 15:57:53 UTC
3597,782425,"Chaparmukh, Assam",,,2022-04-09 15:57:53 UTC,2022-04-09 15:57:53 UTC
3598,782426,"Kampur, Assam",,,2022-04-09 15:57:53 UTC,2022-04-09 15:57:53 UTC
3599,782427,"Kathiatali, Assam",,,2022-04-09 15:57:53 UTC,2022-04-09 15:57:53 UTC
3600,782428,"Jamunamukh, Assam",,,2022-04-09 15:57:53 UTC,2022-04-09 15:57:53 UTC
3601,782435,"Hojai Bazar, Assam",,,2022-04-09 15:57:53 UTC,2022-04-09 15:57:53 UTC
3602,782439,"Murajar Bazar, Assam",,,2022-04-09 15:57:53 UTC,2022-04-09 15:57:53 UTC
3603,782440,"Daboka, Assam",,,2022-04-09 15:57:53 UTC,2022-04-09 15:57:53 UTC
3604,782445,"Nilbagan, Assam",,,2022-04-09 15:57:53 UTC,2022-04-09 15:57:53 UTC
3605,782446,"Lanka, Assam",,,2022-04-09 15:57:53 UTC,2022-04-09 15:57:53 UTC
3606,782447,"Lumding, Assam",,,2022-04-09 15:57:53 UTC,2022-04-09 15:57:53 UTC
3607,782448,"Kheroni, Assam",,,2022-04-09 15:57:53 UTC,2022-04-09 15:57:53 UTC
3608,782450,"Baithalangshu, Assam",,,2022-04-09 15:57:53 UTC,2022-04-09 15:57:53 UTC
3609,782460,"Diphu, Assam",,,2022-04-09 15:57:53 UTC,2022-04-09 15:57:53 UTC
3610,782461,"Manja, Assam",,,2022-04-09 15:57:53 UTC,2022-04-09 15:57:53 UTC
3611,782470,"Dhansiripar, Assam",,,2022-04-09 15:57:53 UTC,2022-04-09 15:57:53 UTC
3612,782475,"Chokihola, Assam",,,2022-04-09 15:57:53 UTC,2022-04-09 15:57:53 UTC
3613,782481,"Howraghat, Assam",,,2022-04-09 15:57:53 UTC,2022-04-09 15:57:53 UTC
3614,782482,"Bakoliaghat, Assam",,,2022-04-09 15:57:53 UTC,2022-04-09 15:57:53 UTC
3615,782485,"Donkamukam, Assam",,,2022-04-09 15:57:53 UTC,2022-04-09 15:57:53 UTC
3616,782486,"Hamren, Assam",,,2022-04-09 15:57:53 UTC,2022-04-09 15:57:53 UTC
3617,783101,"Goalpara, Assam",,,2022-04-09 15:57:53 UTC,2022-04-09 15:57:53 UTC
3618,783120,"Agia, Assam",,,2022-04-09 15:57:53 UTC,2022-04-09 15:57:53 UTC
3619,783121,"Baladmari, Assam",,,2022-04-09 15:57:53 UTC,2022-04-09 15:57:53 UTC
3620,783122,"Damru, Assam",,,2022-04-09 15:57:53 UTC,2022-04-09 15:57:53 UTC
3621,783123,"Dhupdhara, Assam",,,2022-04-09 15:57:53 UTC,2022-04-09 15:57:53 UTC
3622,783124,"Dudnai, Assam",,,2022-04-09 15:57:53 UTC,2022-04-09 15:57:53 UTC
3623,783125,"Matia, Assam",,,2022-04-09 15:57:53 UTC,2022-04-09 15:57:53 UTC
3624,783127,"Salmara South, Assam",,,2022-04-09 15:57:53 UTC,2022-04-09 15:57:53 UTC
3625,783129,"Lakhipur Goalpara, Assam",,,2022-04-09 15:57:53 UTC,2022-04-09 15:57:53 UTC
3626,783130,"Rongjuli, Assam",,,2022-04-09 15:57:53 UTC,2022-04-09 15:57:53 UTC
3627,783131,"Mankachar, Assam",,,2022-04-09 15:57:53 UTC,2022-04-09 15:57:53 UTC
3628,783132,"Jaleswar, Assam",,,2022-04-09 15:57:53 UTC,2022-04-09 15:57:53 UTC
3629,783133,"Rajapara, Assam",,,2022-04-09 15:57:53 UTC,2022-04-09 15:57:53 UTC
3630,783134,"Darrangiri, Assam",,,2022-04-09 15:57:53 UTC,2022-04-09 15:57:53 UTC
3631,783301,"Dhubri H O, Assam",,,2022-04-09 15:57:53 UTC,2022-04-09 15:57:53 UTC
3632,783325,"Dharamsala, Assam",,,2022-04-09 15:57:53 UTC,2022-04-09 15:57:53 UTC
3633,783330,"Fakirganj, Assam",,,2022-04-09 15:57:53 UTC,2022-04-09 15:57:53 UTC
3634,783331,"Gouri Pur, Assam",,,2022-04-09 15:57:53 UTC,2022-04-09 15:57:53 UTC
3635,783332,"Tamarhat, Assam",,,2022-04-09 15:57:53 UTC,2022-04-09 15:57:53 UTC
3636,783333,"Dingdinga, Assam",,,2022-04-09 15:57:53 UTC,2022-04-09 15:57:53 UTC
3637,783334,"Golakganj, Assam",,,2022-04-09 15:57:53 UTC,2022-04-09 15:57:53 UTC
3638,783335,"Agamani, Assam",,,2022-04-09 15:57:53 UTC,2022-04-09 15:57:53 UTC
3639,783337,"Sapatgram, Assam",,,2022-04-09 15:57:53 UTC,2022-04-09 15:57:53 UTC
3640,783338,"Satrasal, Assam",,,2022-04-09 15:57:53 UTC,2022-04-09 15:57:53 UTC
3641,783339,"Alamganj, Assam",,,2022-04-09 15:57:53 UTC,2022-04-09 15:57:53 UTC
3642,783344,"Hospital Road Raniganj, Assam",,,2022-04-09 15:57:53 UTC,2022-04-09 15:57:53 UTC
3643,783345,"Fakiragram, Assam",,,2022-04-09 15:57:53 UTC,2022-04-09 15:57:53 UTC
3644,783346,"Sarfanguri, Assam",,,2022-04-09 15:57:53 UTC,2022-04-09 15:57:53 UTC
3645,783347,"Datma, Assam",,,2022-04-09 15:57:53 UTC,2022-04-09 15:57:53 UTC
3646,783350,"Kachugaon, Assam",,,2022-04-09 15:57:53 UTC,2022-04-09 15:57:53 UTC
3647,783351,"Lakhiganj Bazar, Assam",,,2022-04-09 15:57:53 UTC,2022-04-09 15:57:53 UTC
3648,783360,"Gossain Gaon, Assam",,,2022-04-09 15:57:53 UTC,2022-04-09 15:57:53 UTC
3649,783361,"Srirampur, Assam",,,2022-04-09 15:57:53 UTC,2022-04-09 15:57:53 UTC
3650,783362,"Garuphela Bazar, Assam",,,2022-04-09 15:57:53 UTC,2022-04-09 15:57:53 UTC
3651,783371,"Chapar, Assam",,,2022-04-09 15:57:53 UTC,2022-04-09 15:57:53 UTC
3652,783372,"Basugaon, Assam",,,2022-04-09 15:57:53 UTC,2022-04-09 15:57:53 UTC
3653,783373,"Sidli, Assam",,,2022-04-09 15:57:53 UTC,2022-04-09 15:57:53 UTC
3654,783374,"Titagur, Assam",,,2022-04-09 15:57:53 UTC,2022-04-09 15:57:53 UTC
3655,783381,"New Bongaigaon, Assam",,,2022-04-09 15:57:53 UTC,2022-04-09 15:57:53 UTC
3656,783382,"Jogighopa, Assam",,,2022-04-09 15:57:53 UTC,2022-04-09 15:57:53 UTC
3657,783383,"Salmara North, Assam",,,2022-04-09 15:57:53 UTC,2022-04-09 15:57:53 UTC
3658,783384,"Abhayapuri, Assam",,,2022-04-09 15:57:53 UTC,2022-04-09 15:57:53 UTC
3659,783385,"Dhaligaon, Assam",,,2022-04-09 15:57:53 UTC,2022-04-09 15:57:53 UTC
3660,783386,"Barghola Srijangram, Assam",,,2022-04-09 15:57:53 UTC,2022-04-09 15:57:53 UTC
3661,783387,"Barabazar, Assam",,,2022-04-09 15:57:53 UTC,2022-04-09 15:57:53 UTC
3662,783388,"Ashok Paper Mills, Assam",,,2022-04-09 15:57:53 UTC,2022-04-09 15:57:53 UTC
3663,783391,"Patiladah, Assam",,,2022-04-09 15:57:53 UTC,2022-04-09 15:57:53 UTC
3664,783392,"Manikpur, Assam",,,2022-04-09 15:57:53 UTC,2022-04-09 15:57:53 UTC
3665,784001,"Sonitpur, Assam",,,2022-04-09 15:57:53 UTC,2022-04-09 15:57:53 UTC
3666,784025,"Panchmile, Assam",,,2022-04-09 15:57:53 UTC,2022-04-09 15:57:53 UTC
3667,784101,"Balipara, Assam",,,2022-04-09 15:57:53 UTC,2022-04-09 15:57:53 UTC
3668,784102,"Lokra, Assam",,,2022-04-09 15:57:53 UTC,2022-04-09 15:57:53 UTC
3669,784103,"Charduar, Assam",,,2022-04-09 15:57:53 UTC,2022-04-09 15:57:53 UTC
3670,784104,"Salonibari, Assam",,,2022-04-09 15:57:53 UTC,2022-04-09 15:57:53 UTC
3671,784110,"Dhekiajuli, Assam",,,2022-04-09 15:57:53 UTC,2022-04-09 15:57:53 UTC
3672,784111,"Darrangpanbari, Assam",,,2022-04-09 15:57:53 UTC,2022-04-09 15:57:53 UTC
3673,784112,"Alisinga, Assam",,,2022-04-09 15:57:53 UTC,2022-04-09 15:57:53 UTC
3674,784115,"Kharupatiaghat, Assam",,,2022-04-09 15:57:53 UTC,2022-04-09 15:57:53 UTC
3675,784116,"Dalgaon, Assam",,,2022-04-09 15:57:53 UTC,2022-04-09 15:57:53 UTC
3676,784117,"Sirajuli, Assam",,,2022-04-09 15:57:53 UTC,2022-04-09 15:57:53 UTC
3677,784118,"Barsola, Assam",,,2022-04-09 15:57:53 UTC,2022-04-09 15:57:53 UTC
3678,784119,"Batasipur, Assam",,,2022-04-09 15:57:53 UTC,2022-04-09 15:57:53 UTC
3679,784120,"Singri, Assam",,,2022-04-09 15:57:53 UTC,2022-04-09 15:57:53 UTC
3680,784125,"Mangaldai H O, Assam",,,2022-04-09 15:57:53 UTC,2022-04-09 15:57:53 UTC
3681,784144,"Patharighat, Assam",,,2022-04-09 15:57:53 UTC,2022-04-09 15:57:53 UTC
3682,784145,"Sipajhar, Assam",,,2022-04-09 15:57:53 UTC,2022-04-09 15:57:53 UTC
3683,784147,"Deomarnai, Assam",,,2022-04-09 15:57:53 UTC,2022-04-09 15:57:53 UTC
3684,784149,"Thelamara, Assam",,,2022-04-09 15:57:53 UTC,2022-04-09 15:57:53 UTC
3685,784151,"Bandarmari, Assam",,,2022-04-09 15:57:53 UTC,2022-04-09 15:57:53 UTC
3686,784152,"Khelmati, Assam",,,2022-04-09 15:57:53 UTC,2022-04-09 15:57:53 UTC
3687,784154,"Ketekibari, Assam",,,2022-04-09 15:57:53 UTC,2022-04-09 15:57:53 UTC
3688,784160,"Laluk, Assam",,,2022-04-09 15:57:53 UTC,2022-04-09 15:57:53 UTC
3689,784162,"Badati, Assam",,,2022-04-09 15:57:53 UTC,2022-04-09 15:57:53 UTC
3690,784163,"Pathalipahar, Assam",,,2022-04-09 15:57:53 UTC,2022-04-09 15:57:53 UTC
3691,784164,"Dikrong, Assam",,,2022-04-09 15:57:53 UTC,2022-04-09 15:57:53 UTC
3692,784165,"Dholepur, Assam",,,2022-04-09 15:57:53 UTC,2022-04-09 15:57:53 UTC
3693,784166,"Behali, Assam",,,2022-04-09 15:57:53 UTC,2022-04-09 15:57:53 UTC
3694,784167,"North Bongaigaon Borgong, Assam",,,2022-04-09 15:57:53 UTC,2022-04-09 15:57:53 UTC
3695,784168,"Gohpur, Assam",,,2022-04-09 15:57:53 UTC,2022-04-09 15:57:53 UTC
3696,784170,"Halem, Assam",,,2022-04-09 15:57:53 UTC,2022-04-09 15:57:53 UTC
3697,784171,"Tetonbari, Assam",,,2022-04-09 15:57:53 UTC,2022-04-09 15:57:53 UTC
3698,784172,"Barangabari, Assam",,,2022-04-09 15:57:53 UTC,2022-04-09 15:57:53 UTC
3699,784173,"Mijikajan, Assam",,,2022-04-09 15:57:53 UTC,2022-04-09 15:57:53 UTC
3700,784174,"Paboi, Assam",,,2022-04-09 15:57:53 UTC,2022-04-09 15:57:53 UTC
3701,784175,"Sootea, Assam",,,2022-04-09 15:57:53 UTC,2022-04-09 15:57:53 UTC
3702,784176,"Charali, Assam",,,2022-04-09 15:57:53 UTC,2022-04-09 15:57:53 UTC
3703,784178,"Kalabari, Assam",,,2022-04-09 15:57:53 UTC,2022-04-09 15:57:53 UTC
3704,784179,"Bedeti, Assam",,,2022-04-09 15:57:53 UTC,2022-04-09 15:57:53 UTC
3705,784180,"Jamugurihat, Assam",,,2022-04-09 15:57:53 UTC,2022-04-09 15:57:53 UTC
3706,784181,"Bakola, Assam",,,2022-04-09 15:57:53 UTC,2022-04-09 15:57:53 UTC
3707,784182,"Naharbari, Assam",,,2022-04-09 15:57:53 UTC,2022-04-09 15:57:53 UTC
3708,784183,"Nagsankar, Assam",,,2022-04-09 15:57:53 UTC,2022-04-09 15:57:53 UTC
3709,784184,"Gingia, Assam",,,2022-04-09 15:57:53 UTC,2022-04-09 15:57:53 UTC
3710,784185,"Rangachakua, Assam",,,2022-04-09 15:57:53 UTC,2022-04-09 15:57:53 UTC
3711,784189,"Karsontala, Assam",,,2022-04-09 15:57:53 UTC,2022-04-09 15:57:53 UTC
3712,784503,"Thakurbari, Assam",,,2022-04-09 15:57:53 UTC,2022-04-09 15:57:53 UTC
3713,784504,"Barjuli, Assam",,,2022-04-09 15:57:53 UTC,2022-04-09 15:57:53 UTC
3714,784505,"Rangapara, Assam",,,2022-04-09 15:57:53 UTC,2022-04-09 15:57:53 UTC
3715,784506,"Missamari, Assam",,,2022-04-09 15:57:53 UTC,2022-04-09 15:57:53 UTC
3716,784507,"Mazbat, Assam",,,2022-04-09 15:57:53 UTC,2022-04-09 15:57:53 UTC
3717,784508,"Rowta, Assam",,,2022-04-09 15:57:53 UTC,2022-04-09 15:57:53 UTC
3718,784509,"Udalguri, Assam",,,2022-04-09 15:57:53 UTC,2022-04-09 15:57:53 UTC
3719,784510,"Harisinga, Assam",,,2022-04-09 15:57:53 UTC,2022-04-09 15:57:53 UTC
3720,784514,"Lalpur Bazar, Assam",,,2022-04-09 15:57:53 UTC,2022-04-09 15:57:53 UTC
3721,784521,"Tangla, Assam",,,2022-04-09 15:57:53 UTC,2022-04-09 15:57:53 UTC
3722,784522,"Khoirabari, Assam",,,2022-04-09 15:57:53 UTC,2022-04-09 15:57:53 UTC
3723,784523,"Panerihat, Assam",,,2022-04-09 15:57:53 UTC,2022-04-09 15:57:53 UTC
3724,784524,"Hatigarh, Assam",,,2022-04-09 15:57:53 UTC,2022-04-09 15:57:53 UTC
3725,784525,"Kalaigaon, Assam",,,2022-04-09 15:57:53 UTC,2022-04-09 15:57:53 UTC
3726,784526,"Dimakuchi, Assam",,,2022-04-09 15:57:53 UTC,2022-04-09 15:57:53 UTC
3727,784527,"Atterikhat, Assam",,,2022-04-09 15:57:53 UTC,2022-04-09 15:57:53 UTC
3728,785001,"Tarajan, Assam",,,2022-04-09 15:57:53 UTC,2022-04-09 15:57:53 UTC
3729,785004,"Barbheta, Assam",,,2022-04-09 15:57:53 UTC,2022-04-09 15:57:53 UTC
3730,785005,"Jorhat Air Field, Assam",,,2022-04-09 15:57:53 UTC,2022-04-09 15:57:53 UTC
3731,785006,"Jorhat Research Laborator, Assam",,,2022-04-09 15:57:53 UTC,2022-04-09 15:57:53 UTC
3732,785007,"Jorhat Engineering Colleg, Assam",,,2022-04-09 15:57:53 UTC,2022-04-09 15:57:53 UTC
3733,785008,"Chinnamara, Assam",,,2022-04-09 15:57:53 UTC,2022-04-09 15:57:53 UTC
3734,785009,"No-Ali Dhekiajuli, Assam",,,2022-04-09 15:57:53 UTC,2022-04-09 15:57:53 UTC
3735,785010,"Chengligaon, Assam",,,2022-04-09 15:57:53 UTC,2022-04-09 15:57:53 UTC
3736,785011,"Konwaripukhuri, Arunachal Pradesh",,,2022-04-09 15:57:53 UTC,2022-04-09 15:57:53 UTC
3737,785013,"Assam Agricultural Unver, Assam",,,2022-04-09 15:57:53 UTC,2022-04-09 15:57:53 UTC
3738,785014,"Rajabari, Assam",,,2022-04-09 15:57:53 UTC,2022-04-09 15:57:53 UTC
3739,785015,"Korokatoli, Arunachal Pradesh",,,2022-04-09 15:57:53 UTC,2022-04-09 15:57:53 UTC
3740,785101,"Bahana, Assam",,,2022-04-09 15:57:53 UTC,2022-04-09 15:57:53 UTC
3741,785102,"Dakhinpatsatra, Assam",,,2022-04-09 15:57:53 UTC,2022-04-09 15:57:53 UTC
3742,785103,"Fulanibari, Assam",,,2022-04-09 15:57:53 UTC,2022-04-09 15:57:53 UTC
3743,785104,"Garmursatra, Assam",,,2022-04-09 15:57:53 UTC,2022-04-09 15:57:53 UTC
3744,785105,"Jengraimukh, Assam",,,2022-04-09 15:57:53 UTC,2022-04-09 15:57:53 UTC
3745,785106,"Kamalabari, Assam",,,2022-04-09 15:57:53 UTC,2022-04-09 15:57:53 UTC
3746,785107,"Kakajan, Assam",,,2022-04-09 15:57:53 UTC,2022-04-09 15:57:53 UTC
3747,785108,"Kokilamukh, Assam",,,2022-04-09 15:57:53 UTC,2022-04-09 15:57:53 UTC
3748,785109,"Kaziranga Sanctuary, Assam",,,2022-04-09 15:57:53 UTC,2022-04-09 15:57:53 UTC
3749,785110,"Majulibangaon, Assam",,,2022-04-09 15:57:53 UTC,2022-04-09 15:57:53 UTC
3750,785111,"Neamatighat, Assam",,,2022-04-09 15:57:54 UTC,2022-04-09 15:57:54 UTC
3751,785112,"Teok, Assam",,,2022-04-09 15:57:54 UTC,2022-04-09 15:57:54 UTC
3752,785113,"Dhekiakhowa, Assam",,,2022-04-09 15:57:54 UTC,2022-04-09 15:57:54 UTC
3753,785601,"Sarupathar, Assam",,,2022-04-09 15:57:54 UTC,2022-04-09 15:57:54 UTC
3754,785602,"Barpathar, Assam",,,2022-04-09 15:57:54 UTC,2022-04-09 15:57:54 UTC
3755,785603,"Oating, Assam",,,2022-04-09 15:57:54 UTC,2022-04-09 15:57:54 UTC
3756,785604,"Naojan, Assam",,,2022-04-09 15:57:54 UTC,2022-04-09 15:57:54 UTC
3757,785610,"Furkating, Assam",,,2022-04-09 15:57:54 UTC,2022-04-09 15:57:54 UTC
3758,785611,"Bedlipar, Assam",,,2022-04-09 15:57:54 UTC,2022-04-09 15:57:54 UTC
3759,785613,"Letekujan, Assam",,,2022-04-09 15:57:54 UTC,2022-04-09 15:57:54 UTC
3760,785614,"Dergaon Charali, Assam",,,2022-04-09 15:57:54 UTC,2022-04-09 15:57:54 UTC
3761,785615,"Numaligarh, Assam",,,2022-04-09 15:57:54 UTC,2022-04-09 15:57:54 UTC
3762,785616,"Gatonga, Assam",,,2022-04-09 15:57:54 UTC,2022-04-09 15:57:54 UTC
3763,785617,"Dohatia, Assam",,,2022-04-09 15:57:54 UTC,2022-04-09 15:57:54 UTC
3764,785618,"Baruabamungaon, Assam",,,2022-04-09 15:57:54 UTC,2022-04-09 15:57:54 UTC
3765,785619,"Kamargaon Charali, Assam",,,2022-04-09 15:57:54 UTC,2022-04-09 15:57:54 UTC
3766,785620,"Negheriting, Assam",,,2022-04-09 15:57:54 UTC,2022-04-09 15:57:54 UTC
3767,785621,"Golaghat, Assam",,,2022-04-09 15:57:54 UTC,2022-04-09 15:57:54 UTC
3768,785622,"Dhekhial, Assam",,,2022-04-09 15:57:54 UTC,2022-04-09 15:57:54 UTC
3769,785625,"Kamarbandha Ali, Assam",,,2022-04-09 15:57:54 UTC,2022-04-09 15:57:54 UTC
3770,785626,"Moheema, Assam",,,2022-04-09 15:57:54 UTC,2022-04-09 15:57:54 UTC
3771,785630,"Titabar, Assam",,,2022-04-09 15:57:54 UTC,2022-04-09 15:57:54 UTC
3772,785631,"Barhalla, Assam",,,2022-04-09 15:57:54 UTC,2022-04-09 15:57:54 UTC
3773,785632,"Puranaitambar, Assam",,,2022-04-09 15:57:54 UTC,2022-04-09 15:57:54 UTC
3774,785633,"Kharikatia, Assam",,,2022-04-09 15:57:54 UTC,2022-04-09 15:57:54 UTC
3775,785634,"Mariani, Assam",,,2022-04-09 15:57:54 UTC,2022-04-09 15:57:54 UTC
3776,785635,"Nakachari, Assam",,,2022-04-09 15:57:54 UTC,2022-04-09 15:57:54 UTC
3777,785636,"Selenghat, Assam",,,2022-04-09 15:57:54 UTC,2022-04-09 15:57:54 UTC
3778,785640,"Sibsagar H O, Assam",,,2022-04-09 15:57:54 UTC,2022-04-09 15:57:54 UTC
3779,785661,"Charing, Assam",,,2022-04-09 15:57:54 UTC,2022-04-09 15:57:54 UTC
3780,785662,"Demow, Assam",,,2022-04-09 15:57:54 UTC,2022-04-09 15:57:54 UTC
3781,785663,"Desangmukh, Assam",,,2022-04-09 15:57:54 UTC,2022-04-09 15:57:54 UTC
3782,785664,"Gauri Sagar, Assam",,,2022-04-09 15:57:54 UTC,2022-04-09 15:57:54 UTC
3783,785665,"Joynagar, Assam",,,2022-04-09 15:57:54 UTC,2022-04-09 15:57:54 UTC
3784,785666,"Kaloogaon, Assam",,,2022-04-09 15:57:54 UTC,2022-04-09 15:57:54 UTC
3785,785668,"Mechagarh, Assam",,,2022-04-09 15:57:54 UTC,2022-04-09 15:57:54 UTC
3786,785669,"Moran, Assam",,,2022-04-09 15:57:54 UTC,2022-04-09 15:57:54 UTC
3787,785670,"Moranhat, Assam",,,2022-04-09 15:57:54 UTC,2022-04-09 15:57:54 UTC
3788,785671,"Netaipukhuri, Assam",,,2022-04-09 15:57:54 UTC,2022-04-09 15:57:54 UTC
3789,785672,"Rajmai, Assam",,,2022-04-09 15:57:54 UTC,2022-04-09 15:57:54 UTC
3790,785673,"Sepon, Assam",,,2022-04-09 15:57:54 UTC,2022-04-09 15:57:54 UTC
3791,785674,"Nemuguri, Assam",,,2022-04-09 15:57:54 UTC,2022-04-09 15:57:54 UTC
3792,785675,"Khowang, Arunachal Pradesh",,,2022-04-09 15:57:54 UTC,2022-04-09 15:57:54 UTC
3793,785676,"Khowangghat, Arunachal Pradesh",,,2022-04-09 15:57:54 UTC,2022-04-09 15:57:54 UTC
3794,785680,"Amguri, Assam",,,2022-04-09 15:57:54 UTC,2022-04-09 15:57:54 UTC
3795,785681,"Amguri Haloating, Assam",,,2022-04-09 15:57:54 UTC,2022-04-09 15:57:54 UTC
3796,785682,"Tamulichiga, Assam",,,2022-04-09 15:57:54 UTC,2022-04-09 15:57:54 UTC
3797,785683,"Jhanji, Assam",,,2022-04-09 15:57:54 UTC,2022-04-09 15:57:54 UTC
3798,785684,"Namtidol, Assam",,,2022-04-09 15:57:54 UTC,2022-04-09 15:57:54 UTC
3799,785685,"Nazira, Assam",,,2022-04-09 15:57:54 UTC,2022-04-09 15:57:54 UTC
3800,785686,"Simaluguri, Assam",,,2022-04-09 15:57:54 UTC,2022-04-09 15:57:54 UTC
3801,785687,"Santak, Assam",,,2022-04-09 15:57:54 UTC,2022-04-09 15:57:54 UTC
3802,785688,"Lakwah, Assam",,,2022-04-09 15:57:54 UTC,2022-04-09 15:57:54 UTC
3803,785689,"Suffry, Assam",,,2022-04-09 15:57:54 UTC,2022-04-09 15:57:54 UTC
3804,785690,"Sonari, Assam",,,2022-04-09 15:57:54 UTC,2022-04-09 15:57:54 UTC
3805,785692,"Sapekhati, Assam",,,2022-04-09 15:57:54 UTC,2022-04-09 15:57:54 UTC
3806,785694,"Teokghat, Assam",,,2022-04-09 15:57:54 UTC,2022-04-09 15:57:54 UTC
3807,785695,"Towkok, Assam",,,2022-04-09 15:57:54 UTC,2022-04-09 15:57:54 UTC
3808,785696,"Galeki, Assam",,,2022-04-09 15:57:54 UTC,2022-04-09 15:57:54 UTC
3809,785701,"Hahchara, Arunachal Pradesh",,,2022-04-09 15:57:54 UTC,2022-04-09 15:57:54 UTC
3810,786001,"Dibrugarh H O, Arunachal Pradesh",,,2022-04-09 15:57:54 UTC,2022-04-09 15:57:54 UTC
3811,786002,"Assam Medical College, Arunachal Pradesh",,,2022-04-09 15:57:54 UTC,2022-04-09 15:57:54 UTC
3812,786003,"Revenue Building, Arunachal Pradesh",,,2022-04-09 15:57:54 UTC,2022-04-09 15:57:54 UTC
3813,786004,"Dibrugarh University, Arunachal Pradesh",,,2022-04-09 15:57:54 UTC,2022-04-09 15:57:54 UTC
3814,786005,"Jalan Nagar, Arunachal Pradesh",,,2022-04-09 15:57:54 UTC,2022-04-09 15:57:54 UTC
3815,786007,"Barbarua, Arunachal Pradesh",,,2022-04-09 15:57:54 UTC,2022-04-09 15:57:54 UTC
3816,786008,"Mohanaghat, Arunachal Pradesh",,,2022-04-09 15:57:54 UTC,2022-04-09 15:57:54 UTC
3817,786010,"Lahoal, Arunachal Pradesh",,,2022-04-09 15:57:54 UTC,2022-04-09 15:57:54 UTC
3818,786012,"Mohanbari Air Field, Arunachal Pradesh",,,2022-04-09 15:57:54 UTC,2022-04-09 15:57:54 UTC
3819,786052,"Tinthengia, Arunachal Pradesh",,,2022-04-09 15:57:54 UTC,2022-04-09 15:57:54 UTC
3820,786053,"Kotona, Arunachal Pradesh",,,2022-04-09 15:57:54 UTC,2022-04-09 15:57:54 UTC
3821,786054,"Lezai, Arunachal Pradesh",,,2022-04-09 15:57:54 UTC,2022-04-09 15:57:54 UTC
3822,786101,"Dikom, Arunachal Pradesh",,,2022-04-09 15:57:54 UTC,2022-04-09 15:57:54 UTC
3823,786102,"Chabua Air Field, Arunachal Pradesh",,,2022-04-09 15:57:54 UTC,2022-04-09 15:57:54 UTC
3824,786103,"Tengakhat, Assam",,,2022-04-09 15:57:54 UTC,2022-04-09 15:57:54 UTC
3825,786110,"Sissibargaon, Assam",,,2022-04-09 15:57:54 UTC,2022-04-09 15:57:54 UTC
3826,786125,"Parbatia, Arunachal Pradesh",,,2022-04-09 15:57:54 UTC,2022-04-09 15:57:54 UTC
3827,786145,"Sripuria, Arunachal Pradesh",,,2022-04-09 15:57:54 UTC,2022-04-09 15:57:54 UTC
3828,786146,"Sukhanpukhuri, Arunachal Pradesh",,,2022-04-09 15:57:54 UTC,2022-04-09 15:57:54 UTC
3829,786147,"Rangagorah, Arunachal Pradesh",,,2022-04-09 15:57:54 UTC,2022-04-09 15:57:54 UTC
3830,786148,"Mankhooli, Arunachal Pradesh",,,2022-04-09 15:57:54 UTC,2022-04-09 15:57:54 UTC
3831,786150,"Barhapjan, Arunachal Pradesh",,,2022-04-09 15:57:54 UTC,2022-04-09 15:57:54 UTC
3832,786151,"Netaji Road, Arunachal Pradesh",,,2022-04-09 15:57:54 UTC,2022-04-09 15:57:54 UTC
3833,786152,"Kakapathar, Arunachal Pradesh",,,2022-04-09 15:57:54 UTC,2022-04-09 15:57:54 UTC
3834,786153,"Rupai Siding, Arunachal Pradesh",,,2022-04-09 15:57:54 UTC,2022-04-09 15:57:54 UTC
3835,786154,"Saikhowaghat, Arunachal Pradesh",,,2022-04-09 15:57:54 UTC,2022-04-09 15:57:54 UTC
3836,786155,"Sadiya, Arunachal Pradesh",,,2022-04-09 15:57:54 UTC,2022-04-09 15:57:54 UTC
3837,786157,"Chapakhowa, Arunachal Pradesh",,,2022-04-09 15:57:54 UTC,2022-04-09 15:57:54 UTC
3838,786158,"Kundil, Arunachal Pradesh",,,2022-04-09 15:57:54 UTC,2022-04-09 15:57:54 UTC
3839,786159,"Talap, Arunachal Pradesh",,,2022-04-09 15:57:54 UTC,2022-04-09 15:57:54 UTC
3840,786170,"Makum Junction, Arunachal Pradesh",,,2022-04-09 15:57:54 UTC,2022-04-09 15:57:54 UTC
3841,786171,"Digboi, Arunachal Pradesh",,,2022-04-09 15:57:54 UTC,2022-04-09 15:57:54 UTC
3842,786172,"Powai, Arunachal Pradesh",,,2022-04-09 15:57:54 UTC,2022-04-09 15:57:54 UTC
3843,786173,"Jubilee Digboi, Arunachal Pradesh",,,2022-04-09 15:57:54 UTC,2022-04-09 15:57:54 UTC
3844,786180,"Lekhapani, Arunachal Pradesh",,,2022-04-09 15:57:54 UTC,2022-04-09 15:57:54 UTC
3845,786181,"Margherita, Arunachal Pradesh",,,2022-04-09 15:57:54 UTC,2022-04-09 15:57:54 UTC
3846,786182,"Ledo, Arunachal Pradesh",,,2022-04-09 15:57:54 UTC,2022-04-09 15:57:54 UTC
3847,786183,"Panitola, Arunachal Pradesh",,,2022-04-09 15:57:54 UTC,2022-04-09 15:57:54 UTC
3848,786184,"Chabua, Arunachal Pradesh",,,2022-04-09 15:57:54 UTC,2022-04-09 15:57:54 UTC
3849,786185,"Dinjan, Arunachal Pradesh",,,2022-04-09 15:57:54 UTC,2022-04-09 15:57:54 UTC
3850,786186,"Hatibandha, Assam",,,2022-04-09 15:57:54 UTC,2022-04-09 15:57:54 UTC
3851,786601,"Hoogrijan, Arunachal Pradesh",,,2022-04-09 15:57:54 UTC,2022-04-09 15:57:54 UTC
3852,786602,"Duliajan, Arunachal Pradesh",,,2022-04-09 15:57:54 UTC,2022-04-09 15:57:54 UTC
3853,786610,"Naharkatia, Arunachal Pradesh",,,2022-04-09 15:57:54 UTC,2022-04-09 15:57:54 UTC
3854,786611,"Rajgarh, Arunachal Pradesh",,,2022-04-09 15:57:54 UTC,2022-04-09 15:57:54 UTC
3855,786612,"Tingkong, Arunachal Pradesh",,,2022-04-09 15:57:54 UTC,2022-04-09 15:57:54 UTC
3856,786613,"Bamunbari, Arunachal Pradesh",,,2022-04-09 15:57:54 UTC,2022-04-09 15:57:54 UTC
3857,786614,"Jeypore, Arunachal Pradesh",,,2022-04-09 15:57:54 UTC,2022-04-09 15:57:54 UTC
3858,786615,"Kowarigaon, Arunachal Pradesh",,,2022-04-09 15:57:54 UTC,2022-04-09 15:57:54 UTC
3859,786616,"Lengri Bazar, Arunachal Pradesh",,,2022-04-09 15:57:54 UTC,2022-04-09 15:57:54 UTC
3860,786621,"Namrup, Arunachal Pradesh",,,2022-04-09 15:57:54 UTC,2022-04-09 15:57:54 UTC
3861,786622,"Namrup T P S, Arunachal Pradesh",,,2022-04-09 15:57:54 UTC,2022-04-09 15:57:54 UTC
3862,786623,"Parbatpur, Arunachal Pradesh",,,2022-04-09 15:57:54 UTC,2022-04-09 15:57:54 UTC
3863,786624,"Barbam, Arunachal Pradesh",,,2022-04-09 15:57:54 UTC,2022-04-09 15:57:54 UTC
3864,786630,"Khonsa, Arunachal Pradesh",,,2022-04-09 15:57:54 UTC,2022-04-09 15:57:54 UTC
3865,786631,"Longding, Arunachal Pradesh",,,2022-04-09 15:57:54 UTC,2022-04-09 15:57:54 UTC
3866,787001,"North Lakhimpur H O, Assam",,,2022-04-09 15:57:54 UTC,2022-04-09 15:57:54 UTC
3867,787029,"Moinapara, Assam",,,2022-04-09 15:57:54 UTC,2022-04-09 15:57:54 UTC
3868,787030,"Baginadi, Assam",,,2022-04-09 15:57:54 UTC,2022-04-09 15:57:54 UTC
3869,787032,"Maidamia, Assam",,,2022-04-09 15:57:54 UTC,2022-04-09 15:57:54 UTC
3870,787051,"Lilabari Air Field, Assam",,,2022-04-09 15:57:54 UTC,2022-04-09 15:57:54 UTC
3871,787052,"Panigaon, Assam",,,2022-04-09 15:57:54 UTC,2022-04-09 15:57:54 UTC
3872,787053,"Ghilamara, Assam",,,2022-04-09 15:57:54 UTC,2022-04-09 15:57:54 UTC
3873,787054,"Islamgaon, Assam",,,2022-04-09 15:57:54 UTC,2022-04-09 15:57:54 UTC
3874,787055,"Dhakuakhana, Assam",,,2022-04-09 15:57:54 UTC,2022-04-09 15:57:54 UTC
3875,787056,"Pathalipam, Assam",,,2022-04-09 15:57:54 UTC,2022-04-09 15:57:54 UTC
3876,787057,"Dhemaji, Assam",,,2022-04-09 15:57:54 UTC,2022-04-09 15:57:54 UTC
3877,787058,"Machkhowa, Assam",,,2022-04-09 15:57:54 UTC,2022-04-09 15:57:54 UTC
3878,787059,"Silapathar, Assam",,,2022-04-09 15:57:54 UTC,2022-04-09 15:57:54 UTC
3879,787060,"Jonai, Assam",,,2022-04-09 15:57:54 UTC,2022-04-09 15:57:54 UTC
3880,788001,"Dewanji Bazar, Assam",,,2022-04-09 15:57:54 UTC,2022-04-09 15:57:54 UTC
3881,788002,"Malugram, Assam",,,2022-04-09 15:57:54 UTC,2022-04-09 15:57:54 UTC
3882,788003,"Tarapur, Assam",,,2022-04-09 15:57:54 UTC,2022-04-09 15:57:54 UTC
3883,788004,"Gurucharan College, Assam",,,2022-04-09 15:57:54 UTC,2022-04-09 15:57:54 UTC
3884,788005,"Rangirkhari, Assam",,,2022-04-09 15:57:54 UTC,2022-04-09 15:57:54 UTC
3885,788006,"Link Road, Assam",,,2022-04-09 15:57:54 UTC,2022-04-09 15:57:54 UTC
3886,788007,"Vivekananda Road, Assam",,,2022-04-09 15:57:54 UTC,2022-04-09 15:57:54 UTC
3887,788009,"Rongpur, Assam",,,2022-04-09 15:57:54 UTC,2022-04-09 15:57:54 UTC
3888,788010,"Engineering College, Assam",,,2022-04-09 15:57:54 UTC,2022-04-09 15:57:54 UTC
3889,788011,"Kanakpur, Assam",,,2022-04-09 15:57:54 UTC,2022-04-09 15:57:54 UTC
3890,788013,"Sonabarighat, Assam",,,2022-04-09 15:57:54 UTC,2022-04-09 15:57:54 UTC
3891,788014,"Silchar Regional, Assam",,,2022-04-09 15:57:54 UTC,2022-04-09 15:57:54 UTC
3892,788015,"Meherpur, Assam",,,2022-04-09 15:57:54 UTC,2022-04-09 15:57:54 UTC
3893,788019,"Barkhola, Assam",,,2022-04-09 15:57:54 UTC,2022-04-09 15:57:54 UTC
3894,788025,"Arunachal, Assam",,,2022-04-09 15:57:54 UTC,2022-04-09 15:57:54 UTC
3895,788030,"Udarbond, Assam",,,2022-04-09 15:57:54 UTC,2022-04-09 15:57:54 UTC
3896,788098,"Pailapool, Assam",,,2022-04-09 15:57:54 UTC,2022-04-09 15:57:54 UTC
3897,788099,"Matinagar, Assam",,,2022-04-09 15:57:54 UTC,2022-04-09 15:57:54 UTC
3898,788101,"Bankandi, Assam",,,2022-04-09 15:57:54 UTC,2022-04-09 15:57:54 UTC
3899,788102,"Dewan, Assam",,,2022-04-09 15:57:54 UTC,2022-04-09 15:57:54 UTC
3900,788103,"Lakhipur (Cachar), Assam",,,2022-04-09 15:57:54 UTC,2022-04-09 15:57:54 UTC
3901,788104,"Jirighat, Assam",,,2022-04-09 15:57:54 UTC,2022-04-09 15:57:54 UTC
3902,788106,"Fulertal, Assam",,,2022-04-09 15:57:54 UTC,2022-04-09 15:57:54 UTC
3903,788107,"Joypur Raja Bazar, Assam",,,2022-04-09 15:57:54 UTC,2022-04-09 15:57:54 UTC
3904,788111,"Dalu, Assam",,,2022-04-09 15:57:54 UTC,2022-04-09 15:57:54 UTC
3905,788112,"Derby, Assam",,,2022-04-09 15:57:54 UTC,2022-04-09 15:57:54 UTC
3906,788113,"Dwarband, Assam",,,2022-04-09 15:57:54 UTC,2022-04-09 15:57:54 UTC
3907,788114,"Dholai Bazar, Assam",,,2022-04-09 15:57:54 UTC,2022-04-09 15:57:54 UTC
3908,788115,"Narsingpur, Assam",,,2022-04-09 15:57:54 UTC,2022-04-09 15:57:54 UTC
3909,788116,"Palonghat, Assam",,,2022-04-09 15:57:54 UTC,2022-04-09 15:57:54 UTC
3910,788117,"Rosekandi, Assam",,,2022-04-09 15:57:54 UTC,2022-04-09 15:57:54 UTC
3911,788119,"Sonaimukh, Assam",,,2022-04-09 15:57:54 UTC,2022-04-09 15:57:54 UTC
3912,788121,"Kabuganjbazar, Assam",,,2022-04-09 15:57:54 UTC,2022-04-09 15:57:54 UTC
3913,788122,"Manierkhal, Assam",,,2022-04-09 15:57:54 UTC,2022-04-09 15:57:54 UTC
3914,788123,"Bekirpar, Assam",,,2022-04-09 15:57:54 UTC,2022-04-09 15:57:54 UTC
3915,788124,"Irongmara, Assam",,,2022-04-09 15:57:54 UTC,2022-04-09 15:57:54 UTC
3916,788125,"Laboc, Assam",,,2022-04-09 15:57:54 UTC,2022-04-09 15:57:54 UTC
3917,788145,"Chiparsangam, Assam",,,2022-04-09 15:57:54 UTC,2022-04-09 15:57:54 UTC
3918,788150,"Kalibari Bazar, Assam",,,2022-04-09 15:57:54 UTC,2022-04-09 15:57:54 UTC
3919,788151,"Hailakandi, Assam",,,2022-04-09 15:57:54 UTC,2022-04-09 15:57:54 UTC
3920,788152,"Lakshmishahar, Assam",,,2022-04-09 15:57:54 UTC,2022-04-09 15:57:54 UTC
3921,788155,"Ratanpur Road, Assam",,,2022-04-09 15:57:54 UTC,2022-04-09 15:57:54 UTC
3922,788156,"Anilgarh, Assam",,,2022-04-09 15:57:54 UTC,2022-04-09 15:57:54 UTC
3923,788160,"Jaffirband, Assam",,,2022-04-09 15:57:54 UTC,2022-04-09 15:57:54 UTC
3924,788161,"Katlacherra, Assam",,,2022-04-09 15:57:54 UTC,2022-04-09 15:57:54 UTC
3925,788163,"Lala, Assam",,,2022-04-09 15:57:54 UTC,2022-04-09 15:57:54 UTC
3926,788164,"Monacherra, Assam",,,2022-04-09 15:57:54 UTC,2022-04-09 15:57:54 UTC
3927,788165,"Manipurbagan, Assam",,,2022-04-09 15:57:54 UTC,2022-04-09 15:57:54 UTC
3928,788166,"Ramkrishnanagar, Assam",,,2022-04-09 15:57:54 UTC,2022-04-09 15:57:54 UTC
3929,788167,"Vernerpur, Assam",,,2022-04-09 15:57:54 UTC,2022-04-09 15:57:54 UTC
3930,788169,"Lalamukh, Assam",,,2022-04-09 15:57:54 UTC,2022-04-09 15:57:54 UTC
3931,788702,"Srigauri, Assam",,,2022-04-09 15:57:54 UTC,2022-04-09 15:57:54 UTC
3932,788705,"Rajartilla, Assam",,,2022-04-09 15:57:54 UTC,2022-04-09 15:57:54 UTC
3933,788706,"Mahakhal, Assam",,,2022-04-09 15:57:54 UTC,2022-04-09 15:57:54 UTC
3934,788708,"Chargola Bazar, Assam",,,2022-04-09 15:57:54 UTC,2022-04-09 15:57:54 UTC
3935,788710,"Char Bazar, Assam",,,2022-04-09 15:57:54 UTC,2022-04-09 15:57:54 UTC
3936,788711,"Karimganj Bazar, Assam",,,2022-04-09 15:57:54 UTC,2022-04-09 15:57:54 UTC
3937,788716,"Sadarasi, Assam",,,2022-04-09 15:57:54 UTC,2022-04-09 15:57:54 UTC
3938,788719,"Kayasthagram, Assam",,,2022-04-09 15:57:54 UTC,2022-04-09 15:57:54 UTC
3939,788720,"Kaliganj Bazar, Assam",,,2022-04-09 15:57:54 UTC,2022-04-09 15:57:54 UTC
3940,788721,"Latu, Assam",,,2022-04-09 15:57:54 UTC,2022-04-09 15:57:54 UTC
3941,788722,"Nilambazar, Assam",,,2022-04-09 15:57:54 UTC,2022-04-09 15:57:54 UTC
3942,788723,"Baroigram, Assam",,,2022-04-09 15:57:54 UTC,2022-04-09 15:57:54 UTC
3943,788724,"Patherkandi, Assam",,,2022-04-09 15:57:54 UTC,2022-04-09 15:57:54 UTC
3944,788725,"Chandkhira, Assam",,,2022-04-09 15:57:54 UTC,2022-04-09 15:57:54 UTC
3945,788726,"Hatikhira, Assam",,,2022-04-09 15:57:54 UTC,2022-04-09 15:57:54 UTC
3946,788727,"Bazaricherra, Assam",,,2022-04-09 15:57:54 UTC,2022-04-09 15:57:54 UTC
3947,788729,"Lakhi Cherra, Assam",,,2022-04-09 15:57:54 UTC,2022-04-09 15:57:54 UTC
3948,788731,"Kanai Bazar, Assam",,,2022-04-09 15:57:54 UTC,2022-04-09 15:57:54 UTC
3949,788733,"Bazarghat, Assam",,,2022-04-09 15:57:54 UTC,2022-04-09 15:57:54 UTC
3950,788734,"Anipur, Assam",,,2022-04-09 15:57:54 UTC,2022-04-09 15:57:54 UTC
3951,788735,"Retabari, Assam",,,2022-04-09 15:57:54 UTC,2022-04-09 15:57:54 UTC
3952,788736,"Dullavcherra, Assam",,,2022-04-09 15:57:54 UTC,2022-04-09 15:57:54 UTC
3953,788737,"Olivacherra, Assam",,,2022-04-09 15:57:54 UTC,2022-04-09 15:57:54 UTC
3954,788781,"Mahishasan, Assam",,,2022-04-09 15:57:54 UTC,2022-04-09 15:57:54 UTC
3955,788790,"Manikganj, Assam",,,2022-04-09 15:57:54 UTC,2022-04-09 15:57:54 UTC
3956,788801,"Kalinagar, Assam",,,2022-04-09 15:57:54 UTC,2022-04-09 15:57:54 UTC
3957,788802,"Panchgram, Assam",,,2022-04-09 15:57:54 UTC,2022-04-09 15:57:54 UTC
3958,788803,"Badarpurghat, Assam",,,2022-04-09 15:57:54 UTC,2022-04-09 15:57:54 UTC
3959,788805,"Katigorah, Assam",,,2022-04-09 15:57:54 UTC,2022-04-09 15:57:54 UTC
3960,788806,"Badarpur, Assam",,,2022-04-09 15:57:54 UTC,2022-04-09 15:57:54 UTC
3961,788808,"Hilara Colony, Assam",,,2022-04-09 15:57:55 UTC,2022-04-09 15:57:55 UTC
3962,788812,"Kalaincherra, Assam",,,2022-04-09 15:57:55 UTC,2022-04-09 15:57:55 UTC
3963,788814,"Salchopra, Assam",,,2022-04-09 15:57:55 UTC,2022-04-09 15:57:55 UTC
3964,788815,"Kalain, Assam",,,2022-04-09 15:57:55 UTC,2022-04-09 15:57:55 UTC
3965,788816,"Jalalpur, Assam",,,2022-04-09 15:57:55 UTC,2022-04-09 15:57:55 UTC
3966,788817,"Behara Bazar, Assam",,,2022-04-09 15:57:55 UTC,2022-04-09 15:57:55 UTC
3967,788818,"Harangajao, Assam",,,2022-04-09 15:57:55 UTC,2022-04-09 15:57:55 UTC
3968,788819,"Haflong, Assam",,,2022-04-09 15:57:55 UTC,2022-04-09 15:57:55 UTC
3969,788830,"Mahur, Assam",,,2022-04-09 15:57:55 UTC,2022-04-09 15:57:55 UTC
3970,788831,"Maibong, Assam",,,2022-04-09 15:57:55 UTC,2022-04-09 15:57:55 UTC
3971,788832,"Langting, Assam",,,2022-04-09 15:57:55 UTC,2022-04-09 15:57:55 UTC
3972,788834,"Khejurbond, Assam",,,2022-04-09 15:57:55 UTC,2022-04-09 15:57:55 UTC
3973,790001,"Bomdila, Arunachal Pradesh",,,2022-04-09 15:57:55 UTC,2022-04-09 15:57:55 UTC
3974,790002,"Kalaktang, Arunachal Pradesh",,,2022-04-09 15:57:55 UTC,2022-04-09 15:57:55 UTC
3975,790101,"Dirang, Arunachal Pradesh",,,2022-04-09 15:57:55 UTC,2022-04-09 15:57:55 UTC
3976,790102,"Seppa, Arunachal Pradesh",,,2022-04-09 15:57:55 UTC,2022-04-09 15:57:55 UTC
3977,790103,"Seijussa, Arunachal Pradesh",,,2022-04-09 15:57:55 UTC,2022-04-09 15:57:55 UTC
3978,790104,"Towang, Arunachal Pradesh",,,2022-04-09 15:57:55 UTC,2022-04-09 15:57:55 UTC
3979,790114,"Bhalukpong, Arunachal Pradesh",,,2022-04-09 15:57:55 UTC,2022-04-09 15:57:55 UTC
3980,790115,"Tenga Valley, Arunachal Pradesh",,,2022-04-09 15:57:55 UTC,2022-04-09 15:57:55 UTC
3981,791001,"Along, Arunachal Pradesh",,,2022-04-09 15:57:55 UTC,2022-04-09 15:57:55 UTC
3982,791002,"Yingkiong, Arunachal Pradesh",,,2022-04-09 15:57:55 UTC,2022-04-09 15:57:55 UTC
3983,791101,"Basar, Arunachal Pradesh",,,2022-04-09 15:57:55 UTC,2022-04-09 15:57:55 UTC
3984,791102,"Pasighat, Arunachal Pradesh",,,2022-04-09 15:57:55 UTC,2022-04-09 15:57:55 UTC
3985,791103,"Hill Top, Arunachal Pradesh",,,2022-04-09 15:57:55 UTC,2022-04-09 15:57:55 UTC
3986,791104,"Mebo, Arunachal Pradesh",,,2022-04-09 15:57:55 UTC,2022-04-09 15:57:55 UTC
3987,791111,"Itanagar, Arunachal Pradesh",,,2022-04-09 15:57:55 UTC,2022-04-09 15:57:55 UTC
3988,791112,"Doimukh, Arunachal Pradesh",,,2022-04-09 15:57:55 UTC,2022-04-09 15:57:55 UTC
3989,791113,"Banderdewa, Arunachal Pradesh",,,2022-04-09 15:57:55 UTC,2022-04-09 15:57:55 UTC
3990,791120,"Zero, Arunachal Pradesh",,,2022-04-09 15:57:55 UTC,2022-04-09 15:57:55 UTC
3991,791121,"Kimin, Arunachal Pradesh",,,2022-04-09 15:57:55 UTC,2022-04-09 15:57:55 UTC
3992,791122,"Daporizo, Arunachal Pradesh",,,2022-04-09 15:57:55 UTC,2022-04-09 15:57:55 UTC
3993,792001,"Tezu, Arunachal Pradesh",,,2022-04-09 15:57:55 UTC,2022-04-09 15:57:55 UTC
3994,792051,"Mechuka, Arunachal Pradesh",,,2022-04-09 15:57:55 UTC,2022-04-09 15:57:55 UTC
3995,792055,"Tuting, Arunachal Pradesh",,,2022-04-09 15:57:55 UTC,2022-04-09 15:57:55 UTC
3996,792101,"Anini, Arunachal Pradesh",,,2022-04-09 15:57:55 UTC,2022-04-09 15:57:55 UTC
3997,792102,"Hayuliang, Arunachal Pradesh",,,2022-04-09 15:57:55 UTC,2022-04-09 15:57:55 UTC
3998,792103,"Namsai, Arunachal Pradesh",,,2022-04-09 15:57:55 UTC,2022-04-09 15:57:55 UTC
3999,792104,"Chowkham, Arunachal Pradesh",,,2022-04-09 15:57:55 UTC,2022-04-09 15:57:55 UTC
4000,792110,"Roing, Arunachal Pradesh",,,2022-04-09 15:57:55 UTC,2022-04-09 15:57:55 UTC
4001,792111,"Sunpura, Arunachal Pradesh",,,2022-04-09 15:57:55 UTC,2022-04-09 15:57:55 UTC
4002,792120,"Changlong, Arunachal Pradesh",,,2022-04-09 15:57:55 UTC,2022-04-09 15:57:55 UTC
4003,792121,"Jairampur, Arunachal Pradesh",,,2022-04-09 15:57:55 UTC,2022-04-09 15:57:55 UTC
4004,792122,"Miao, Arunachal Pradesh",,,2022-04-09 15:57:55 UTC,2022-04-09 15:57:55 UTC
4005,792123,"Nampong, Arunachal Pradesh",,,2022-04-09 15:57:55 UTC,2022-04-09 15:57:55 UTC
4006,793001,"Oakland, Meghalaya",,,2022-04-09 15:57:55 UTC,2022-04-09 15:57:55 UTC
4007,793002,"Barabazar, Meghalaya",,,2022-04-09 15:57:55 UTC,2022-04-09 15:57:55 UTC
4008,793003,"Laitumkhrah, Meghalaya",,,2022-04-09 15:57:55 UTC,2022-04-09 15:57:55 UTC
4009,793004,"Bishnupur, Meghalaya",,,2022-04-09 15:57:55 UTC,2022-04-09 15:57:55 UTC
4010,793005,"Upper Shillong, Meghalaya",,,2022-04-09 15:57:55 UTC,2022-04-09 15:57:55 UTC
4011,793006,"Umpling, Meghalaya",,,2022-04-09 15:57:55 UTC,2022-04-09 15:57:55 UTC
4012,793007,"Happy Valley, Meghalaya",,,2022-04-09 15:57:55 UTC,2022-04-09 15:57:55 UTC
4013,793008,"Phudmawri Mawlai, Meghalaya",,,2022-04-09 15:57:55 UTC,2022-04-09 15:57:55 UTC
4014,793009,"Nonglyer, Meghalaya",,,2022-04-09 15:57:55 UTC,2022-04-09 15:57:55 UTC
4015,793010,"Laitkor Peak, Meghalaya",,,2022-04-09 15:57:55 UTC,2022-04-09 15:57:55 UTC
4016,793011,"Assam Rifles, Meghalaya",,,2022-04-09 15:57:55 UTC,2022-04-09 15:57:55 UTC
4017,793012,"Mawpat, Meghalaya",,,2022-04-09 15:57:55 UTC,2022-04-09 15:57:55 UTC
4018,793013,"Rilbong, Meghalaya",,,2022-04-09 15:57:55 UTC,2022-04-09 15:57:55 UTC
4019,793014,"Nongthymmai, Meghalaya",,,2022-04-09 15:57:55 UTC,2022-04-09 15:57:55 UTC
4020,793021,"Madan Ritting, Meghalaya",,,2022-04-09 15:57:55 UTC,2022-04-09 15:57:55 UTC
4021,793025,"Governors Camp, Meghalaya",,,2022-04-09 15:57:55 UTC,2022-04-09 15:57:55 UTC
4022,793101,"Burnihat, Meghalaya",,,2022-04-09 15:57:55 UTC,2022-04-09 15:57:55 UTC
4023,793102,"Nongpoh, Meghalaya",,,2022-04-09 15:57:55 UTC,2022-04-09 15:57:55 UTC
4024,793103,"Barapani, Meghalaya",,,2022-04-09 15:57:55 UTC,2022-04-09 15:57:55 UTC
4025,793104,"Sumer, Meghalaya",,,2022-04-09 15:57:55 UTC,2022-04-09 15:57:55 UTC
4026,793105,"Nayabunglow, Meghalaya",,,2022-04-09 15:57:55 UTC,2022-04-09 15:57:55 UTC
4027,793106,"Balat, Meghalaya",,,2022-04-09 15:57:55 UTC,2022-04-09 15:57:55 UTC
4028,793107,"Bholaganjbazar, Meghalaya",,,2022-04-09 15:57:55 UTC,2022-04-09 15:57:55 UTC
4029,793108,"Cherrapunjee, Meghalaya",,,2022-04-09 15:57:55 UTC,2022-04-09 15:57:55 UTC
4030,793109,"Dawki, Meghalaya",,,2022-04-09 15:57:55 UTC,2022-04-09 15:57:55 UTC
4031,793110,"Pynursla, Meghalaya",,,2022-04-09 15:57:55 UTC,2022-04-09 15:57:55 UTC
4032,793111,"Cherrabazar, Meghalaya",,,2022-04-09 15:57:55 UTC,2022-04-09 15:57:55 UTC
4033,793112,"Shella, Meghalaya",,,2022-04-09 15:57:55 UTC,2022-04-09 15:57:55 UTC
4034,793113,"Mawsynram, Meghalaya",,,2022-04-09 15:57:55 UTC,2022-04-09 15:57:55 UTC
4035,793119,"Nongstoin, Meghalaya",,,2022-04-09 15:57:55 UTC,2022-04-09 15:57:55 UTC
4036,793120,"Moirang, Meghalaya",,,2022-04-09 15:57:55 UTC,2022-04-09 15:57:55 UTC
4037,793121,"Mawphlang, Meghalaya",,,2022-04-09 15:57:55 UTC,2022-04-09 15:57:55 UTC
4038,793122,"Union Christian College, Meghalaya",,,2022-04-09 15:57:55 UTC,2022-04-09 15:57:55 UTC
4039,793150,"Jowai, Meghalaya",,,2022-04-09 15:57:55 UTC,2022-04-09 15:57:55 UTC
4040,794001,"Tura H O, Meghalaya",,,2022-04-09 15:57:55 UTC,2022-04-09 15:57:55 UTC
4041,794002,"Lower Chandmari, Meghalaya",,,2022-04-09 15:57:55 UTC,2022-04-09 15:57:55 UTC
4042,794005,"Dobasipara, Meghalaya",,,2022-04-09 15:57:55 UTC,2022-04-09 15:57:55 UTC
4043,794101,"Araimail, Meghalaya",,,2022-04-09 15:57:55 UTC,2022-04-09 15:57:55 UTC
4044,794102,"Bagmara, Meghalaya",,,2022-04-09 15:57:55 UTC,2022-04-09 15:57:55 UTC
4045,794103,"Barengapara, Meghalaya",,,2022-04-09 15:57:55 UTC,2022-04-09 15:57:55 UTC
4046,794104,"Fulbari, Meghalaya",,,2022-04-09 15:57:55 UTC,2022-04-09 15:57:55 UTC
4047,794105,"Garobandha, Meghalaya",,,2022-04-09 15:57:55 UTC,2022-04-09 15:57:55 UTC
4048,794106,"Mahendraganj, Meghalaya",,,2022-04-09 15:57:55 UTC,2022-04-09 15:57:55 UTC
4049,794107,"Nangalbibra, Meghalaya",,,2022-04-09 15:57:55 UTC,2022-04-09 15:57:55 UTC
4050,794108,"Resubelpara, Meghalaya",,,2022-04-09 15:57:55 UTC,2022-04-09 15:57:55 UTC
4051,794109,"Tikrikilla, Meghalaya",,,2022-04-09 15:57:55 UTC,2022-04-09 15:57:55 UTC
4052,794110,"Rongjeng, Meghalaya",,,2022-04-09 15:57:55 UTC,2022-04-09 15:57:55 UTC
4053,794111,"Simsanggiri, Meghalaya",,,2022-04-09 15:57:55 UTC,2022-04-09 15:57:55 UTC
4054,794112,"Mandipathar, Meghalaya",,,2022-04-09 15:57:55 UTC,2022-04-09 15:57:55 UTC
4055,795001,"D M College, Manipur",,,2022-04-09 15:57:55 UTC,2022-04-09 15:57:55 UTC
4056,795002,"Mantripukhri, Manipur",,,2022-04-09 15:57:55 UTC,2022-04-09 15:57:55 UTC
4057,795003,"J N University, Manipur",,,2022-04-09 15:57:55 UTC,2022-04-09 15:57:55 UTC
4058,795004,"Lamphelpat, Manipur",,,2022-04-09 15:57:55 UTC,2022-04-09 15:57:55 UTC
4059,795010,"Samdol, Manipur",,,2022-04-09 15:57:55 UTC,2022-04-09 15:57:55 UTC
4060,795011,"Swombung, Manipur",,,2022-04-09 15:57:55 UTC,2022-04-09 15:57:55 UTC
4061,795101,"Sugnu, Manipur",,,2022-04-09 15:57:55 UTC,2022-04-09 15:57:55 UTC
4062,795102,"Chakpikarong, Manipur",,,2022-04-09 15:57:55 UTC,2022-04-09 15:57:55 UTC
4063,795103,"Kakching Bazar, Manipur",,,2022-04-09 15:57:55 UTC,2022-04-09 15:57:55 UTC
4064,795104,"Tadubi, Manipur",,,2022-04-09 15:57:55 UTC,2022-04-09 15:57:55 UTC
4065,795105,"Maram, Manipur",,,2022-04-09 15:57:55 UTC,2022-04-09 15:57:55 UTC
4066,795106,"Karong, Manipur",,,2022-04-09 15:57:55 UTC,2022-04-09 15:57:55 UTC
4067,795115,"Gulerthal, Manipur",,,2022-04-09 15:57:55 UTC,2022-04-09 15:57:55 UTC
4068,795116,"Jiribam, Manipur",,,2022-04-09 15:57:55 UTC,2022-04-09 15:57:55 UTC
4069,795120,"Hiyangthang, Manipur",,,2022-04-09 15:57:55 UTC,2022-04-09 15:57:55 UTC
4070,795121,"K K Prampat, Manipur",,,2022-04-09 15:57:55 UTC,2022-04-09 15:57:55 UTC
4071,795122,"Kalapahar, Manipur",,,2022-04-09 15:57:55 UTC,2022-04-09 15:57:55 UTC
4072,795123,"Wongoi, Manipur",,,2022-04-09 15:57:55 UTC,2022-04-09 15:57:55 UTC
4073,795124,"Loktak Project, Manipur",,,2022-04-09 15:57:55 UTC,2022-04-09 15:57:55 UTC
4074,795125,"Tamel, Manipur",,,2022-04-09 15:57:55 UTC,2022-04-09 15:57:55 UTC
4075,795126,"Bishenpur, Manipur",,,2022-04-09 15:57:55 UTC,2022-04-09 15:57:55 UTC
4076,795127,"Chendel, Manipur",,,2022-04-09 15:57:55 UTC,2022-04-09 15:57:55 UTC
4077,795128,"Churachandpur, Manipur",,,2022-04-09 15:57:55 UTC,2022-04-09 15:57:55 UTC
4078,795129,"Kongpokpi, Manipur",,,2022-04-09 15:57:55 UTC,2022-04-09 15:57:55 UTC
4079,795130,"Lilong, Manipur",,,2022-04-09 15:57:55 UTC,2022-04-09 15:57:55 UTC
4080,795131,"Moreh, Manipur",,,2022-04-09 15:57:55 UTC,2022-04-09 15:57:55 UTC
4081,795132,"Mayang Imphal, Manipur",,,2022-04-09 15:57:55 UTC,2022-04-09 15:57:55 UTC
4082,795133,"Moirang, Manipur",,,2022-04-09 15:57:55 UTC,2022-04-09 15:57:55 UTC
4083,795134,"Nambol, Manipur",,,2022-04-09 15:57:55 UTC,2022-04-09 15:57:55 UTC
4084,795135,"Parrel, Manipur",,,2022-04-09 15:57:55 UTC,2022-04-09 15:57:55 UTC
4085,795136,"Sekmai, Manipur",,,2022-04-09 15:57:55 UTC,2022-04-09 15:57:55 UTC
4086,795137,"Singjamaibazar, Manipur",,,2022-04-09 15:57:55 UTC,2022-04-09 15:57:55 UTC
4087,795138,"Thoubal, Manipur",,,2022-04-09 15:57:55 UTC,2022-04-09 15:57:55 UTC
4088,795139,"Thingat, Manipur",,,2022-04-09 15:57:55 UTC,2022-04-09 15:57:55 UTC
4089,795140,"Tulihal, Manipur",,,2022-04-09 15:57:55 UTC,2022-04-09 15:57:55 UTC
4090,795141,"Tamenglong, Manipur",,,2022-04-09 15:57:55 UTC,2022-04-09 15:57:55 UTC
4091,795142,"Ukhrul, Manipur",,,2022-04-09 15:57:55 UTC,2022-04-09 15:57:55 UTC
4092,795143,"Thanlon, Manipur",,,2022-04-09 15:57:55 UTC,2022-04-09 15:57:55 UTC
4093,795144,"Tengnoupal, Manipur",,,2022-04-09 15:57:55 UTC,2022-04-09 15:57:55 UTC
4094,795145,"Tusen, Manipur",,,2022-04-09 15:57:55 UTC,2022-04-09 15:57:55 UTC
4095,795146,"Lumsung, Manipur",,,2022-04-09 15:57:55 UTC,2022-04-09 15:57:55 UTC
4096,795147,"Nungba, Manipur",,,2022-04-09 15:57:55 UTC,2022-04-09 15:57:55 UTC
4097,795150,"Mao, Manipur",,,2022-04-09 15:57:55 UTC,2022-04-09 15:57:55 UTC
4098,795151,"Kangla Tongbi, Manipur",,,2022-04-09 15:57:55 UTC,2022-04-09 15:57:55 UTC
4099,795158,"Ching Kompong, Manipur",,,2022-04-09 15:57:55 UTC,2022-04-09 15:57:55 UTC
4100,796001,"Aizawl H O, Mizoram",,,2022-04-09 15:57:55 UTC,2022-04-09 15:57:55 UTC
4101,796005,"Kulikawn, Mizoram",,,2022-04-09 15:57:55 UTC,2022-04-09 15:57:55 UTC
4102,796007,"Chandmari, Mizoram",,,2022-04-09 15:57:55 UTC,2022-04-09 15:57:55 UTC
4103,796009,"Vaivakaan, Mizoram",,,2022-04-09 15:57:55 UTC,2022-04-09 15:57:55 UTC
4104,796012,"Ramhlun, Mizoram",,,2022-04-09 15:57:55 UTC,2022-04-09 15:57:55 UTC
4105,796015,"Tlaingnuam, Mizoram",,,2022-04-09 15:57:55 UTC,2022-04-09 15:57:55 UTC
4106,796017,"Zemabawk, Mizoram",,,2022-04-09 15:57:55 UTC,2022-04-09 15:57:55 UTC
4107,796025,"Dustlang, Mizoram",,,2022-04-09 15:57:55 UTC,2022-04-09 15:57:55 UTC
4108,796031,"Sihphir, Mizoram",,,2022-04-09 15:57:55 UTC,2022-04-09 15:57:55 UTC
4109,796070,"Kawnpur, Mizoram",,,2022-04-09 15:57:55 UTC,2022-04-09 15:57:55 UTC
4110,796081,"Kolasib, Mizoram",,,2022-04-09 15:57:55 UTC,2022-04-09 15:57:55 UTC
4111,796101,"Vairengte, Mizoram",,,2022-04-09 15:57:55 UTC,2022-04-09 15:57:55 UTC
4112,796111,"Darlawn, Mizoram",,,2022-04-09 15:57:55 UTC,2022-04-09 15:57:55 UTC
4113,796161,"Thingsulthliah, Mizoram",,,2022-04-09 15:57:55 UTC,2022-04-09 15:57:55 UTC
4114,796181,"Serchhip, Mizoram",,,2022-04-09 15:57:55 UTC,2022-04-09 15:57:55 UTC
4115,796190,"Aibawk, Mizoram",,,2022-04-09 15:57:55 UTC,2022-04-09 15:57:55 UTC
4116,796230,"Sialsuk, Mizoram",,,2022-04-09 15:57:55 UTC,2022-04-09 15:57:55 UTC
4117,796261,"Saitual, Mizoram",,,2022-04-09 15:57:55 UTC,2022-04-09 15:57:55 UTC
4118,796290,"Ngopa, Mizoram",,,2022-04-09 15:57:55 UTC,2022-04-09 15:57:55 UTC
4119,796310,"Khawzawl, Mizoram",,,2022-04-09 15:57:55 UTC,2022-04-09 15:57:55 UTC
4120,796321,"Champai, Mizoram",,,2022-04-09 15:57:55 UTC,2022-04-09 15:57:55 UTC
4121,796370,"Lungdar, Mizoram",,,2022-04-09 15:57:55 UTC,2022-04-09 15:57:55 UTC
4122,796410,"Sairang, Mizoram",,,2022-04-09 15:57:55 UTC,2022-04-09 15:57:55 UTC
4123,796441,"Mumit, Mizoram",,,2022-04-09 15:57:55 UTC,2022-04-09 15:57:55 UTC
4124,796471,"Lakhicherra, Mizoram",,,2022-04-09 15:57:55 UTC,2022-04-09 15:57:55 UTC
4125,796571,"Hnahthial, Mizoram",,,2022-04-09 15:57:55 UTC,2022-04-09 15:57:55 UTC
4126,796629,"Deomali, Mizoram",,,2022-04-09 15:57:55 UTC,2022-04-09 15:57:55 UTC
4127,796691,"Zotlang, Mizoram",,,2022-04-09 15:57:55 UTC,2022-04-09 15:57:55 UTC
4128,796701,"Lunglei, Mizoram",,,2022-04-09 15:57:55 UTC,2022-04-09 15:57:55 UTC
4129,796710,"Bunghmun, Mizoram",,,2022-04-09 15:57:55 UTC,2022-04-09 15:57:55 UTC
4130,796730,"Lungsen, Mizoram",,,2022-04-09 15:57:55 UTC,2022-04-09 15:57:55 UTC
4131,796751,"Demagiri, Mizoram",,,2022-04-09 15:57:55 UTC,2022-04-09 15:57:55 UTC
4132,796770,"Chawngte, Mizoram",,,2022-04-09 15:57:55 UTC,2022-04-09 15:57:55 UTC
4133,796901,"Saiha, Mizoram",,,2022-04-09 15:57:55 UTC,2022-04-09 15:57:55 UTC
4134,797001,"Kohima H O, Nagaland",,,2022-04-09 15:57:55 UTC,2022-04-09 15:57:55 UTC
4135,797101,"Birema, Nagaland",,,2022-04-09 15:57:55 UTC,2022-04-09 15:57:55 UTC
4136,797102,"Chizami, Nagaland",,,2022-04-09 15:57:55 UTC,2022-04-09 15:57:55 UTC
4137,797103,"Chumukhedima, Nagaland",,,2022-04-09 15:57:55 UTC,2022-04-09 15:57:55 UTC
4138,797104,"Chazouba, Nagaland",,,2022-04-09 15:57:55 UTC,2022-04-09 15:57:55 UTC
4139,797105,"Cheichema, Nagaland",,,2022-04-09 15:57:55 UTC,2022-04-09 15:57:55 UTC
4140,797106,"Ghaspani, Nagaland",,,2022-04-09 15:57:55 UTC,2022-04-09 15:57:55 UTC
4141,797107,"Pfutserro, Nagaland",,,2022-04-09 15:57:55 UTC,2022-04-09 15:57:55 UTC
4142,797108,"Phek, Nagaland",,,2022-04-09 15:57:55 UTC,2022-04-09 15:57:55 UTC
4143,797109,"Tseminyu, Nagaland",,,2022-04-09 15:57:55 UTC,2022-04-09 15:57:55 UTC
4144,797110,"Zalukei, Nagaland",,,2022-04-09 15:57:55 UTC,2022-04-09 15:57:55 UTC
4145,797111,"Wokha, Nagaland",,,2022-04-09 15:57:55 UTC,2022-04-09 15:57:55 UTC
4146,797112,"Dimapur, Nagaland",,,2022-04-09 15:57:55 UTC,2022-04-09 15:57:55 UTC
4147,797121,"Piphema, Nagaland",,,2022-04-09 15:57:55 UTC,2022-04-09 15:57:55 UTC
4148,797122,"Pherima, Nagaland",,,2022-04-09 15:57:55 UTC,2022-04-09 15:57:55 UTC
4149,797123,"Rangapahar, Nagaland",,,2022-04-09 15:57:55 UTC,2022-04-09 15:57:55 UTC
4150,797124,"Sugar Mill Project, Nagaland",,,2022-04-09 15:57:55 UTC,2022-04-09 15:57:55 UTC
4151,797125,"Zakhama, Nagaland",,,2022-04-09 15:57:55 UTC,2022-04-09 15:57:55 UTC
4152,797126,"Zubza, Nagaland",,,2022-04-09 15:57:55 UTC,2022-04-09 15:57:55 UTC
4153,797127,"Viswama, Nagaland",,,2022-04-09 15:57:55 UTC,2022-04-09 15:57:55 UTC
4154,798601,"Mokokchung, Nagaland",,,2022-04-09 15:57:55 UTC,2022-04-09 15:57:55 UTC
4155,798611,"Kiphira, Nagaland",,,2022-04-09 15:57:55 UTC,2022-04-09 15:57:55 UTC
4156,798612,"Tuensang, Nagaland",,,2022-04-09 15:57:55 UTC,2022-04-09 15:57:55 UTC
4157,798613,"Changtongia, Nagaland",,,2022-04-09 15:57:55 UTC,2022-04-09 15:57:55 UTC
4158,798614,"Chuchyemlong, Nagaland",,,2022-04-09 15:57:56 UTC,2022-04-09 15:57:56 UTC
4159,798615,"Impur, Nagaland",,,2022-04-09 15:57:56 UTC,2022-04-09 15:57:56 UTC
4160,798616,"Longkhim, Nagaland",,,2022-04-09 15:57:56 UTC,2022-04-09 15:57:56 UTC
4161,798617,"Ongpangkong, Nagaland",,,2022-04-09 15:57:56 UTC,2022-04-09 15:57:56 UTC
4162,798618,"Tuli, Nagaland",,,2022-04-09 15:57:56 UTC,2022-04-09 15:57:56 UTC
4163,798619,"Akolato, Nagaland",,,2022-04-09 15:57:56 UTC,2022-04-09 15:57:56 UTC
4164,798620,"Zunheboto, Nagaland",,,2022-04-09 15:57:56 UTC,2022-04-09 15:57:56 UTC
4165,798621,"Mon, Nagaland",,,2022-04-09 15:57:56 UTC,2022-04-09 15:57:56 UTC
4166,798622,"Naginamara, Nagaland",,,2022-04-09 15:57:56 UTC,2022-04-09 15:57:56 UTC
4167,798623,"Paper Nagar Tuli, Nagaland",,,2022-04-09 15:57:56 UTC,2022-04-09 15:57:56 UTC
4168,798626,"Aghunoto, Nagaland",,,2022-04-09 15:57:56 UTC,2022-04-09 15:57:56 UTC
4169,798627,"Atoizu, Nagaland",,,2022-04-09 15:57:56 UTC,2022-04-09 15:57:56 UTC
4170,798628,"Meraring, Nagaland",,,2022-04-09 15:57:56 UTC,2022-04-09 15:57:56 UTC
4171,798629,"Sutakha, Nagaland",,,2022-04-09 15:57:56 UTC,2022-04-09 15:57:56 UTC
4172,798630,"Kobulong, Nagaland",,,2022-04-09 15:57:56 UTC,2022-04-09 15:57:56 UTC
4173,798631,"Chukitong, Nagaland",,,2022-04-09 15:57:56 UTC,2022-04-09 15:57:56 UTC
4174,798632,"Sungra, Nagaland",,,2022-04-09 15:57:56 UTC,2022-04-09 15:57:56 UTC
4175,799001,"Agartala Secretariat, Tripura",,,2022-04-09 15:57:56 UTC,2022-04-09 15:57:56 UTC
4176,799002,"Ramnagar, Tripura",,,2022-04-09 15:57:56 UTC,2022-04-09 15:57:56 UTC
4177,799003,"Arundhuti Nagar, Tripura",,,2022-04-09 15:57:56 UTC,2022-04-09 15:57:56 UTC
4178,799004,"Agartala College, Tripura",,,2022-04-09 15:57:56 UTC,2022-04-09 15:57:56 UTC
4179,799005,"Abhaynagar, Tripura",,,2022-04-09 15:57:56 UTC,2022-04-09 15:57:56 UTC
4180,799006,"Kunjaban, Tripura",,,2022-04-09 15:57:56 UTC,2022-04-09 15:57:56 UTC
4181,799007,"Dhaleswar, Tripura",,,2022-04-09 15:57:56 UTC,2022-04-09 15:57:56 UTC
4182,799008,"Khayaspur, Tripura",,,2022-04-09 15:57:56 UTC,2022-04-09 15:57:56 UTC
4183,799009,"Agartala Airport, Tripura",,,2022-04-09 15:57:56 UTC,2022-04-09 15:57:56 UTC
4184,799010,"Jogendranagar, Tripura",,,2022-04-09 15:57:56 UTC,2022-04-09 15:57:56 UTC
4185,799011,"Barjala, Tripura",,,2022-04-09 15:57:56 UTC,2022-04-09 15:57:56 UTC
4186,799012,"Salbagan, Tripura",,,2022-04-09 15:57:56 UTC,2022-04-09 15:57:56 UTC
4187,799015,"Bimangarh, Tripura",,,2022-04-09 15:57:56 UTC,2022-04-09 15:57:56 UTC
4188,799035,"Ranirbazar, Tripura",,,2022-04-09 15:57:56 UTC,2022-04-09 15:57:56 UTC
4189,799045,"Birendra Nagar, Tripura",,,2022-04-09 15:57:56 UTC,2022-04-09 15:57:56 UTC
4190,799055,"Tripura Engg College, Tripura",,,2022-04-09 15:57:56 UTC,2022-04-09 15:57:56 UTC
4191,799101,"Amarpur, Tripura",,,2022-04-09 15:57:56 UTC,2022-04-09 15:57:56 UTC
4192,799102,"Bishalgarh, Tripura",,,2022-04-09 15:57:56 UTC,2022-04-09 15:57:56 UTC
4193,799103,"Bisramaganj, Tripura",,,2022-04-09 15:57:56 UTC,2022-04-09 15:57:56 UTC
4194,799104,"Gumti Project, Tripura",,,2022-04-09 15:57:56 UTC,2022-04-09 15:57:56 UTC
4195,799105,"Kakraban, Tripura",,,2022-04-09 15:57:56 UTC,2022-04-09 15:57:56 UTC
4196,799108,"Ampinagar, Tripura",,,2022-04-09 15:57:56 UTC,2022-04-09 15:57:56 UTC
4197,799109,"Zirjhamukha, Tripura",,,2022-04-09 15:57:56 UTC,2022-04-09 15:57:56 UTC
4198,799115,"Melagarh, Tripura",,,2022-04-09 15:57:56 UTC,2022-04-09 15:57:56 UTC
4199,799119,"Bagma, Tripura",,,2022-04-09 15:57:56 UTC,2022-04-09 15:57:56 UTC
4200,799120,"Udaipur Court, Tripura",,,2022-04-09 15:57:56 UTC,2022-04-09 15:57:56 UTC
4201,799121,"Maharani, Tripura",,,2022-04-09 15:57:56 UTC,2022-04-09 15:57:56 UTC
4202,799122,"Matabari, Tripura",,,2022-04-09 15:57:56 UTC,2022-04-09 15:57:56 UTC
4203,799123,"Jamjuri, Tripura",,,2022-04-09 15:57:56 UTC,2022-04-09 15:57:56 UTC
4204,799125,"Salgarh, Tripura",,,2022-04-09 15:57:56 UTC,2022-04-09 15:57:56 UTC
4205,799130,"Sekerkote, Tripura",,,2022-04-09 15:57:56 UTC,2022-04-09 15:57:56 UTC
4206,799131,"Sunamura, Tripura",,,2022-04-09 15:57:56 UTC,2022-04-09 15:57:56 UTC
4207,799132,"Kathalia, Tripura",,,2022-04-09 15:57:56 UTC,2022-04-09 15:57:56 UTC
4208,799141,"Jolaibari, Tripura",,,2022-04-09 15:57:56 UTC,2022-04-09 15:57:56 UTC
4209,799142,"Muhuripur, Tripura",,,2022-04-09 15:57:56 UTC,2022-04-09 15:57:56 UTC
4210,799143,"Manubazar, Tripura",,,2022-04-09 15:57:56 UTC,2022-04-09 15:57:56 UTC
4211,799144,"Santirbazar, Tripura",,,2022-04-09 15:57:56 UTC,2022-04-09 15:57:56 UTC
4212,799145,"Sabroom, Tripura",,,2022-04-09 15:57:56 UTC,2022-04-09 15:57:56 UTC
4213,799146,"Kalsibazar, Tripura",,,2022-04-09 15:57:56 UTC,2022-04-09 15:57:56 UTC
4214,799147,"Jalefa Bazar, Tripura",,,2022-04-09 15:57:56 UTC,2022-04-09 15:57:56 UTC
4215,799148,"Baikara, Tripura",,,2022-04-09 15:57:56 UTC,2022-04-09 15:57:56 UTC
4216,799149,"Satchand, Tripura",,,2022-04-09 15:57:56 UTC,2022-04-09 15:57:56 UTC
4217,799153,"Radhanagar, Tripura",,,2022-04-09 15:57:56 UTC,2022-04-09 15:57:56 UTC
4218,799155,"Beloniya, Tripura",,,2022-04-09 15:57:56 UTC,2022-04-09 15:57:56 UTC
4219,799156,"Rishyamukh, Tripura",,,2022-04-09 15:57:56 UTC,2022-04-09 15:57:56 UTC
4220,799157,"Anandapur, Tripura",,,2022-04-09 15:57:56 UTC,2022-04-09 15:57:56 UTC
4221,799158,"Rajnagar, Tripura",,,2022-04-09 15:57:56 UTC,2022-04-09 15:57:56 UTC
4222,799159,"Matai, Tripura",,,2022-04-09 15:57:56 UTC,2022-04-09 15:57:56 UTC
4223,799201,"Khowai, Tripura",,,2022-04-09 15:57:56 UTC,2022-04-09 15:57:56 UTC
4224,799202,"Khowai Court, Tripura",,,2022-04-09 15:57:56 UTC,2022-04-09 15:57:56 UTC
4225,799203,"Kalyanpur, Tripura",,,2022-04-09 15:57:56 UTC,2022-04-09 15:57:56 UTC
4226,799204,"Kulaibazar, Tripura",,,2022-04-09 15:57:56 UTC,2022-04-09 15:57:56 UTC
4227,799205,"Teliamura, Tripura",,,2022-04-09 15:57:56 UTC,2022-04-09 15:57:56 UTC
4228,799206,"Bachaibari, Tripura",,,2022-04-09 15:57:56 UTC,2022-04-09 15:57:56 UTC
4229,799210,"Kamalghat, Tripura",,,2022-04-09 15:57:56 UTC,2022-04-09 15:57:56 UTC
4230,799211,"Mohanpur, Tripura",,,2022-04-09 15:57:56 UTC,2022-04-09 15:57:56 UTC
4231,799212,"Sidhai, Tripura",,,2022-04-09 15:57:56 UTC,2022-04-09 15:57:56 UTC
4232,799213,"Simna, Tripura",,,2022-04-09 15:57:56 UTC,2022-04-09 15:57:56 UTC
4233,799214,"Fatikcherra, Tripura",,,2022-04-09 15:57:56 UTC,2022-04-09 15:57:56 UTC
4234,799250,"Dharma Nagar H O, Tripura",,,2022-04-09 15:57:56 UTC,2022-04-09 15:57:56 UTC
4235,799251,"Chandrap, Tripura",,,2022-04-09 15:57:56 UTC,2022-04-09 15:57:56 UTC
4236,799252,"Bagbassa, Tripura",,,2022-04-09 15:57:56 UTC,2022-04-09 15:57:56 UTC
4237,799260,"Panisagar, Tripura",,,2022-04-09 15:57:56 UTC,2022-04-09 15:57:56 UTC
4238,799261,"Kadamtala, Tripura",,,2022-04-09 15:57:56 UTC,2022-04-09 15:57:56 UTC
4239,799262,"Churaib, Tripura",,,2022-04-09 15:57:56 UTC,2022-04-09 15:57:56 UTC
4240,799263,"Pecharthal, Tripura",,,2022-04-09 15:57:56 UTC,2022-04-09 15:57:56 UTC
4241,799264,"Kumarghat, Tripura",,,2022-04-09 15:57:56 UTC,2022-04-09 15:57:56 UTC
4242,799265,"Machmara, Tripura",,,2022-04-09 15:57:56 UTC,2022-04-09 15:57:56 UTC
4243,799269,"Jampuri, Tripura",,,2022-04-09 15:57:56 UTC,2022-04-09 15:57:56 UTC
4244,799270,"Kanchanpur, Tripura",,,2022-04-09 15:57:56 UTC,2022-04-09 15:57:56 UTC
4245,799271,"Dasdabazar, Tripura",,,2022-04-09 15:57:56 UTC,2022-04-09 15:57:56 UTC
4246,799273,"Chaileng, Tripura",,,2022-04-09 15:57:56 UTC,2022-04-09 15:57:56 UTC
4247,799275,"Manughat, Tripura",,,2022-04-09 15:57:56 UTC,2022-04-09 15:57:56 UTC
4248,799277,"Kailashahar, Tripura",,,2022-04-09 15:57:56 UTC,2022-04-09 15:57:56 UTC
4249,799278,"Salema, Tripura",,,2022-04-09 15:57:56 UTC,2022-04-09 15:57:56 UTC
4250,799279,"Paiturbazar, Tripura",,,2022-04-09 15:57:56 UTC,2022-04-09 15:57:56 UTC
4251,799285,"Kamalpur, Tripura",,,2022-04-09 15:57:56 UTC,2022-04-09 15:57:56 UTC
4252,799286,"Halahali, Tripura",,,2022-04-09 15:57:56 UTC,2022-04-09 15:57:56 UTC
4253,799287,"Manikbhandar, Tripura",,,2022-04-09 15:57:56 UTC,2022-04-09 15:57:56 UTC
4254,799288,"Kanchanbari, Tripura",,,2022-04-09 15:57:56 UTC,2022-04-09 15:57:56 UTC
4255,799289,"Ambassa, Tripura",,,2022-04-09 15:57:56 UTC,2022-04-09 15:57:56 UTC
4256,799290,"Fatikroy, Tripura",,,2022-04-09 15:57:56 UTC,2022-04-09 15:57:56 UTC
4257,734301,"7th Mile Kalimpong S.O, DARJILING",,,2022-04-09 15:57:56 UTC,2022-04-09 15:57:56 UTC
4258,700059,"Baguiati Super Market, West Bengal",22.6106982,88.4274099367802,2022-04-09 15:57:56 UTC,2022-04-09 15:57:56 UTC
4259,756032,Jaleswar Odisha,21.8039,87.227,2022-04-09 16:57:03 UTC,2022-04-09 17:20:06 UTC
4260,0,Baleshwar (M) Odisha,21.4934,86.9135,2022-04-09 17:21:52 UTC,2022-04-09 17:24:53 UTC
4261,700157,Rajarhat West Bengal,22.6085741,88.4382332,2022-04-09 17:28:04 UTC,2022-04-09 17:28:57 UTC
